{
"type": "FeatureCollection",
"name": "boundarypoint",
"features": [
{ "type": "Feature", "properties": { "LAK_KHET_NO": "หลักเขตที่ 2", "TAM_NAM_T": "ต.ตะเคียนราม", "GAZETTE_REF": "ราชกิจจานุเบกษา เล่ม 114 ตอนพิเศษ 96 ง หน้า 308 ลงวันที่ 15 ตุลาคม 2540", "TEXT_DESCRIP": "", "GRID_CODE": "VB073180" }, "geometry": { "type": "Point", "coordinates": [ 104.135351922007871, 14.636626264941325 ] } },
{ "type": "Feature", "properties": { "LAK_KHET_NO": "หลักเขตที่ 3", "TAM_NAM_T": "ต.ตะเคียนราม", "GAZETTE_REF": "ราชกิจจานุเบกษา เล่ม 114 ตอนพิเศษ 96 ง หน้า 308 ลงวันที่ 15 ตุลาคม 2540", "TEXT_DESCRIP": "", "GRID_CODE": "VB075180" }, "geometry": { "type": "Point", "coordinates": [ 104.137208966170817, 14.63663315219638 ] } },
{ "type": "Feature", "properties": { "LAK_KHET_NO": "หลักเขตที่ 4", "TAM_NAM_T": "ต.ตะเคียนราม", "GAZETTE_REF": "ราชกิจจานุเบกษา เล่ม 114 ตอนพิเศษ 96 ง หน้า 308 ลงวันที่ 15 ตุลาคม 2540", "TEXT_DESCRIP": "", "GRID_CODE": "VB083180" }, "geometry": { "type": "Point", "coordinates": [ 104.144637152498603, 14.636660553179087 ] } },
{ "type": "Feature", "properties": { "LAK_KHET_NO": "หลักเขตที่ 5", "TAM_NAM_T": "ต.ตะเคียนราม", "GAZETTE_REF": "ราชกิจจานุเบกษา เล่ม 114 ตอนพิเศษ 96 ง หน้า 308 ลงวันที่ 15 ตุลาคม 2540", "TEXT_DESCRIP": "", "GRID_CODE": "VB107183" }, "geometry": { "type": "Point", "coordinates": [ 104.166911568053607, 14.639453529214174 ] } },
{ "type": "Feature", "properties": { "LAK_KHET_NO": "หลักเขตที่ 6", "TAM_NAM_T": "ต.ตะเคียนราม", "GAZETTE_REF": "ราชกิจจานุเบกษา เล่ม 114 ตอนพิเศษ 96 ง หน้า 308 ลงวันที่ 15 ตุลาคม 2540", "TEXT_DESCRIP": "", "GRID_CODE": "VB110182" }, "geometry": { "type": "Point", "coordinates": [ 104.16970059372035, 14.638559413641406 ] } },
{ "type": "Feature", "properties": { "LAK_KHET_NO": "หลักเขตที่ 7", "TAM_NAM_T": "ต.ตะเคียนราม", "GAZETTE_REF": "ราชกิจจานุเบกษา เล่ม 114 ตอนพิเศษ 96 ง หน้า 308 ลงวันที่ 15 ตุลาคม 2540", "TEXT_DESCRIP": "", "GRID_CODE": "VB125177" }, "geometry": { "type": "Point", "coordinates": [ 104.183645407800654, 14.634088315924284 ] } },
{ "type": "Feature", "properties": { "LAK_KHET_NO": "หลักเขตที่ 8", "TAM_NAM_T": "ต.ตะเคียนราม", "GAZETTE_REF": "ราชกิจจานุเบกษา เล่ม 114 ตอนพิเศษ 96 ง หน้า 308 ลงวันที่ 15 ตุลาคม 2540", "TEXT_DESCRIP": "", "GRID_CODE": "VB133173" }, "geometry": { "type": "Point", "coordinates": [ 104.191086842483656, 14.630497948661395 ] } },
{ "type": "Feature", "properties": { "LAK_KHET_NO": "หลักเขตที่ 9", "TAM_NAM_T": "ต.ตะเคียนราม", "GAZETTE_REF": "ราชกิจจานุเบกษา เล่ม 114 ตอนพิเศษ 96 ง หน้า 308 ลงวันที่ 15 ตุลาคม 2540", "TEXT_DESCRIP": "", "GRID_CODE": "VB132163" }, "geometry": { "type": "Point", "coordinates": [ 104.19019146940937, 14.621454013066023 ] } },
{ "type": "Feature", "properties": { "LAK_KHET_NO": "หลักเขตที่ 10", "TAM_NAM_T": "ต.ตะเคียนราม", "GAZETTE_REF": "ราชกิจจานุเบกษา เล่ม 114 ตอนพิเศษ 96 ง หน้า 308 ลงวันที่ 15 ตุลาคม 2540", "TEXT_DESCRIP": "", "GRID_CODE": "VB134151" }, "geometry": { "type": "Point", "coordinates": [ 104.192088054404195, 14.610611590228199 ] } },
{ "type": "Feature", "properties": { "LAK_KHET_NO": "หลักเขตที่ 11", "TAM_NAM_T": "ต.ตะเคียนราม", "GAZETTE_REF": "ราชกิจจานุเบกษา เล่ม 114 ตอนพิเศษ 96 ง หน้า 308 ลงวันที่ 15 ตุลาคม 2540", "TEXT_DESCRIP": "", "GRID_CODE": "VB140120" }, "geometry": { "type": "Point", "coordinates": [ 104.197760167848699, 14.582604493202883 ] } },
{ "type": "Feature", "properties": { "LAK_KHET_NO": "หลักเขตที่ 12", "TAM_NAM_T": "ต.ตะเคียนราม", "GAZETTE_REF": "ราชกิจจานุเบกษา เล่ม 114 ตอนพิเศษ 96 ง หน้า 308 ลงวันที่ 15 ตุลาคม 2540", "TEXT_DESCRIP": "", "GRID_CODE": "VB159116" }, "geometry": { "type": "Point", "coordinates": [ 104.206127917816602, 14.579016714588619 ] } },
{ "type": "Feature", "properties": { "LAK_KHET_NO": "หลักเขตที่ 13", "TAM_NAM_T": "ต.ตะเคียนราม", "GAZETTE_REF": "ราชกิจจานุเบกษา เล่ม 114 ตอนพิเศษ 96 ง หน้า 308 ลงวันที่ 15 ตุลาคม 2540", "TEXT_DESCRIP": "", "GRID_CODE": "VB092110" }, "geometry": { "type": "Point", "coordinates": [ 104.153236085229224, 14.573406607999932 ] } },
{ "type": "Feature", "properties": { "LAK_KHET_NO": "หลักเขตที่ 1", "TAM_NAM_T": "ต.ตะเคียนราม", "GAZETTE_REF": "ราชกิจจานุเบกษา เล่ม 114 ตอนพิเศษ 96 ง หน้า 308 ลงวันที่ 15 ตุลาคม 2540", "TEXT_DESCRIP": "", "GRID_CODE": "VB072174" }, "geometry": { "type": "Point", "coordinates": [ 104.13444466240162, 14.631198471133263 ] } }
]
}
