{
"type": "FeatureCollection",
"name": "boundary",
"crs": { "type": "name", "properties": { "name": "urn:ogc:def:crs:OGC::CRS84" } },
"features": [
{ "type": "Feature", "properties": { "TAMBON_IDN": "331705", "TAM_NAM_T": "ต.ตะเคียนราม", "AMPHOE_IDN": "3317", "AMPHOE_T": "อ.ภูสิงห์", "AMPHOE_E": "Phusing", "PROV_NAM_T": "จ.ศรีสะเกษ", "PROV_NAM_E": "Sisaket", "P_CODE": "SK", "p_zone": "48", "boundaryor": "ต.ตะเคียนราม", "P_Seletc": null }, "geometry": { "type": "MultiPolygon", "coordinates": [ [ [ [ 104.135901605210776, 14.636615540566767 ], [ 104.144437881108786, 14.636912022813666 ], [ 104.144441349334485, 14.636911945995612 ], [ 104.144501321955246, 14.636359907676828 ], [ 104.144846019966948, 14.635370230158161 ], [ 104.145367991250112, 14.634542177236913 ], [ 104.146042771413775, 14.633818854011013 ], [ 104.147202134535831, 14.632796489145219 ], [ 104.148196051845375, 14.632119023480756 ], [ 104.149496996407436, 14.631464031690188 ], [ 104.150879177699593, 14.631018957036506 ], [ 104.151860198736514, 14.630928509591465 ], [ 104.153159317268205, 14.630987542931152 ], [ 104.153595147853267, 14.631126532438392 ], [ 104.153702371504338, 14.631161318121849 ], [ 104.154127423822416, 14.631185674983049 ], [ 104.154847277752353, 14.631451250329629 ], [ 104.155694743065723, 14.632523713807617 ], [ 104.15610636542614, 14.633604719403476 ], [ 104.156835023433558, 14.634838602292984 ], [ 104.157648070665886, 14.635921951290989 ], [ 104.158319628883021, 14.636544453362827 ], [ 104.158739682567713, 14.636700671744505 ], [ 104.159288084159428, 14.636558980784161 ], [ 104.160092804319333, 14.636052345576466 ], [ 104.161061890702115, 14.635847248859825 ], [ 104.161673821129483, 14.635751440838238 ], [ 104.16237205619359, 14.635883451613294 ], [ 104.163529143091395, 14.63634648846463 ], [ 104.164814576138681, 14.637004868954087 ], [ 104.165734859042786, 14.63762856776623 ], [ 104.166630625733319, 14.638193120128699 ], [ 104.167775586502884, 14.638631623366539 ], [ 104.168132413346129, 14.638853419330948 ], [ 104.168944496379311, 14.63895697061435 ], [ 104.169877807355348, 14.638509381694728 ], [ 104.171273718720769, 14.637567243477053 ], [ 104.172266967174082, 14.637259082647065 ], [ 104.174169006349729, 14.63678990549797 ], [ 104.175941479365335, 14.636320223977204 ], [ 104.177182854641131, 14.635989623943299 ], [ 104.178683972572344, 14.63558903720082 ], [ 104.180763205201501, 14.635131629330965 ], [ 104.182252311934619, 14.634811246655898 ], [ 104.183741146221251, 14.634479600364724 ], [ 104.184875164584057, 14.63415924405655 ], [ 104.185938901458016, 14.633850587344092 ], [ 104.186836665989446, 14.633517479235827 ], [ 104.187877608722346, 14.633174414264365 ], [ 104.188857784069583, 14.632854099267751 ], [ 104.189790003589209, 14.632511203621151 ], [ 104.190342883392333, 14.632316419784015 ], [ 104.191056365367373, 14.632016695297862 ], [ 104.191565288816818, 14.631821765262114 ], [ 104.192050004033149, 14.631581204366775 ], [ 104.192359914434206, 14.631382837654812 ], [ 104.192489070391289, 14.631170492530112 ], [ 104.192489043858203, 14.631169367001609 ], [ 104.192499215770226, 14.630963059435334 ], [ 104.192464559355244, 14.630719465589078 ], [ 104.192136488792968, 14.629509459246433 ], [ 104.191855510506372, 14.628334435079445 ], [ 104.191529418232321, 14.627109741913563 ], [ 104.191115603673225, 14.62608858266754 ], [ 104.190740867876684, 14.624614972872175 ], [ 104.19066104745977, 14.623337478019772 ], [ 104.190640012679125, 14.622002364017826 ], [ 104.190749386228504, 14.620655329324455 ], [ 104.19117762141596, 14.618999374804091 ], [ 104.19148880795052, 14.617284097841633 ], [ 104.191657186628163, 14.615937999958975 ], [ 104.191754726295358, 14.614382898907825 ], [ 104.19191050196946, 14.612796093002155 ], [ 104.192127457003878, 14.611057021734249 ], [ 104.192283946967137, 14.609746101036325 ], [ 104.192439394927021, 14.608341735907439 ], [ 104.192655724928969, 14.607018219488914 ], [ 104.193001155855924, 14.605234617486767 ], [ 104.193417297112674, 14.603703942011634 ], [ 104.193986998848587, 14.602163084114579 ], [ 104.194545026923763, 14.60086347714225 ], [ 104.195245920254308, 14.59914852343438 ], [ 104.195839028181112, 14.597423589042757 ], [ 104.196280494781377, 14.59559393287315 ], [ 104.196495658672092, 14.594270449526931 ], [ 104.196592591953134, 14.592934965428908 ], [ 104.196796004649116, 14.591554313424281 ], [ 104.196822430156161, 14.590023332972054 ], [ 104.196838138824305, 14.588331557166372 ], [ 104.196900582803323, 14.586512613989207 ], [ 104.196998531753167, 14.584924858901624 ], [ 104.197095045180788, 14.583669340136995 ], [ 104.197144767108412, 14.582784230895623 ], [ 104.197144087958762, 14.582656995043175 ], [ 104.197760098801169, 14.581759256599423 ], [ 104.198256435518132, 14.58142724393435 ], [ 104.199166900742256, 14.580807842915121 ], [ 104.200385809207361, 14.579979984322081 ], [ 104.201330359817149, 14.579532112526676 ], [ 104.202571971921387, 14.578981888715294 ], [ 104.203493232487475, 14.578625745050184 ], [ 104.204462523280228, 14.578247130269864 ], [ 104.204984998943729, 14.578044026837311 ], [ 104.203943977096216, 14.577487325798057 ], [ 104.202941481192084, 14.57729011250723 ], [ 104.201890156781317, 14.577081596697054 ], [ 104.200331948122596, 14.576756006733953 ], [ 104.198408799597914, 14.576350705866192 ], [ 104.196189282630868, 14.575979019266839 ], [ 104.193013622763402, 14.57570968887757 ], [ 104.190534521180439, 14.575510391325242 ], [ 104.187783908806182, 14.575517558376546 ], [ 104.185327951371463, 14.575467463432101 ], [ 104.182683065564049, 14.575496992986714 ], [ 104.180380388796507, 14.575574069860474 ], [ 104.177923652659771, 14.575639905865264 ], [ 104.175539227558531, 14.575485637985704 ], [ 104.173202386158977, 14.575240196381523 ], [ 104.170521850583214, 14.574983206880441 ], [ 104.167594956396627, 14.574575108042273 ], [ 104.164620231182724, 14.574247985916029 ], [ 104.162153149330052, 14.573921972569703 ], [ 104.159356636423425, 14.57335320912166 ], [ 104.15672373579639, 14.572957599313181 ], [ 104.154752232318401, 14.573057497625198 ], [ 104.152691587322494, 14.573451031196218 ], [ 104.15267332968773, 14.573511122427949 ], [ 104.152642935904709, 14.573596257900386 ], [ 104.152610178204583, 14.573679193242 ], [ 104.152572823788844, 14.573763356345228 ], [ 104.152533079226444, 14.573844193711308 ], [ 104.152491023179806, 14.57392508215608 ], [ 104.152446655645917, 14.574006021679081 ], [ 104.15240226186522, 14.574085835598202 ], [ 104.152356686104994, 14.574164549451107 ], [ 104.152311136540078, 14.574244388911248 ], [ 104.152266716461753, 14.574323077229254 ], [ 104.152216465243825, 14.574399642024799 ], [ 104.152165032040443, 14.574475106751944 ], [ 104.152111261114982, 14.574549496947389 ], [ 104.152058645893462, 14.574623861604746 ], [ 104.152009550291382, 14.574700400863012 ], [ 104.15196397431248, 14.574779114723677 ], [ 104.151920709782317, 14.574857777511884 ], [ 104.151877471448586, 14.57493756590838 ], [ 104.151835441269768, 14.575019579983261 ], [ 104.151793358626875, 14.57509934284697 ], [ 104.151752457920409, 14.575180205782813 ], [ 104.151712765371897, 14.575263294398047 ], [ 104.151673020361557, 14.575344131802108 ], [ 104.151633301549992, 14.575426094815525 ], [ 104.151592426975625, 14.575508083367849 ], [ 104.151551552378862, 14.575590071922578 ], [ 104.151514197426678, 14.575674235085121 ], [ 104.151486140837832, 14.575760445174726 ], [ 104.151470823634426, 14.575847499975065 ], [ 104.151462493333725, 14.57593665277353 ], [ 104.151459967980543, 14.576026803497605 ], [ 104.151460962313351, 14.57611912882596 ], [ 104.151465371454591, 14.576209126328299 ], [ 104.151472118324435, 14.576300198361791 ], [ 104.151480020958942, 14.576391244855502 ], [ 104.151489053138064, 14.576481140201709 ], [ 104.151502708325367, 14.576570933393642 ], [ 104.151519830778639, 14.576660649966703 ], [ 104.151540368057553, 14.576748038704698 ], [ 104.151562087334796, 14.576836527503595 ], [ 104.151582624669643, 14.576923916226248 ], [ 104.151604344004213, 14.577012405009203 ], [ 104.151624881394994, 14.577099793716496 ], [ 104.151646600786918, 14.577188282483489 ], [ 104.15166944973447, 14.577275620095801 ], [ 104.151693480686234, 14.577364057766175 ], [ 104.151717459219981, 14.577450244214104 ], [ 104.151743775511221, 14.577537505178364 ], [ 104.151771221361344, 14.577623614985024 ], [ 104.151800978748327, 14.577709673698639 ], [ 104.151830736168833, 14.577795732400476 ], [ 104.151861623150239, 14.577880639942389 ], [ 104.15189138063792, 14.577966698620411 ], [ 104.151922267686672, 14.578051606138059 ], [ 104.151953154769089, 14.578136513643445 ], [ 104.151985197639974, 14.578221395593566 ], [ 104.15201724054532, 14.578306277530844 ], [ 104.15205043924071, 14.578391133911659 ], [ 104.152083637971302, 14.57847599027901 ], [ 104.152114525224519, 14.578560897721335 ], [ 104.152145438740192, 14.578646930757126 ], [ 104.152172885018899, 14.578733040414964 ], [ 104.152198019814563, 14.578819201152315 ], [ 104.152223154640566, 14.578905361880159 ], [ 104.152248315726851, 14.57899264820399 ], [ 104.152273503074298, 14.5790810601237 ], [ 104.152297534694128, 14.579169497579805 ], [ 104.152320410585119, 14.579257960573168 ], [ 104.152342130745922, 14.579346449104555 ], [ 104.152361513183578, 14.579433863116421 ], [ 104.152378636589546, 14.579523579426063 ], [ 104.152393422267195, 14.579612221219081 ], [ 104.152405896445273, 14.579700914102109 ], [ 104.152414903359002, 14.579789683624217 ], [ 104.152414690423583, 14.57987978313218 ], [ 104.15240869868515, 14.579970010380286 ], [ 104.152396928136383, 14.5800603653704 ], [ 104.152381690298199, 14.580150797007436 ], [ 104.152365270462411, 14.58024012859029 ], [ 104.152347721093221, 14.58033061132954 ], [ 104.152328963490262, 14.580418868409753 ], [ 104.152304400820285, 14.58050612763015 ], [ 104.152278682375211, 14.58059341240244 ], [ 104.15225296392066, 14.580680697178133 ], [ 104.152228401224235, 14.580767956408687 ], [ 104.152208461591769, 14.580855113448241 ], [ 104.152193197495819, 14.580944419507029 ], [ 104.152182556475921, 14.58103362337336 ], [ 104.152175409001956, 14.581123876200357 ], [ 104.152171728844905, 14.581214052381576 ], [ 104.152169256935821, 14.58130645422499 ], [ 104.152169044111886, 14.581396553759058 ], [ 104.152169987071957, 14.581486627743292 ], [ 104.152170903811097, 14.581575576121425 ], [ 104.152176496122067, 14.58166667351041 ], [ 104.15218552953435, 14.581756568641874 ], [ 104.152196900748152, 14.581847538275003 ], [ 104.152207089975107, 14.581937407849241 ], [ 104.152214967674468, 14.582027328521207 ], [ 104.152217066519455, 14.582117376944534 ], [ 104.152213386503135, 14.582207553121675 ], [ 104.152206265405567, 14.582298931557844 ], [ 104.152196806526689, 14.582389235492389 ], [ 104.152185036099453, 14.582479590531195 ], [ 104.152169772107513, 14.582568896620925 ], [ 104.152152170323731, 14.582657128210792 ], [ 104.152131101203253, 14.582745436457921 ], [ 104.152106538505109, 14.582832695757379 ], [ 104.152076118193619, 14.582916706001322 ], [ 104.152039918970573, 14.583000844005831 ], [ 104.151997862119345, 14.583081732953591 ], [ 104.151955805244754, 14.583162621903487 ], [ 104.151913774583093, 14.583244636461226 ], [ 104.151876367024343, 14.583326548816474 ], [ 104.151843661283138, 14.583411735787262 ], [ 104.151815578656723, 14.583496820556617 ], [ 104.151789860057377, 14.583584105438684 ], [ 104.151765323468439, 14.583672490378888 ], [ 104.151743072203004, 14.583759698613994 ], [ 104.151724340757639, 14.583849081410335 ], [ 104.151707920879218, 14.583938413106909 ], [ 104.151694942119718, 14.58402654254577 ], [ 104.151685483193319, 14.584116846544168 ], [ 104.151679517868274, 14.584208199495201 ], [ 104.151677019912427, 14.584299475791644 ], [ 104.151676833542481, 14.584390700984253 ], [ 104.151681244100018, 14.584480698361691 ], [ 104.151690304065099, 14.58457171913385 ], [ 104.151701623152647, 14.584660437585647 ], [ 104.151719850759264, 14.584747877110534 ], [ 104.151745013130125, 14.584835163310178 ], [ 104.151773616663604, 14.584921247234179 ], [ 104.151805687601325, 14.585007254485799 ], [ 104.151838888125752, 14.585092110564716 ], [ 104.151872088685408, 14.585176966630174 ], [ 104.15190300393698, 14.585262999396978 ], [ 104.151936204566709, 14.585347855436009 ], [ 104.151971716816462, 14.585432660351053 ], [ 104.152009514447613, 14.58551628853481 ], [ 104.15204618256449, 14.585601067863896 ], [ 104.152079383338304, 14.585685923846327 ], [ 104.152109116765587, 14.58577085648489 ], [ 104.152133123738707, 14.585858168106018 ], [ 104.152149013936224, 14.585944533012395 ], [ 104.152159177666988, 14.586033276909447 ], [ 104.152164718235511, 14.586122123032693 ], [ 104.152166817675578, 14.586212171431647 ], [ 104.152165475983537, 14.586303422107772 ], [ 104.152161796465833, 14.586393598294601 ], [ 104.152156987403771, 14.586484925644919 ], [ 104.152148684712913, 14.586575204065383 ], [ 104.152140408271691, 14.586666608092351 ], [ 104.152129793994547, 14.586756937632494 ], [ 104.15211920596532, 14.586848392779592 ], [ 104.152108591696006, 14.586938722323634 ], [ 104.152094483784765, 14.587028002940471 ], [ 104.152079193828911, 14.58711618351343 ], [ 104.152060436468162, 14.587204440765239 ], [ 104.15203939374446, 14.587293874742743 ], [ 104.152017168968513, 14.587382208677235 ], [ 104.15199260633554, 14.587469468127575 ], [ 104.151966861646031, 14.58755562753498 ], [ 104.15193883158355, 14.587642963668779 ], [ 104.151909593215819, 14.587728074154368 ], [ 104.151879199030503, 14.587813210202187 ], [ 104.151846519465238, 14.587899522976468 ], [ 104.15181263158911, 14.587983610102111 ], [ 104.151777561645304, 14.588066597184223 ], [ 104.151741362121541, 14.58815073543364 ], [ 104.1517027984751, 14.588232673592376 ], [ 104.151664261052645, 14.588315737359368 ], [ 104.151624489067856, 14.588395449870527 ], [ 104.151580093825842, 14.588475264618186 ], [ 104.151532152397294, 14.58855177922522 ], [ 104.15148305513118, 14.588628319391256 ], [ 104.151431672459552, 14.588706036280218 ], [ 104.151382575135145, 14.588782576446979 ], [ 104.151334633593578, 14.588859091056213 ], [ 104.151290238191464, 14.588938905811268 ], [ 104.151245816520444, 14.589017594961657 ], [ 104.151201421068009, 14.589097409720003 ], [ 104.151158233890868, 14.58917945013533 ], [ 104.15111617625972, 14.58926033938863 ], [ 104.151076430234099, 14.589341177529002 ], [ 104.151039074547171, 14.589425341376815 ], [ 104.151005160043624, 14.589508302948438 ], [ 104.150975921274025, 14.589593413506829 ], [ 104.150950202427964, 14.589680698609717 ], [ 104.150929106840181, 14.589767881485889 ], [ 104.150910349125311, 14.589856138856906 ], [ 104.150895085104423, 14.58994544516483 ], [ 104.150879847326948, 14.590035877082256 ], [ 104.150865739124484, 14.590125157837624 ], [ 104.150851657166669, 14.590215564202364 ], [ 104.150836393145795, 14.590304870520686 ], [ 104.150822284945065, 14.590394151283533 ], [ 104.150808202989211, 14.590484557655845 ], [ 104.150795250611338, 14.590573812865415 ], [ 104.150782298235129, 14.590663068077264 ], [ 104.150770527927534, 14.590753423339995 ], [ 104.150759887201048, 14.590842627439304 ], [ 104.150749272722905, 14.590932957147581 ], [ 104.150739787827561, 14.591022135691976 ], [ 104.150731485006176, 14.591112414286314 ], [ 104.150725493840184, 14.591202641764195 ], [ 104.15071947643662, 14.591291743636036 ], [ 104.150713485285991, 14.591381971115961 ], [ 104.15070633831688, 14.591472224156288 ], [ 104.150699217600234, 14.591563602804982 ], [ 104.150690914817602, 14.591653881407458 ], [ 104.150679118311743, 14.591743111083421 ], [ 104.150668477636728, 14.591832315201707 ], [ 104.150657863211535, 14.59192264492906 ], [ 104.150647248790179, 14.592012974658324 ], [ 104.150635478543023, 14.592103329949643 ], [ 104.150622526222108, 14.592192585196091 ], [ 104.150609600149451, 14.592282966052014 ], [ 104.150594336169746, 14.592372272423795 ], [ 104.150577916358117, 14.592461604358597 ], [ 104.150559132387272, 14.592548736202666 ], [ 104.150539192580268, 14.592635893610209 ], [ 104.150514629436302, 14.592723153263011 ], [ 104.15048657253601, 14.592809363993535 ], [ 104.150453839793826, 14.592893425754909 ], [ 104.150416457450675, 14.592976464154017 ], [ 104.150376763417739, 14.593059553676834 ], [ 104.150334705198347, 14.593140443107897 ], [ 104.150290309036691, 14.593220258053975 ], [ 104.150245912849783, 14.593300073001771 ], [ 104.150199178716889, 14.593378813463662 ], [ 104.150151262472875, 14.59345645387884 ], [ 104.150103346201035, 14.59353409429484 ], [ 104.150053118224164, 14.593611785831234 ], [ 104.15000168188611, 14.593687251711401 ], [ 104.149947907592576, 14.593761643102242 ], [ 104.149891769095177, 14.593833834394319 ], [ 104.149834422232445, 14.593903800026938 ], [ 104.149773581567473, 14.593972716725611 ], [ 104.149710350447435, 14.594038307712335 ], [ 104.149643546784361, 14.594099472934818 ], [ 104.149573275556293, 14.594160714825051 ], [ 104.14950176971108, 14.59421860543776 ], [ 104.149426743807581, 14.594274321495805 ], [ 104.149350483286852, 14.594326686271689 ], [ 104.149271858549966, 14.594376850929933 ], [ 104.149193128798302, 14.594422513135088 ], [ 104.14911195610307, 14.594462598389118 ], [ 104.149026002534313, 14.594496032190531 ], [ 104.14893768475477, 14.594527265860334 ], [ 104.148849314456271, 14.594556248284425 ], [ 104.148761022848717, 14.594588607513092 ], [ 104.148675069139173, 14.594622041217555 ], [ 104.148591584532468, 14.59466217745315 ], [ 104.148509281975009, 14.59470341372519 ], [ 104.148427005619396, 14.594745775588795 ], [ 104.148343652096315, 14.594791539819646 ], [ 104.148262583988526, 14.594836127314581 ], [ 104.148181542080394, 14.59488184040301 ], [ 104.148102890546539, 14.594930879203353 ], [ 104.148025421060154, 14.594981018047736 ], [ 104.147951445321226, 14.595032205833846 ], [ 104.14787988619625, 14.595087844951397 ], [ 104.147817862453294, 14.595155661378497 ], [ 104.147772387918039, 14.595238878651472 ], [ 104.147749031965958, 14.595328364124491 ], [ 104.147742987552633, 14.595416340718051 ], [ 104.147745060353486, 14.595505264063556 ], [ 104.147752964910694, 14.595596310873104 ], [ 104.147764337048187, 14.595687281023839 ], [ 104.147776865061871, 14.595778225618297 ], [ 104.147787081389609, 14.595869221313162 ], [ 104.147796115644354, 14.59595911694521 ], [ 104.147810955435588, 14.59605001042166 ], [ 104.147823509779585, 14.596142080610688 ], [ 104.147822115151371, 14.596231080599027 ], [ 104.147800992248563, 14.596317138158378 ], [ 104.147765946572321, 14.596401251136408 ], [ 104.147722783633725, 14.596484417377882 ], [ 104.14767139846343, 14.596562134433155 ], [ 104.147612920672003, 14.596633251133422 ], [ 104.14754724529655, 14.596693265025124 ], [ 104.147473373910387, 14.596748955327273 ], [ 104.147394721610723, 14.596797994151503 ], [ 104.147313705072719, 14.596844832838675 ], [ 104.147233870592871, 14.596892771569955 ], [ 104.147153983596809, 14.596938459059164 ], [ 104.14707409656134, 14.59698414653157 ], [ 104.146993027387296, 14.597028733924429 ], [ 104.146911958173689, 14.597073321299554 ], [ 104.146829680584929, 14.597115682979847 ], [ 104.146747402957203, 14.597158044641189 ], [ 104.146665125290482, 14.597200406283509 ], [ 104.146582795114028, 14.597240516679118 ], [ 104.146498048231194, 14.597276175696077 ], [ 104.146410937113728, 14.597309634558762 ], [ 104.146324955590828, 14.597341942235253 ], [ 104.146239000267244, 14.597375375502466 ], [ 104.14615312360894, 14.597412185590073 ], [ 104.146068402779036, 14.597448970108523 ], [ 104.145983681912227, 14.597485754605152 ], [ 104.145898961008541, 14.597522539079964 ], [ 104.145814266300064, 14.597560449148169 ], [ 104.14572951909048, 14.597596107964135 ], [ 104.145642433878081, 14.597630692232162 ], [ 104.14555419276094, 14.597665302020733 ], [ 104.145468263342977, 14.597699860696569 ], [ 104.145383568448338, 14.597737770653371 ], [ 104.14530126394385, 14.597779006350178 ], [ 104.145224922355425, 14.597827993625971 ], [ 104.145153361583468, 14.597883632414383 ], [ 104.145086581628405, 14.597945922720756 ], [ 104.145022218292198, 14.598012664401471 ], [ 104.14496255708886, 14.598082680757951 ], [ 104.14490531250776, 14.598157148494126 ], [ 104.144852691380606, 14.598231514060764 ], [ 104.144802355739344, 14.5983047029262 ], [ 104.144759138906181, 14.598385617860089 ], [ 104.144724091849298, 14.598469730855294 ], [ 104.144693746956449, 14.598557118538089 ], [ 104.144664531696449, 14.598643355065523 ], [ 104.144637628174266, 14.59872954051291 ], [ 104.144611906745595, 14.598816826039123 ], [ 104.144589652936034, 14.598904034943406 ], [ 104.144569737101818, 14.598992318384548 ], [ 104.144552159246132, 14.599081676362259 ], [ 104.144538049021278, 14.599170957716936 ], [ 104.144528588538606, 14.599261262523093 ], [ 104.144521439818135, 14.599351516246557 ], [ 104.144516602862723, 14.599441718886597 ], [ 104.144514077675268, 14.599531870442458 ], [ 104.144510422847659, 14.599623173158506 ], [ 104.144506768030027, 14.599714475875048 ], [ 104.144503113222328, 14.599805778592103 ], [ 104.144501770187716, 14.599897030223579 ], [ 104.144503894811081, 14.599988205225333 ], [ 104.144511746401164, 14.600077001274556 ], [ 104.144526507076961, 14.600164518442115 ], [ 104.144553903800457, 14.600248377770216 ], [ 104.144596274580238, 14.600329653778804 ], [ 104.144643216471962, 14.600408576356617 ], [ 104.144689054983331, 14.600489775692472 ], [ 104.144724543038279, 14.600573456149576 ], [ 104.144751992398923, 14.600659566644934 ], [ 104.144776026600752, 14.600748005000758 ], [ 104.144796619408595, 14.600837645602468 ], [ 104.144810276926947, 14.600927439474603 ], [ 104.144816999147849, 14.601017386621162 ], [ 104.144813292167427, 14.60110643806887 ], [ 104.144794532421315, 14.601194696008275 ], [ 104.144768837341957, 14.601283107231213 ], [ 104.144743116019328, 14.60137039284089 ], [ 104.144725538380058, 14.601459750859851 ], [ 104.144719519636539, 14.601548853412481 ], [ 104.144719359054292, 14.601641205080965 ], [ 104.144722613688756, 14.601731228873737 ], [ 104.144729388481267, 14.601823427256257 ], [ 104.14474189028131, 14.601913246664539 ], [ 104.144760145329315, 14.602001812712167 ], [ 104.14478528328803, 14.602087974230868 ], [ 104.144819615948691, 14.602171680119046 ], [ 104.144862013661182, 14.602254081534886 ], [ 104.144906696964071, 14.602335306217485 ], [ 104.144950224413492, 14.60241655642996 ], [ 104.144989180800025, 14.602500160055513 ], [ 104.145017707935594, 14.602582868000418 ], [ 104.145033598969974, 14.602669233837714 ], [ 104.145036880129297, 14.60276038319059 ], [ 104.145027498924208, 14.602854064832409 ], [ 104.145008791837881, 14.602944574034058 ], [ 104.14498194099265, 14.603033010862173 ], [ 104.144945633051279, 14.6031126471704 ], [ 104.144894140989066, 14.603185861942029 ], [ 104.144832167096993, 14.603255929818033 ], [ 104.144767828894103, 14.603323797557541 ], [ 104.144705854926301, 14.603393865425009 ], [ 104.144564597563502, 14.603436404627024 ], [ 104.144476170462383, 14.603463135489283 ], [ 104.144386587428798, 14.603489891873339 ], [ 104.144298107792252, 14.603514371446927 ], [ 104.144208419753909, 14.603536625305983 ], [ 104.144115080339006, 14.603551076454835 ], [ 104.144022923035152, 14.603566627640925 ], [ 104.143935677885992, 14.603594458406057 ], [ 104.143854553251686, 14.603636794449834 ], [ 104.143778314522237, 14.603690284473927 ], [ 104.1437092210343, 14.603752626157569 ], [ 104.143647167859001, 14.603819317033983 ], [ 104.143588713522789, 14.603891559362564 ], [ 104.143538429180865, 14.603966999728025 ], [ 104.143494003032231, 14.60404568922397 ], [ 104.143453097040066, 14.604126553323754 ], [ 104.143414555302343, 14.604209617573366 ], [ 104.143379507496135, 14.60429373080958 ], [ 104.143346797718792, 14.604378918577833 ], [ 104.143317555648551, 14.60446402971438 ], [ 104.143290677846622, 14.604551341002296 ], [ 104.143266111851318, 14.604638601203561 ], [ 104.143243857665595, 14.604725810318044 ], [ 104.143223941525079, 14.604814093964618 ], [ 104.143206363432867, 14.604903452143063 ], [ 104.143191070926775, 14.604991633614716 ], [ 104.143180454530011, 14.605081964145858 ], [ 104.143175670160772, 14.605174418189863 ], [ 104.143173197624847, 14.605266821143347 ], [ 104.143169569187648, 14.60535924964284 ], [ 104.143161264641776, 14.605449529088164 ], [ 104.143145945920168, 14.605536584953427 ], [ 104.143118936890374, 14.605618268185369 ], [ 104.143069808074443, 14.605693683077227 ], [ 104.143004312788221, 14.605761576273444 ], [ 104.142931750805076, 14.605823994638977 ], [ 104.142859057615468, 14.605880784896694 ], [ 104.142782817939477, 14.605934274918889 ], [ 104.142704161460472, 14.605983313537322 ], [ 104.142621879799236, 14.606025675052654 ], [ 104.142537181338611, 14.606063585155873 ], [ 104.142451143305479, 14.6060936414385 ], [ 104.142362767172656, 14.606122623162447 ], [ 104.142273130167069, 14.606147127920215 ], [ 104.14218228475238, 14.606169406950364 ], [ 104.142091386849046, 14.606189434708877 ], [ 104.141999280540531, 14.606207236736168 ], [ 104.141908277667397, 14.606222761948054 ], [ 104.141815961481626, 14.606231558940014 ], [ 104.14172233199065, 14.606233627707848 ], [ 104.141628702485022, 14.606235696438393 ], [ 104.141536333791265, 14.606242242080381 ], [ 104.141446486729777, 14.606257741586829 ], [ 104.141353329236892, 14.606280071411399 ], [ 104.141261458760766, 14.60630800377899 ], [ 104.141173265813663, 14.606344864485873 ], [ 104.141098050212705, 14.606392700486499 ], [ 104.141034734713145, 14.606454914199926 ], [ 104.140975018067152, 14.606522679411594 ], [ 104.140916535981702, 14.606593795952017 ], [ 104.140861626527936, 14.606669338372512 ], [ 104.140810237260794, 14.606747055429006 ], [ 104.140762368184141, 14.606826947123141 ], [ 104.140719175227048, 14.60690898791994 ], [ 104.140679476245907, 14.606992077733556 ], [ 104.140645556873636, 14.607075039868777 ], [ 104.140614028008983, 14.607161327805171 ], [ 104.140587175285518, 14.60724976484725 ], [ 104.140562713078054, 14.607341527691121 ], [ 104.140544082950868, 14.607435414104328 ], [ 104.140531206240368, 14.607528047215064 ], [ 104.140525238883157, 14.607619401485318 ], [ 104.140527284368574, 14.607707200128848 ], [ 104.140538498634726, 14.607791417605485 ], [ 104.140568076683422, 14.607869598366245 ], [ 104.140620589799553, 14.607939389001455 ], [ 104.140688077603144, 14.60800659637324 ], [ 104.14076131887775, 14.608072550396097 ], [ 104.140833404263915, 14.608138529920248 ], [ 104.140897398171788, 14.608204688183561 ], [ 104.14096028864229, 14.608273123201881 ], [ 104.141026620721533, 14.608340355946671 ], [ 104.141091770681257, 14.608406488577211 ], [ 104.141154661273603, 14.608474923503568 ], [ 104.141210668768863, 14.608545762893788 ], [ 104.141259793164721, 14.608619006754409 ], [ 104.141291735977916, 14.608699387460078 ], [ 104.141296198714045, 14.608791637393082 ], [ 104.141285660550722, 14.608885344999239 ], [ 104.141270419961117, 14.608975777911107 ], [ 104.141242359160216, 14.609061989305424 ], [ 104.141210830540018, 14.609148277330815 ], [ 104.141187419690453, 14.609235512183902 ], [ 104.141175673124522, 14.609326994103025 ], [ 104.141176694334391, 14.609420446297886 ], [ 104.141199494760343, 14.609505533817799 ], [ 104.141242970944376, 14.6095845334369 ], [ 104.141296771917084, 14.609659926276544 ], [ 104.141354014515159, 14.609734116836673 ], [ 104.141411257155653, 14.609808307369798 ], [ 104.141463928547751, 14.609884851299741 ], [ 104.141506248992172, 14.609963876357748 ], [ 104.141533620955883, 14.610046610357083 ], [ 104.141552953835088, 14.61013177441091 ], [ 104.141567767913827, 14.610221543128695 ], [ 104.141576802310439, 14.610311439573053 ], [ 104.141582421370984, 14.610403663896873 ], [ 104.141583390445646, 14.610494864783989 ], [ 104.141582073883612, 14.610587242385611 ], [ 104.141578445447351, 14.610679671081142 ], [ 104.141573608606919, 14.610769874081369 ], [ 104.14156761583105, 14.610860102629632 ], [ 104.14155697304858, 14.61094930774688 ], [ 104.141545200560245, 14.611039664035006 ], [ 104.141531089947634, 14.611128945798812 ], [ 104.14151466744336, 14.611218278660283 ], [ 104.141497088991088, 14.611307637072185 ], [ 104.141477146170217, 14.611394795339304 ], [ 104.141457255816874, 14.611484204852676 ], [ 104.141437339223103, 14.611572488747525 ], [ 104.141417448861048, 14.611661898267151 ], [ 104.141397532258424, 14.611750182168223 ], [ 104.141378824073684, 14.611840691767831 ], [ 104.141360115885789, 14.611931201370522 ], [ 104.141341407694711, 14.612021710976283 ], [ 104.141322725737027, 14.612113346206927 ], [ 104.141301679399689, 14.612202781293504 ], [ 104.141279477104774, 14.612292241931639 ], [ 104.141253728235228, 14.612378402352341 ], [ 104.141225641212941, 14.612463488251043 ], [ 104.141194007607751, 14.612545273932 ], [ 104.141157671461201, 14.612623784942826 ], [ 104.141104889565653, 14.612691397408936 ], [ 104.14102625684869, 14.612741561970591 ], [ 104.140933464031036, 14.612779651239817 ], [ 104.140841669713822, 14.612810961199761 ], [ 104.140751872451347, 14.612828712565772 ], [ 104.140654798376602, 14.612831984080662 ], [ 104.140560114899884, 14.612838581333765 ], [ 104.140477515643113, 14.612867435562331 ], [ 104.140395414789282, 14.612917676612312 ], [ 104.140318304984802, 14.612983574195551 ], [ 104.140262212240117, 14.613058016956128 ], [ 104.140239773423318, 14.613137347043702 ], [ 104.140232545697486, 14.613224224419294 ], [ 104.140231176474671, 14.613314350942961 ], [ 104.140237951449805, 14.613406549898867 ], [ 104.140249402752772, 14.613500897918547 ], [ 104.140267737376533, 14.613592841414169 ], [ 104.140291851834789, 14.613684657174232 ], [ 104.14032045899944, 14.613770742623569 ], [ 104.140353637575402, 14.613854474629644 ], [ 104.140393673254721, 14.613934676472557 ], [ 104.140437150623598, 14.614013676034427 ], [ 104.140485225646984, 14.614091447764986 ], [ 104.140537872091045, 14.614166866037058 ], [ 104.140591674539763, 14.614242258736917 ], [ 104.140648892447274, 14.614315323520652 ], [ 104.140706110396408, 14.614388388277588 ], [ 104.140765587839795, 14.614459150663791 ], [ 104.140823909359398, 14.614529938571833 ], [ 104.140884490371391, 14.614598424107577 ], [ 104.140949590326116, 14.614662304923366 ], [ 104.141018105735242, 14.614723857810816 ], [ 104.141088906872525, 14.614784233940211 ], [ 104.141160837771949, 14.614843458861257 ], [ 104.14123048301748, 14.614903860473831 ], [ 104.14129899857555, 14.614965413227319 ], [ 104.141361813065998, 14.615030470578983 ], [ 104.141418952732138, 14.615100158155441 ], [ 104.141472781995049, 14.615176676095592 ], [ 104.141520936438098, 14.61525782426798 ], [ 104.141559921914251, 14.615342553720746 ], [ 104.141587373993374, 14.615428664329608 ], [ 104.141597460333401, 14.615514032637797 ], [ 104.141586739252105, 14.615599860941551 ], [ 104.141559860846442, 14.615687172645156 ], [ 104.141524916885032, 14.615775788861459 ], [ 104.141489920416916, 14.615862153838998 ], [ 104.141460730030516, 14.615949516663958 ], [ 104.141428019228044, 14.61603470491619 ], [ 104.141391866738346, 14.616121095459075 ], [ 104.141356843958036, 14.61620633482849 ], [ 104.141326471296537, 14.61629259760115 ], [ 104.141301878489045, 14.616378732600436 ], [ 104.14128774192811, 14.616466888847139 ], [ 104.141284009138019, 14.616554815096336 ], [ 104.141283796771503, 14.616644915921729 ], [ 104.141287078588817, 14.616736065700509 ], [ 104.141295036815862, 14.616829364496382 ], [ 104.14130641050123, 14.616920335377673 ], [ 104.141322408115954, 14.617011204028808 ], [ 104.141341821196065, 14.617099744761202 ], [ 104.141365831967775, 14.617187057637045 ], [ 104.141394361695419, 14.617269765789787 ], [ 104.141443515335681, 14.617344134545981 ], [ 104.141506409520247, 14.617412568478453 ], [ 104.141572771681879, 14.617480925705106 ], [ 104.141628835067635, 14.617554015413058 ], [ 104.141676990379949, 14.617635163355025 ], [ 104.141725355727843, 14.617725316239351 ], [ 104.141762161322859, 14.617815724701549 ], [ 104.141773325387376, 14.617897690512406 ], [ 104.14174605334901, 14.617968117987608 ], [ 104.141680423915048, 14.618030383986035 ], [ 104.141592620793546, 14.61808413064785 ], [ 104.141497487996844, 14.618121146332831 ], [ 104.141408949824282, 14.618143375561845 ], [ 104.141319019409096, 14.618155499730353 ], [ 104.141227775504575, 14.618160895696912 ], [ 104.141132984892934, 14.618162991437112 ], [ 104.141039324003088, 14.618163935960228 ], [ 104.140944507115918, 14.618164906002354 ], [ 104.140850898689379, 14.618168101693797 ], [ 104.140758577456367, 14.618176899903592 ], [ 104.140665178953157, 14.618189100501345 ], [ 104.140571727938578, 14.618199049819681 ], [ 104.140477120918163, 14.618209024657443 ], [ 104.140382513876062, 14.618218999459296 ], [ 104.140289115282883, 14.618231199917815 ], [ 104.140194586923712, 14.618244551518268 ], [ 104.140102449236807, 14.618261228848711 ], [ 104.140012702219764, 14.618281231913141 ], [ 104.13992424236649, 14.618306837514632 ], [ 104.13983932916328, 14.618335743306115 ], [ 104.139756937824444, 14.61837360296326 ], [ 104.139676963383621, 14.618415913995104 ], [ 104.139595885397156, 14.618460501808155 ], [ 104.139514859849783, 14.61850734085216 ], [ 104.139435121445075, 14.618559782451749 ], [ 104.139356565224645, 14.618613324111164 ], [ 104.139280399654965, 14.618670191532091 ], [ 104.139206598497907, 14.618729259092476 ], [ 104.139135187992537, 14.618791652419644 ], [ 104.139066141901594, 14.618856245891081 ], [ 104.139002928199631, 14.618922962863911 ], [ 104.138943234909377, 14.618991854438082 ], [ 104.13888821802604, 14.619062895067819 ], [ 104.138838981072581, 14.619133807956507 ], [ 104.138794473011131, 14.619209121156242 ], [ 104.138755823602693, 14.619287683495561 ], [ 104.138720747103292, 14.619370671696988 ], [ 104.138690320800663, 14.619454683336468 ], [ 104.138662311421953, 14.619543146387056 ], [ 104.138638926013272, 14.619631507250322 ], [ 104.138616722830079, 14.619720968195065 ], [ 104.138596884107599, 14.619812629299345 ], [ 104.13857935737488, 14.61990423931104 ], [ 104.138562986637609, 14.619995823777819 ], [ 104.138547771897308, 14.620087382699385 ], [ 104.138532557157035, 14.620178941623633 ], [ 104.138517289941646, 14.620268249298601 ], [ 104.13850317872533, 14.620357531427899 ], [ 104.138490223509592, 14.620446788011275 ], [ 104.138479606534219, 14.620537119126068 ], [ 104.138472457565356, 14.620627373597031 ], [ 104.138466464604647, 14.620717602520543 ], [ 104.138462809893696, 14.620808905973439 ], [ 104.138461467197402, 14.620900158328819 ], [ 104.138462436518608, 14.620991359585831 ], [ 104.138465691621306, 14.621081384117494 ], [ 104.138471258746904, 14.621171357548816 ], [ 104.138478008133063, 14.621262431054358 ], [ 104.138488173072773, 14.621351176655896 ], [ 104.138500676282746, 14.621440996779608 ], [ 104.138515465286474, 14.62152964017233 ], [ 104.13853372233207, 14.621618206908124 ], [ 104.138551979404099, 14.621706773637291 ], [ 104.138573704523125, 14.621795263706588 ], [ 104.138595403430202, 14.621882628142053 ], [ 104.138617128607009, 14.621971118195157 ], [ 104.138640009820989, 14.622059582688278 ], [ 104.13866289106484, 14.622148047172733 ], [ 104.138684616329613, 14.622236537200942 ], [ 104.138706315381057, 14.62232390159555 ], [ 104.138729170470754, 14.622411240429246 ], [ 104.138754363853124, 14.622499653773385 ], [ 104.138779531023786, 14.622586941482499 ], [ 104.13880701024739, 14.622674178074481 ], [ 104.138833333492244, 14.622761440209784 ], [ 104.13886081278072, 14.622848676780574 ], [ 104.138885953832855, 14.622934838824735 ], [ 104.138911121160135, 14.623022126484413 ], [ 104.138933976492325, 14.623109465244713 ], [ 104.138955702085653, 14.623197955176748 ], [ 104.138973907175242, 14.623284270517773 ], [ 104.138989878999098, 14.623374013838617 ], [ 104.139001174296993, 14.623461608128284 ], [ 104.139004430001677, 14.623551632557387 ], [ 104.139003061658826, 14.62364175921069 ], [ 104.1389970692628, 14.623731988089951 ], [ 104.138988791087741, 14.62382339370825 ], [ 104.138980512918749, 14.623914799328096 ], [ 104.138972208508847, 14.624005079324608 ], [ 104.13896508636995, 14.624096459390509 ], [ 104.138960250028077, 14.624186662718678 ], [ 104.138956595961375, 14.624277966115246 ], [ 104.138951759637536, 14.624368169444821 ], [ 104.138948105590089, 14.624459472842522 ], [ 104.138943295531973, 14.624550801798341 ], [ 104.138936147192808, 14.624641056245631 ], [ 104.138927842838839, 14.624731336252031 ], [ 104.138918356220458, 14.624820516193081 ], [ 104.138904245516571, 14.624909798368039 ], [ 104.138887796518944, 14.624998006036808 ], [ 104.138865488657146, 14.62508296462444 ], [ 104.138833932596683, 14.625168127680425 ], [ 104.138795361629462, 14.625250067213262 ], [ 104.138753322566671, 14.625332083422775 ], [ 104.138710127454814, 14.625414125192407 ], [ 104.138669244370419, 14.625496115848398 ], [ 104.138634193892273, 14.625580229968088 ], [ 104.138606079558528, 14.625664190743803 ], [ 104.138585006370889, 14.625752500676827 ], [ 104.138566245233761, 14.625840759497143 ], [ 104.13855097842702, 14.625930067271735 ], [ 104.13853804992641, 14.626020449558119 ], [ 104.138527433486573, 14.626110780730366 ], [ 104.138517973080567, 14.626201086346217 ], [ 104.138510824740266, 14.626291340846883 ], [ 104.138502520375752, 14.626381620907416 ], [ 104.138496528079884, 14.626471849852066 ], [ 104.138492847855559, 14.626562027680103 ], [ 104.138490349922662, 14.626653305575106 ], [ 104.138488981783993, 14.626743432285785 ], [ 104.138488795939921, 14.62683465906256 ], [ 104.138488583858759, 14.626924760213555 ], [ 104.138488398040138, 14.627015986989589 ], [ 104.13848702994936, 14.627106113699586 ], [ 104.138484505834867, 14.627196265969378 ], [ 104.138479643408957, 14.627285343734048 ], [ 104.138471312882785, 14.627374498179814 ], [ 104.138451421995185, 14.627463908228947 ], [ 104.138421074266716, 14.627551297071982 ], [ 104.138383659044649, 14.627633211151746 ], [ 104.138332240091245, 14.627709803826535 ], [ 104.138272518832849, 14.627777570414555 ], [ 104.138198846319085, 14.627842266836497 ], [ 104.138117528777059, 14.627876724703473 ], [ 104.138027936245265, 14.627853928970801 ], [ 104.137950325188683, 14.62779933452077 ], [ 104.13789425893718, 14.627726244411393 ], [ 104.137849595626719, 14.627646144942572 ], [ 104.137816387749396, 14.627561287376537 ], [ 104.137780894078674, 14.627477606537362 ], [ 104.137738542959198, 14.627397455902765 ], [ 104.13769500959414, 14.627316205179444 ], [ 104.137651502515027, 14.627236080064003 ], [ 104.137611463584847, 14.62715587826338 ], [ 104.137576968663197, 14.627065418027207 ], [ 104.137543656061979, 14.626976057848506 ], [ 104.137499098082216, 14.626900460726503 ], [ 104.137433205335128, 14.626852364167799 ], [ 104.137337990524998, 14.626836449542653 ], [ 104.137237520405137, 14.62684317519172 ], [ 104.137149030510415, 14.626867655317547 ], [ 104.137065584612145, 14.626910043253595 ], [ 104.136986999001792, 14.626962459614441 ], [ 104.136917819098883, 14.627021425315631 ], [ 104.136871076227195, 14.627100166836131 ], [ 104.13683838948036, 14.62718648113627 ], [ 104.136811482911384, 14.627272667681353 ], [ 104.136791591293118, 14.627362077804486 ], [ 104.136776323829366, 14.627451385723521 ], [ 104.136765680526025, 14.627540591437507 ], [ 104.136761999712675, 14.627630769469523 ], [ 104.136764125357303, 14.627721945369396 ], [ 104.136768563099835, 14.627813070163437 ], [ 104.136774130658011, 14.62790304377482 ], [ 104.136779724476582, 14.627994143012522 ], [ 104.13678297998328, 14.628084167725744 ], [ 104.136785079461802, 14.628174217990724 ], [ 104.136782528535193, 14.628263244839463 ], [ 104.136777718017754, 14.628354574051768 ], [ 104.136771725220356, 14.628444803190062 ], [ 104.136764576385289, 14.62853505788299 ], [ 104.136757401312636, 14.628624186948892 ], [ 104.136750252490884, 14.628714441644355 ], [ 104.136744259722732, 14.628804670787115 ], [ 104.136737110914936, 14.628894925485012 ], [ 104.136725311677807, 14.62898415677264 ], [ 104.136711226591558, 14.629074564799277 ], [ 104.136690126478371, 14.629161749269327 ], [ 104.136658595670852, 14.6292480381031 ], [ 104.136621232109633, 14.629332203454704 ], [ 104.136576801002477, 14.629410893991666 ], [ 104.136522963995418, 14.629483035190813 ], [ 104.136462138160098, 14.629553078454396 ], [ 104.136395400807785, 14.629617621338337 ], [ 104.136323855499029, 14.629674387026268 ], [ 104.136246346181537, 14.629723401065618 ], [ 104.136164055152051, 14.629765763525633 ], [ 104.136079347004809, 14.629803674553727 ], [ 104.135993430280934, 14.629839359853136 ], [ 104.135908695816454, 14.62987614520765 ], [ 104.135822752776846, 14.629910704831872 ], [ 104.135735679887986, 14.62994641561377 ], [ 104.135648554479218, 14.629979875111717 ], [ 104.135561429034368, 14.63001333458538 ], [ 104.135475459609168, 14.630046768484961 ], [ 104.135388360332527, 14.630081353541067 ], [ 104.13530359937144, 14.630117013105821 ], [ 104.135220020670104, 14.630153772730546 ], [ 104.135137676706435, 14.630193883678793 ], [ 104.135056567478387, 14.630237345952901 ], [ 104.134987412364865, 14.630297437200811 ], [ 104.134932497246638, 14.630372980708319 ], [ 104.134889273874336, 14.630453896896526 ], [ 104.134860028142455, 14.630539009042106 ], [ 104.134844786307369, 14.63062944277705 ], [ 104.134838766716499, 14.630718546500963 ], [ 104.134838792954923, 14.630719672132495 ], [ 104.134837423853426, 14.630809799297264 ], [ 104.134837210824799, 14.630899900913876 ], [ 104.134839309932119, 14.630989951433625 ], [ 104.134841435292913, 14.631081127583879 ], [ 104.134845846554498, 14.631171127004471 ], [ 104.134849101769134, 14.63126115197214 ], [ 104.134852409478412, 14.63135342820134 ], [ 104.134855664724, 14.631443453166325 ], [ 104.134858946224938, 14.63153460376139 ], [ 104.1348645398716, 14.631625703256196 ], [ 104.13487357549181, 14.631715600468588 ], [ 104.134887209154982, 14.631804269846992 ], [ 104.134907752998359, 14.631891660288657 ], [ 104.134935180787437, 14.631976646157909 ], [ 104.134967232876434, 14.632061529813848 ], [ 104.135002753202556, 14.632146336803835 ], [ 104.135039403391104, 14.632229992596709 ], [ 104.135073767722602, 14.632314825108679 ], [ 104.135106976021561, 14.632399683158548 ], [ 104.135139054530072, 14.632485692378085 ], [ 104.135171106830128, 14.632570575953855 ], [ 104.135205445060492, 14.632654282780294 ], [ 104.135243225292456, 14.632736787302481 ], [ 104.135283238968583, 14.632815863810199 ], [ 104.135325617312574, 14.632897140454396 ], [ 104.135367969450286, 14.632977291449953 ], [ 104.135412633769434, 14.63305739131815 ], [ 104.135457271882174, 14.633136365536629 ], [ 104.135503066106054, 14.633215314180401 ], [ 104.135550016442053, 14.633294237248396 ], [ 104.135599226469452, 14.633370857923579 ], [ 104.135651826013273, 14.633444025018019 ], [ 104.135715828841612, 14.633510182741805 ], [ 104.135780987782965, 14.633576314877828 ], [ 104.135840418893153, 14.633644826030199 ], [ 104.135902214689651, 14.633715537297403 ], [ 104.135954814433063, 14.633788704262075 ], [ 104.13599485489577, 14.633868906126224 ], [ 104.136026881621504, 14.633952663775442 ], [ 104.136055518907227, 14.634039874977518 ], [ 104.136080714249786, 14.634128288476626 ], [ 104.136103597471219, 14.634216753086061 ], [ 104.136123012492305, 14.634305294367717 ], [ 104.13613433500025, 14.634394014565851 ], [ 104.13611097519879, 14.634483501578448 ], [ 104.136066674721818, 14.634567820538832 ], [ 104.135997282762688, 14.634617781766524 ], [ 104.135901433232945, 14.634624405759878 ], [ 104.13580860565952, 14.634611817337422 ], [ 104.135718957569594, 14.634586770272559 ], [ 104.135631516648701, 14.634557169530733 ], [ 104.135543918246583, 14.634520814968758 ], [ 104.135457449694556, 14.634483309176757 ], [ 104.135370954915203, 14.634444677712571 ], [ 104.135283435316751, 14.634411699914203 ], [ 104.135197255543659, 14.634386575931991 ], [ 104.135110234661127, 14.634374985034805 ], [ 104.135020690403152, 14.63440399347691 ], [ 104.134939816078315, 14.634457586891267 ], [ 104.13487538928787, 14.634522078839261 ], [ 104.13482985343424, 14.634603046380033 ], [ 104.134808752732866, 14.634690231068243 ], [ 104.134809748806759, 14.634782558379712 ], [ 104.134821097141739, 14.634872404435264 ], [ 104.134839355747388, 14.634960971525643 ], [ 104.134863368547713, 14.635048285201892 ], [ 104.134887381378192, 14.635135598869082 ], [ 104.134911420486077, 14.635224038158142 ], [ 104.13493658946139, 14.635311326251001 ], [ 104.134964044389008, 14.635397437590619 ], [ 104.134993785270581, 14.635482372175456 ], [ 104.135026968192804, 14.635566104446974 ], [ 104.135068217501015, 14.635648532173272 ], [ 104.135116298367947, 14.63572630401341 ], [ 104.13517005470824, 14.635799445520002 ], [ 104.135231746194293, 14.63586565431063 ], [ 104.135302555160465, 14.635926030449845 ], [ 104.135372208076987, 14.635986432113986 ], [ 104.135436185600554, 14.636051464063588 ], [ 104.13549790349164, 14.636118798363167 ], [ 104.135558517839129, 14.636188409453883 ], [ 104.135616820051382, 14.636258071638204 ], [ 104.13567514855653, 14.636328859425078 ], [ 104.135733450848463, 14.636398521555384 ], [ 104.1357906495994, 14.636470460479591 ], [ 104.135846692302152, 14.63654242493997 ], [ 104.135901605210776, 14.636615540566767 ] ] ] ] } }
]
}
