{
"type": "FeatureCollection",
"name": "zone",
"crs": { "type": "name", "properties": { "name": "urn:ogc:def:crs:OGC::CRS84" } },
"features": [
{ "type": "Feature", "properties": { "ZONE_ID": "01" }, "geometry": { "type": "MultiPolygon", "coordinates": [ ] } },
{ "type": "Feature", "properties": { "ZONE_ID": "02" }, "geometry": { "type": "MultiPolygon", "coordinates": [ [ [ [ 104.170214976753215, 14.62010053997802 ], [ 104.170360505642208, 14.620123663956905 ], [ 104.171298740490954, 14.620221459140852 ], [ 104.173033567458475, 14.620401396897149 ], [ 104.174132047936794, 14.620872496502191 ], [ 104.174729541862192, 14.621258013600084 ], [ 104.175094952553422, 14.621369228408916 ], [ 104.17599164220681, 14.621440017087185 ], [ 104.176847981024778, 14.621455770822502 ], [ 104.177116749612793, 14.621433489980818 ], [ 104.177940247314297, 14.621301302179116 ], [ 104.178311638232941, 14.621236413819467 ], [ 104.178535784690197, 14.621270897889815 ], [ 104.178476975542253, 14.620888244680874 ], [ 104.178330707170886, 14.619921887350781 ], [ 104.178254863004256, 14.619440795213444 ], [ 104.178307522287085, 14.619444227709256 ], [ 104.178665591833635, 14.619444228506069 ], [ 104.179090658630585, 14.619439925318185 ], [ 104.179354873006616, 14.619414785762745 ], [ 104.180472769213509, 14.619279700449281 ], [ 104.180692125227935, 14.619255725650408 ], [ 104.181022833868795, 14.619191539858566 ], [ 104.181215637658141, 14.619151615083359 ], [ 104.181246673790028, 14.619365182043522 ], [ 104.181482755370993, 14.619334321706139 ], [ 104.181656398364453, 14.619328463488282 ], [ 104.181784732268071, 14.619288347875512 ], [ 104.181967414142719, 14.619260242971722 ], [ 104.182096876084884, 14.619250998795211 ], [ 104.182297646762265, 14.619236822218562 ], [ 104.182464114099716, 14.619244826727735 ], [ 104.18289152977259, 14.619168061638504 ], [ 104.183408054669457, 14.61995345722486 ], [ 104.183952932501441, 14.62022271366852 ], [ 104.184139140240163, 14.620247397418956 ], [ 104.184501539634567, 14.620192388947475 ], [ 104.184831572700702, 14.620115168071539 ], [ 104.188081563449074, 14.619408772269983 ], [ 104.188436624580419, 14.619329214983837 ], [ 104.188847748953336, 14.61929567061531 ], [ 104.189346720612363, 14.619177948477025 ], [ 104.190072264366307, 14.618939600344619 ], [ 104.191213748911366, 14.618801660632467 ], [ 104.191348485665131, 14.618058965277589 ], [ 104.191488953508653, 14.617284734761204 ], [ 104.191497640885132, 14.61721525591288 ], [ 104.191564670864494, 14.616679433854484 ], [ 104.191657328708345, 14.615938641203053 ], [ 104.191687717896826, 14.615454138108696 ], [ 104.191688577114377, 14.615440491476772 ], [ 104.191716818018733, 14.61499012069414 ], [ 104.191754872239287, 14.614383538401043 ], [ 104.191759647167174, 14.61433485136987 ], [ 104.191808790048157, 14.613834225921506 ], [ 104.19185073658079, 14.613407009152491 ], [ 104.191885487677681, 14.613052980418297 ], [ 104.19191063889842, 14.612796735382089 ], [ 104.191930348339838, 14.612638792836206 ], [ 104.19196920049346, 14.612327366321106 ], [ 104.192023243138621, 14.611894170379642 ], [ 104.192097044734552, 14.611302622178281 ], [ 104.192127592767193, 14.611057665353854 ], [ 104.192162339196756, 14.61076668318279 ], [ 104.192174411283816, 14.610665534988483 ], [ 104.192259265723436, 14.609954677441749 ], [ 104.192317721218856, 14.60944294033364 ], [ 104.192439541837814, 14.608342376792606 ], [ 104.192457256574187, 14.608233997706177 ], [ 104.192501808513924, 14.607961348631525 ], [ 104.192720641902227, 14.606684416148129 ], [ 104.192845188155772, 14.606428404328515 ], [ 104.193152758684064, 14.604678139142992 ], [ 104.193406293645509, 14.603745576505473 ], [ 104.193331585826769, 14.603739581023397 ], [ 104.193331832125423, 14.603672011485134 ], [ 104.192119841078437, 14.603557171885761 ], [ 104.192109741253958, 14.603574884587132 ], [ 104.192097914597412, 14.603595649078073 ], [ 104.190220773984493, 14.604042070876165 ], [ 104.19022857025432, 14.60390638982315 ], [ 104.187237910603372, 14.603386528579929 ], [ 104.187391088946924, 14.603851952030649 ], [ 104.18588109275629, 14.603694025237534 ], [ 104.185780236764046, 14.603481507253903 ], [ 104.184969272255103, 14.60345320582751 ], [ 104.184936339686203, 14.603214959274432 ], [ 104.184314737448346, 14.603264358127772 ], [ 104.183492271106857, 14.603352401066372 ], [ 104.183454374086054, 14.60304309243053 ], [ 104.181829716697493, 14.603119180014472 ], [ 104.181856801151724, 14.602736692254179 ], [ 104.180159047098158, 14.602669264024659 ], [ 104.18015866525063, 14.602772343886313 ], [ 104.178018178405367, 14.602288702829135 ], [ 104.178264228867988, 14.601718446021188 ], [ 104.178699101326387, 14.600920545874748 ], [ 104.178664571822566, 14.600909028700499 ], [ 104.178488653689541, 14.600786351396893 ], [ 104.178434215615596, 14.600022558377471 ], [ 104.177250323018484, 14.600348800638713 ], [ 104.177233977850761, 14.599651809691776 ], [ 104.17636229391789, 14.599743403399005 ], [ 104.175735545966162, 14.59982779310679 ], [ 104.175667108482855, 14.598689641317293 ], [ 104.175148049160043, 14.59872325575906 ], [ 104.175118989788061, 14.598377547599744 ], [ 104.17474551061386, 14.598324215508317 ], [ 104.174588365016547, 14.598266207459712 ], [ 104.174691198483913, 14.597395630123819 ], [ 104.173815150640408, 14.597041567182274 ], [ 104.173792313891212, 14.597032738658157 ], [ 104.173971277085897, 14.596498217014849 ], [ 104.173938527497114, 14.596153031587958 ], [ 104.173916592338813, 14.596028373984671 ], [ 104.173990154328493, 14.595563981108793 ], [ 104.173919803300024, 14.594972450051294 ], [ 104.173869291308691, 14.594711731423764 ], [ 104.17366264153182, 14.594477318122188 ], [ 104.173658188430011, 14.59436514253095 ], [ 104.173285856583192, 14.594342325726517 ], [ 104.173404739637277, 14.59361273047864 ], [ 104.171506824510971, 14.59348813905885 ], [ 104.169554697202344, 14.593258792653724 ], [ 104.168329249695631, 14.59311412153818 ], [ 104.165524761314614, 14.592713342326794 ], [ 104.161923350197029, 14.592049771819168 ], [ 104.161080277446615, 14.591867819164134 ], [ 104.157969936968797, 14.591748359206012 ], [ 104.154201573992324, 14.5915624207792 ], [ 104.153479410405069, 14.591304324962103 ], [ 104.151212615276208, 14.589227733037555 ], [ 104.150742364506584, 14.59002933824857 ], [ 104.150210216254436, 14.592517998960387 ], [ 104.14978622995126, 14.593630265769718 ], [ 104.149245732186614, 14.59417758800107 ], [ 104.148623367490544, 14.594312153340763 ], [ 104.148077383483255, 14.594243102881636 ], [ 104.147760728227212, 14.594183047574454 ], [ 104.147318502783421, 14.594335915629097 ], [ 104.147192932595672, 14.594750843205986 ], [ 104.147313043210033, 14.595138472915973 ], [ 104.147757998440511, 14.595467412212125 ], [ 104.147822115151371, 14.596231080599027 ], [ 104.147612920672003, 14.596633251133422 ], [ 104.147225690035981, 14.596978349145068 ], [ 104.146873547552971, 14.597142136346472 ], [ 104.146657894404456, 14.597120298052952 ], [ 104.146469539122833, 14.596751776849793 ], [ 104.146289373201299, 14.596645315168882 ], [ 104.145972717945241, 14.596735398129653 ], [ 104.145690185022815, 14.596850731617309 ], [ 104.144885580395766, 14.597719145008059 ], [ 104.144166964049774, 14.59908506202312 ], [ 104.1442133704235, 14.599714277855176 ], [ 104.145010468137002, 14.600323020287059 ], [ 104.144430743910675, 14.601435809467596 ], [ 104.145158934942273, 14.6026916943554 ], [ 104.145110913680327, 14.603099875081933 ], [ 104.144992724523433, 14.603217276625184 ], [ 104.14468425862745, 14.603277331932366 ], [ 104.144052802299584, 14.603228231820644 ], [ 104.143786158806435, 14.603290980865816 ], [ 104.143453124830245, 14.60348479572081 ], [ 104.143398529096402, 14.603557135068096 ], [ 104.143489976950519, 14.603711368016084 ], [ 104.143462679083612, 14.603894263724317 ], [ 104.142982385663018, 14.604643353562778 ], [ 104.143587549871583, 14.605199859612009 ], [ 104.143618502899002, 14.605445413595076 ], [ 104.143342380642821, 14.60560748535414 ], [ 104.142964213205005, 14.605751549139976 ], [ 104.142378954075042, 14.60579656907305 ], [ 104.141930255408681, 14.60555346143444 ], [ 104.141664637803615, 14.606020168073979 ], [ 104.140848276350553, 14.606794510922843 ], [ 104.140404079677552, 14.607609371711474 ], [ 104.141688648434581, 14.608242652103375 ], [ 104.141658635145873, 14.608542784990531 ], [ 104.141220441130628, 14.608896941797376 ], [ 104.140644185987284, 14.609351643121418 ], [ 104.141070374687047, 14.610077964708337 ], [ 104.141616616541668, 14.610366092280008 ], [ 104.141712659065561, 14.610640713871753 ], [ 104.141508568702292, 14.611413556056183 ], [ 104.14110250414636, 14.611734636693102 ], [ 104.14120843581513, 14.612732640095237 ], [ 104.140998342794134, 14.613008762351422 ], [ 104.140842273692812, 14.612930727800761 ], [ 104.140247456518424, 14.612421256589878 ], [ 104.140055222847934, 14.61258112741875 ], [ 104.140044670545123, 14.612863197901177 ], [ 104.14032045899944, 14.613770742623569 ], [ 104.140648892447274, 14.614315323520652 ], [ 104.141168668207541, 14.614973882430137 ], [ 104.141418952732138, 14.615100158155441 ], [ 104.141559921914251, 14.615342553720746 ], [ 104.1416224843733, 14.615651370870188 ], [ 104.141109257136293, 14.615804438642627 ], [ 104.140812125578037, 14.61616459810719 ], [ 104.140866149497711, 14.616641809397738 ], [ 104.141266826902054, 14.617116769691631 ], [ 104.141735034205979, 14.617278841450684 ], [ 104.141658500319764, 14.617823582640836 ], [ 104.141347862781572, 14.618012666359732 ], [ 104.139659859329939, 14.618368190233426 ], [ 104.139294255431878, 14.618770571005589 ], [ 104.138856894644178, 14.619146104727706 ], [ 104.138579838139094, 14.619513856569883 ], [ 104.138568598077313, 14.620802903705831 ], [ 104.139858319558499, 14.620939206926565 ], [ 104.140570589315686, 14.62108058230644 ], [ 104.140699417898546, 14.620852231945923 ], [ 104.142513029243702, 14.620984056343765 ], [ 104.144957580375291, 14.620884344158515 ], [ 104.148518894350644, 14.620612190470602 ], [ 104.148530105202724, 14.620328177363396 ], [ 104.148641233856068, 14.620313972296973 ], [ 104.148708745229825, 14.620285548633007 ], [ 104.148833107509233, 14.62034045876932 ], [ 104.150237650044971, 14.620257333904254 ], [ 104.15068279372403, 14.62018832866271 ], [ 104.151025875875192, 14.620124435917766 ], [ 104.151484048922896, 14.620042930390799 ], [ 104.151511865931013, 14.620078778779201 ], [ 104.151934015412778, 14.619982404211529 ], [ 104.151994850132667, 14.619968518934163 ], [ 104.152477312406774, 14.619842289733958 ], [ 104.15274112458421, 14.619779004629324 ], [ 104.153534330283492, 14.619621496571128 ], [ 104.153761769650188, 14.620382847881045 ], [ 104.156504197357251, 14.620063717135066 ], [ 104.157380183890169, 14.620066932210129 ], [ 104.158763763438472, 14.620098329484017 ], [ 104.159252649439111, 14.620154990588567 ], [ 104.159303656548261, 14.620179904413858 ], [ 104.16184293916568, 14.620315754835012 ], [ 104.162865447865741, 14.620187704796841 ], [ 104.163547677418734, 14.620062836211821 ], [ 104.163710743818925, 14.62036230789664 ], [ 104.166045986144837, 14.619815314821606 ], [ 104.166746266664319, 14.619745052562127 ], [ 104.167978714165088, 14.619761761476191 ], [ 104.168115894515651, 14.619682667492789 ], [ 104.168430636883684, 14.619627713994593 ], [ 104.168906082223117, 14.619561571531905 ], [ 104.169471792146282, 14.619570123015688 ], [ 104.169552119844084, 14.619904843897043 ], [ 104.169873897093979, 14.619995306583947 ], [ 104.170214976753215, 14.62010053997802 ] ] ] ] } },
{ "type": "Feature", "properties": { "ZONE_ID": "03" }, "geometry": { "type": "MultiPolygon", "coordinates": [ [ [ [ 104.193331832125423, 14.603672011485134 ], [ 104.193362123729813, 14.603270145652374 ], [ 104.193578809415612, 14.603268136205058 ], [ 104.193966505488163, 14.602219509961252 ], [ 104.193933687049793, 14.601644535890431 ], [ 104.194189166286037, 14.601585224133478 ], [ 104.19413637850289, 14.601022427937545 ], [ 104.194493929995389, 14.600983469798255 ], [ 104.194930775840675, 14.599920588992777 ], [ 104.19488509373366, 14.599421687452635 ], [ 104.194910540383404, 14.598866833336992 ], [ 104.194895482582766, 14.598356496114135 ], [ 104.195374696062288, 14.598366265595718 ], [ 104.195515953307606, 14.59836421479042 ], [ 104.1957972813655, 14.597546063708274 ], [ 104.195695399486553, 14.597250716526407 ], [ 104.195881952835506, 14.597201252660462 ], [ 104.195600487744201, 14.595197205693148 ], [ 104.196353640795735, 14.595145515782391 ], [ 104.196417972157036, 14.594749834361384 ], [ 104.196482899346734, 14.594350450944868 ], [ 104.196495795546539, 14.5942710720197 ], [ 104.196592733496203, 14.592935584013141 ], [ 104.196690917115745, 14.592269185177607 ], [ 104.196770946785819, 14.591726043523538 ], [ 104.19615544922182, 14.590250441226775 ], [ 104.195927020171865, 14.58954510593469 ], [ 104.196672404440932, 14.589198012558795 ], [ 104.196225597892763, 14.588259913754825 ], [ 104.196510744060518, 14.588160319157273 ], [ 104.196717109900433, 14.588076735171327 ], [ 104.19684328640578, 14.588027314679394 ], [ 104.196848812665593, 14.588025300416726 ], [ 104.196900727181131, 14.586513235507008 ], [ 104.196911955067719, 14.586331304921108 ], [ 104.196887751196897, 14.586288869947056 ], [ 104.196404115948212, 14.585104541228029 ], [ 104.196327634145533, 14.585013711255558 ], [ 104.199458637503781, 14.582119429029115 ], [ 104.20164385436405, 14.579393863861862 ], [ 104.201785273981372, 14.579235515657246 ], [ 104.201910351654433, 14.579107500223293 ], [ 104.202079077639397, 14.578929952665028 ], [ 104.20271095735697, 14.57825704849121 ], [ 104.203340621326944, 14.577618700386415 ], [ 104.203174892499106, 14.577336614631831 ], [ 104.201122722193617, 14.576921827860462 ], [ 104.200978447931362, 14.576561304980826 ], [ 104.200243915210734, 14.576695652373274 ], [ 104.199593064838652, 14.576867328152646 ], [ 104.198813961847989, 14.577148492437773 ], [ 104.198477874962492, 14.575906238679464 ], [ 104.196760782231124, 14.576387297792786 ], [ 104.196323235986043, 14.575031047045384 ], [ 104.195284571985894, 14.575304005326986 ], [ 104.195446131727294, 14.57400441544778 ], [ 104.19505441972467, 14.573989867043446 ], [ 104.194294458941513, 14.574117945619934 ], [ 104.194232107608428, 14.573865093497691 ], [ 104.192142167920238, 14.574221118653558 ], [ 104.192175334182011, 14.574588197574151 ], [ 104.18899662624743, 14.574372463826517 ], [ 104.189010200405875, 14.573700841495109 ], [ 104.188343484704504, 14.573781103533914 ], [ 104.187074095351534, 14.574209604294166 ], [ 104.187197536879083, 14.573535842435961 ], [ 104.185663782432115, 14.573463628665376 ], [ 104.186083026267553, 14.572270225566138 ], [ 104.184915124479645, 14.572241805553556 ], [ 104.185028587672178, 14.571262528744597 ], [ 104.183753760242027, 14.571034953273122 ], [ 104.183705006377622, 14.571490684839389 ], [ 104.183110368891761, 14.571442775890878 ], [ 104.182420432882765, 14.571472621765595 ], [ 104.181975487996127, 14.572166734099026 ], [ 104.181428298611948, 14.572126764337686 ], [ 104.179739633022805, 14.572474948566519 ], [ 104.17919378700897, 14.571711086729895 ], [ 104.177912436917623, 14.571790762625985 ], [ 104.177828399709227, 14.571202502167159 ], [ 104.175991586439835, 14.571306048013229 ], [ 104.176189674145363, 14.570339620116584 ], [ 104.175362773264553, 14.570262064273878 ], [ 104.175343910720386, 14.569108754431145 ], [ 104.173942294324789, 14.569445443937951 ], [ 104.173015733841581, 14.567487249295942 ], [ 104.172500784999244, 14.567731414547858 ], [ 104.172451531476071, 14.568047591804262 ], [ 104.172121110318713, 14.568042347023987 ], [ 104.171873202595506, 14.568117797200614 ], [ 104.171619905573976, 14.568408819310463 ], [ 104.170821966184832, 14.568971420151813 ], [ 104.170854041178458, 14.569587328273755 ], [ 104.170729153437378, 14.570277623083005 ], [ 104.1704541274284, 14.570443116401087 ], [ 104.170424099774806, 14.570746122723682 ], [ 104.169981191884304, 14.571500567520149 ], [ 104.169950841624228, 14.571858490478355 ], [ 104.170035895243842, 14.572301253624209 ], [ 104.170079981032387, 14.572452028496196 ], [ 104.169874799167005, 14.572990537918505 ], [ 104.169907569929066, 14.573038285986145 ], [ 104.169960648646963, 14.573173126243924 ], [ 104.170146330113838, 14.573603290462319 ], [ 104.170447816218953, 14.574290118470984 ], [ 104.170559920291893, 14.574804819036824 ], [ 104.170577950812174, 14.574990334642413 ], [ 104.170573457672376, 14.574988758297907 ], [ 104.169753952185715, 14.574876731517694 ], [ 104.168533560066834, 14.575037875947986 ], [ 104.168361598691334, 14.574682595704866 ], [ 104.167818196616437, 14.574606834548256 ], [ 104.167595077627993, 14.574575714848482 ], [ 104.166676135193626, 14.574474671747694 ], [ 104.165437410351842, 14.574338454417088 ], [ 104.164620351908098, 14.574248595233229 ], [ 104.16453777618311, 14.574237692588559 ], [ 104.164488699901824, 14.574231196797104 ], [ 104.163093099447124, 14.574046790623544 ], [ 104.163078894674427, 14.574075662367484 ], [ 104.162762411792329, 14.574285341046069 ], [ 104.162430420611855, 14.574097550027718 ], [ 104.161935895665067, 14.57412487387306 ], [ 104.161073385703446, 14.574247589857986 ], [ 104.160960080345731, 14.573679922458309 ], [ 104.160461221186068, 14.573578455220789 ], [ 104.158127554027345, 14.573416246440889 ], [ 104.15815233227984, 14.573172850249328 ], [ 104.156723846525836, 14.572958215068658 ], [ 104.155570687630089, 14.573016642611229 ], [ 104.155326451842811, 14.573049632109498 ], [ 104.154849466783006, 14.573031595224185 ], [ 104.154187883789305, 14.572867772620668 ], [ 104.153789888660924, 14.572739549454051 ], [ 104.153333033617983, 14.573184733712731 ], [ 104.152905870455825, 14.573715061527864 ], [ 104.152517092089553, 14.573953260367849 ], [ 104.152016295064342, 14.574445324911906 ], [ 104.151273793084641, 14.574931226942734 ], [ 104.151322929245069, 14.575449886413844 ], [ 104.151677801514793, 14.576106400112796 ], [ 104.152169163118998, 14.57640121707532 ], [ 104.152925023791653, 14.578269337128535 ], [ 104.153492483718594, 14.579017120440465 ], [ 104.153688612451845, 14.57974699277282 ], [ 104.152717822381021, 14.581250518167016 ], [ 104.15307562534997, 14.581866831680825 ], [ 104.153211802505695, 14.583021970609654 ], [ 104.152454139023789, 14.583518487121776 ], [ 104.152220243551398, 14.583902865004136 ], [ 104.152130136752064, 14.584158802189124 ], [ 104.152535316149709, 14.584374897867862 ], [ 104.153030535413478, 14.584464937734003 ], [ 104.153318662985129, 14.585041192877306 ], [ 104.153521252683888, 14.58591683057552 ], [ 104.153511633191854, 14.58633370167316 ], [ 104.153512248697268, 14.586403045852682 ], [ 104.152963005513811, 14.586808225250316 ], [ 104.152285903119491, 14.587133645113314 ], [ 104.152251690571305, 14.587443006306605 ], [ 104.152674877942175, 14.58800125347668 ], [ 104.152722283698594, 14.58813674999274 ], [ 104.15243415612693, 14.588785037029 ], [ 104.151443717599321, 14.589023642674288 ], [ 104.151212615276208, 14.589227733037555 ], [ 104.153479410405069, 14.591304324962103 ], [ 104.154201573992324, 14.5915624207792 ], [ 104.157969936968797, 14.591748359206012 ], [ 104.161080277446615, 14.591867819164134 ], [ 104.161923350197029, 14.592049771819168 ], [ 104.165524761314614, 14.592713342326794 ], [ 104.168329249695631, 14.59311412153818 ], [ 104.169554697202344, 14.593258792653724 ], [ 104.171506824510971, 14.59348813905885 ], [ 104.173404739637277, 14.59361273047864 ], [ 104.173285856583192, 14.594342325726517 ], [ 104.173658188430011, 14.59436514253095 ], [ 104.17366264153182, 14.594477318122188 ], [ 104.173869291308691, 14.594711731423764 ], [ 104.173919803300024, 14.594972450051294 ], [ 104.173990154328493, 14.595563981108793 ], [ 104.173916592338813, 14.596028373984671 ], [ 104.173938527497114, 14.596153031587958 ], [ 104.173971277085897, 14.596498217014849 ], [ 104.173792313891212, 14.597032738658157 ], [ 104.173815150640408, 14.597041567182274 ], [ 104.174691198483913, 14.597395630123819 ], [ 104.174588365016547, 14.598266207459712 ], [ 104.17474551061386, 14.598324215508317 ], [ 104.175118989788061, 14.598377547599744 ], [ 104.175148049160043, 14.59872325575906 ], [ 104.175667108482855, 14.598689641317293 ], [ 104.175735545966162, 14.59982779310679 ], [ 104.17636229391789, 14.599743403399005 ], [ 104.177233977850761, 14.599651809691776 ], [ 104.177250323018484, 14.600348800638713 ], [ 104.178434215615596, 14.600022558377471 ], [ 104.178488653689541, 14.600786351396893 ], [ 104.178664571822566, 14.600909028700499 ], [ 104.178699101326387, 14.600920545874748 ], [ 104.178264228867988, 14.601718446021188 ], [ 104.178018178405367, 14.602288702829135 ], [ 104.18015866525063, 14.602772343886313 ], [ 104.180159047098158, 14.602669264024659 ], [ 104.181856801151724, 14.602736692254179 ], [ 104.181829716697493, 14.603119180014472 ], [ 104.183454374086054, 14.60304309243053 ], [ 104.183492271106857, 14.603352401066372 ], [ 104.184314737448346, 14.603264358127772 ], [ 104.184936339686203, 14.603214959274432 ], [ 104.184969272255103, 14.60345320582751 ], [ 104.185780236764046, 14.603481507253903 ], [ 104.18588109275629, 14.603694025237534 ], [ 104.187391088946924, 14.603851952030649 ], [ 104.187237910603372, 14.603386528579929 ], [ 104.19022857025432, 14.60390638982315 ], [ 104.190220773984493, 14.604042070876165 ], [ 104.192097914597412, 14.603595649078073 ], [ 104.192109741253958, 14.603574884587132 ], [ 104.192119841078437, 14.603557171885761 ], [ 104.193331832125423, 14.603672011485134 ] ] ] ] } },
{ "type": "Feature", "properties": { "ZONE_ID": "02" }, "geometry": { "type": "MultiPolygon", "coordinates": [ ] } },
{ "type": "Feature", "properties": { "ZONE_ID": "02" }, "geometry": { "type": "MultiPolygon", "coordinates": [ ] } },
{ "type": "Feature", "properties": { "ZONE_ID": "01" }, "geometry": { "type": "MultiPolygon", "coordinates": [ [ [ [ 104.145006937296884, 14.636792072376554 ], [ 104.145148819138058, 14.638885663081806 ], [ 104.145434552326606, 14.638904399684334 ], [ 104.14571091721389, 14.639461813609532 ], [ 104.158220111806813, 14.639815394322195 ], [ 104.161234192408074, 14.640117594698005 ], [ 104.165624312342061, 14.641041431765796 ], [ 104.169097018234822, 14.640457116504203 ], [ 104.168912042625834, 14.639474886488633 ], [ 104.169955222622576, 14.63932691008085 ], [ 104.1696866341603, 14.638781444213178 ], [ 104.169378238178894, 14.638431340619848 ], [ 104.170647822462612, 14.638418764327168 ], [ 104.170656761632188, 14.638297257914399 ], [ 104.171551017709177, 14.638198809774229 ], [ 104.171520219262533, 14.637436116638879 ], [ 104.171483113744344, 14.637006686050684 ], [ 104.171791173715164, 14.637007214388159 ], [ 104.171804167520037, 14.636331116141188 ], [ 104.177781924596758, 14.636719282459817 ], [ 104.184831119656849, 14.636113083671255 ], [ 104.185654600475942, 14.636076441667594 ], [ 104.185675814267498, 14.635912999045996 ], [ 104.187303490640602, 14.635843572091693 ], [ 104.189117951014026, 14.636283724821874 ], [ 104.189372799584135, 14.635373011623646 ], [ 104.189535519008246, 14.634455033005649 ], [ 104.191982819147412, 14.634800239250653 ], [ 104.192090816631875, 14.634237109510199 ], [ 104.192263931179113, 14.632036722040262 ], [ 104.191386305772554, 14.631931021893175 ], [ 104.191405225458041, 14.631005863345354 ], [ 104.19135122671581, 14.629765820800444 ], [ 104.193125471103542, 14.629337205783957 ], [ 104.192661720381253, 14.627809208220876 ], [ 104.192650930885634, 14.627564724146412 ], [ 104.192622607816688, 14.627335636334051 ], [ 104.19257825170699, 14.627144712209718 ], [ 104.192539681176825, 14.626930163635658 ], [ 104.192512681805695, 14.626559886546044 ], [ 104.192655392767278, 14.626536744227941 ], [ 104.192479896855033, 14.625478947438086 ], [ 104.192247509410763, 14.624749482286285 ], [ 104.192313561443513, 14.624727786363055 ], [ 104.191661227188433, 14.623470969969748 ], [ 104.192395041688059, 14.623077449803487 ], [ 104.191650884998154, 14.621922928921531 ], [ 104.191121249929267, 14.622016278092238 ], [ 104.190994162756311, 14.621357571417191 ], [ 104.190468443706123, 14.620039056289485 ], [ 104.190954432386249, 14.619861631850711 ], [ 104.191213748911366, 14.618801660632467 ], [ 104.190072264366307, 14.618939600344619 ], [ 104.189346720612363, 14.619177948477025 ], [ 104.188847748953336, 14.61929567061531 ], [ 104.188436624580419, 14.619329214983837 ], [ 104.188081563449074, 14.619408772269983 ], [ 104.184501539634567, 14.620192388947475 ], [ 104.184139140240163, 14.620247397418956 ], [ 104.183952932501441, 14.62022271366852 ], [ 104.183408054669457, 14.61995345722486 ], [ 104.18289152977259, 14.619168061638504 ], [ 104.181246673790028, 14.619365182043522 ], [ 104.181215637658141, 14.619151615083359 ], [ 104.180692125227935, 14.619255725650408 ], [ 104.179090658630585, 14.619439925318185 ], [ 104.178254863004256, 14.619440795213444 ], [ 104.178535784690197, 14.621270897889815 ], [ 104.178311638232941, 14.621236413819467 ], [ 104.177116749612793, 14.621433489980818 ], [ 104.176847981024778, 14.621455770822502 ], [ 104.175172524758949, 14.621380335052992 ], [ 104.174729541862192, 14.621258013600084 ], [ 104.174132047936794, 14.620872496502191 ], [ 104.173033567458475, 14.620401396897149 ], [ 104.171308294744364, 14.620220094247507 ], [ 104.170214976753215, 14.62010053997802 ], [ 104.169552119844084, 14.619904843897043 ], [ 104.169471792146282, 14.619570123015688 ], [ 104.168906082223117, 14.619561571531905 ], [ 104.168430636883684, 14.619627713994593 ], [ 104.168115894515651, 14.619682667492789 ], [ 104.167978714165088, 14.619761761476191 ], [ 104.166746266664319, 14.619745052562127 ], [ 104.166045986144837, 14.619815314821606 ], [ 104.163710743818925, 14.62036230789664 ], [ 104.163547677418734, 14.620062836211821 ], [ 104.16184293916568, 14.620315754835012 ], [ 104.158164902706602, 14.620077627256991 ], [ 104.156504197357251, 14.620063717135066 ], [ 104.153761769650188, 14.620382847881045 ], [ 104.153534330283492, 14.619621496571128 ], [ 104.15274112458421, 14.619779004629324 ], [ 104.151511865931013, 14.620078778779201 ], [ 104.151484048922896, 14.620042930390799 ], [ 104.15026318603671, 14.620257484012269 ], [ 104.148833107509233, 14.62034045876932 ], [ 104.148708745229825, 14.620285548633007 ], [ 104.148641233856068, 14.620313972296973 ], [ 104.148530105202724, 14.620328177363396 ], [ 104.148518894350644, 14.620612190470602 ], [ 104.145012686010347, 14.620885057722164 ], [ 104.142513029243702, 14.620984056343765 ], [ 104.140691861426859, 14.620871960240452 ], [ 104.140570589315686, 14.62108058230644 ], [ 104.139858319558499, 14.620939206926565 ], [ 104.138568598077313, 14.620802903705831 ], [ 104.139072105164885, 14.623460078261294 ], [ 104.138918356220458, 14.624820516193081 ], [ 104.138360790222379, 14.625391433390019 ], [ 104.138479643408957, 14.627285343734048 ], [ 104.138332240091245, 14.627709803826535 ], [ 104.138027936245265, 14.627853928970801 ], [ 104.137433205335128, 14.626852364167799 ], [ 104.137149030510415, 14.626867655317547 ], [ 104.13683838948036, 14.62718648113627 ], [ 104.136774130658011, 14.62790304377482 ], [ 104.136621232109633, 14.629332203454704 ], [ 104.136323855499029, 14.629674387026268 ], [ 104.134987884043554, 14.630281800597526 ], [ 104.134965475664316, 14.63053850665573 ], [ 104.135076586104802, 14.631851793785591 ], [ 104.135383729869957, 14.632525664719839 ], [ 104.135855857572693, 14.633092091967454 ], [ 104.136224649674801, 14.633808119332199 ], [ 104.136286658260033, 14.633988362127772 ], [ 104.136319300205088, 14.634122081299063 ], [ 104.136232838767796, 14.634296539311054 ], [ 104.13606849015946, 14.63455980782423 ], [ 104.135681936262827, 14.634656283779682 ], [ 104.134932396182265, 14.634122214666032 ], [ 104.134807939035625, 14.634164954506259 ], [ 104.134827120544628, 14.634649353568038 ], [ 104.135081059740997, 14.635111182196653 ], [ 104.136109303121827, 14.635773279092483 ], [ 104.136202677797826, 14.635952024900817 ], [ 104.136219351847089, 14.636070744131731 ], [ 104.136056613126058, 14.636308182593549 ], [ 104.135901605210776, 14.636615540566767 ], [ 104.136258035641418, 14.636620654277154 ], [ 104.137088443151413, 14.636586929534392 ], [ 104.13789033192171, 14.636527113834989 ], [ 104.140883139140129, 14.63675078923688 ], [ 104.145006937296884, 14.636792072376554 ] ] ] ] } }
]
}
