{
"type": "FeatureCollection",
"name": "block",
"crs": { "type": "name", "properties": { "name": "urn:ogc:def:crs:OGC::CRS84" } },
"features": [
{ "type": "Feature", "properties": { "ZONE_ID": "01", "BLOCK_ID": "01A" }, "geometry": { "type": "MultiPolygon", "coordinates": [ [ [ [ 104.146616955500093, 14.63464555755913 ], [ 104.14685606136392, 14.634344313069205 ], [ 104.147072168881891, 14.633500193689365 ], [ 104.147204956073978, 14.633040320018676 ], [ 104.147291921015167, 14.632368994030092 ], [ 104.148372567246739, 14.632293716468203 ], [ 104.148371261495498, 14.631381342170926 ], [ 104.148885391973522, 14.631510441056674 ], [ 104.152548985965893, 14.631594376083186 ], [ 104.152539909844563, 14.631217545855824 ], [ 104.152527929930244, 14.630854985080214 ], [ 104.15256357241492, 14.630467568071943 ], [ 104.152527895590865, 14.630188898982119 ], [ 104.152529315974078, 14.629489592644521 ], [ 104.152651310498285, 14.62948414150001 ], [ 104.152925942769116, 14.626868474367582 ], [ 104.152984724717072, 14.626807942733409 ], [ 104.152883342560614, 14.62651674071976 ], [ 104.152846356786569, 14.625667527533146 ], [ 104.15356714863394, 14.625637299332105 ], [ 104.153584513102516, 14.625169431172376 ], [ 104.152761363910471, 14.62512539692014 ], [ 104.152820014568164, 14.62272605992251 ], [ 104.152788051743059, 14.62166020538179 ], [ 104.152782514473614, 14.620617490300141 ], [ 104.153776989448005, 14.62043229369138 ], [ 104.153761768742996, 14.620382857236141 ], [ 104.153534327930373, 14.619621501085952 ], [ 104.152741133374946, 14.619779010204299 ], [ 104.152477319580754, 14.619842279949872 ], [ 104.151994854178952, 14.619968525713992 ], [ 104.151934002885625, 14.619982411020755 ], [ 104.151511866906716, 14.620078786260009 ], [ 104.151484049782269, 14.620042921882305 ], [ 104.151025873761213, 14.620124443688848 ], [ 104.150682789489451, 14.620188321078565 ], [ 104.1502376429804, 14.620257326758807 ], [ 104.148833107702075, 14.620340452211375 ], [ 104.148708744571337, 14.620285557487362 ], [ 104.148641232768369, 14.620313981332032 ], [ 104.148530103408532, 14.62032818648875 ], [ 104.148518892545866, 14.620612185640198 ], [ 104.144957588303029, 14.620884341176854 ], [ 104.142513037816997, 14.62098405405556 ], [ 104.140699414941864, 14.62085222881967 ], [ 104.140570601726679, 14.621080580691595 ], [ 104.139858327441246, 14.620939204412956 ], [ 104.138568598077313, 14.620802903705831 ], [ 104.139072105164885, 14.623460078261294 ], [ 104.139004349002178, 14.624126741099026 ], [ 104.138918356220458, 14.624820516193081 ], [ 104.138360790222379, 14.625391433390019 ], [ 104.138479643408957, 14.627285343734048 ], [ 104.138332240091245, 14.627709803826535 ], [ 104.138027936245265, 14.627853928970801 ], [ 104.137433205335128, 14.626852364167799 ], [ 104.137149030510415, 14.626867655317547 ], [ 104.13683838948036, 14.62718648113627 ], [ 104.136621232109633, 14.629332203454704 ], [ 104.136323855499029, 14.629674387026268 ], [ 104.134987884043554, 14.630281800597526 ], [ 104.134965475664316, 14.63053850665573 ], [ 104.135003359699951, 14.630986282906212 ], [ 104.135076586104802, 14.631851793785591 ], [ 104.135383729869957, 14.632525664719839 ], [ 104.135855857572693, 14.633092091967454 ], [ 104.136224649674801, 14.633808119332199 ], [ 104.136286658260033, 14.633988362127772 ], [ 104.136319300205088, 14.634122081299063 ], [ 104.136232838767796, 14.634296539311054 ], [ 104.13606849015946, 14.63455980782423 ], [ 104.135681936262827, 14.634656283779682 ], [ 104.134932396182265, 14.634122214666032 ], [ 104.134807939035625, 14.634164954506259 ], [ 104.134827120544628, 14.634649353568038 ], [ 104.135081059740997, 14.635111182196653 ], [ 104.136109303121827, 14.635773279092483 ], [ 104.136202677797826, 14.635952024900817 ], [ 104.136219351847089, 14.636070744131731 ], [ 104.136142627209082, 14.636182686636367 ], [ 104.136056613126058, 14.636308182593549 ], [ 104.135901605210776, 14.636615540566767 ], [ 104.136258035641418, 14.636620654277154 ], [ 104.136612891320837, 14.636612651707823 ], [ 104.137019196216798, 14.636594643734595 ], [ 104.137286491001333, 14.636569298205355 ], [ 104.137513258071607, 14.636548622384243 ], [ 104.137812057034793, 14.636529947449045 ], [ 104.13789033192171, 14.636527113834989 ], [ 104.138169455506727, 14.636547372804873 ], [ 104.140883139140129, 14.63675078923688 ], [ 104.145006937296884, 14.636792072376554 ], [ 104.145458182670836, 14.635655978130076 ], [ 104.146616955500093, 14.63464555755913 ] ] ] ] } },
{ "type": "Feature", "properties": { "ZONE_ID": "01", "BLOCK_ID": "01D" }, "geometry": { "type": "MultiPolygon", "coordinates": [ [ [ [ 104.19121374330409, 14.618801659073945 ], [ 104.190072267688834, 14.618939599719246 ], [ 104.189346719322259, 14.619177949366929 ], [ 104.188847744491014, 14.619295672253626 ], [ 104.18843663369114, 14.619329216891749 ], [ 104.188081563449074, 14.619408772269983 ], [ 104.184799497707104, 14.620124039878283 ], [ 104.184501539634567, 14.620192388947475 ], [ 104.184139140240163, 14.620247397418956 ], [ 104.183952932501441, 14.62022271366852 ], [ 104.183408054669457, 14.61995345722486 ], [ 104.18289152977259, 14.619168061638504 ], [ 104.182464114099716, 14.619244826727735 ], [ 104.181908628026861, 14.619266428963902 ], [ 104.181686433597704, 14.619300375335021 ], [ 104.18165638424351, 14.61932846698882 ], [ 104.181482755370993, 14.619334321706139 ], [ 104.181246673790028, 14.619365182043522 ], [ 104.181215649421787, 14.619151616032287 ], [ 104.181022828219966, 14.61919154100447 ], [ 104.180692117476639, 14.619255727204351 ], [ 104.180472776254391, 14.61927970221255 ], [ 104.179354872940479, 14.619414788384818 ], [ 104.179090656884711, 14.619439928100086 ], [ 104.178665587385396, 14.619444231315326 ], [ 104.178307515562423, 14.619444230518493 ], [ 104.1782548559448, 14.619440798000854 ], [ 104.178330707170886, 14.619921887350781 ], [ 104.178535784690197, 14.621270897889815 ], [ 104.178704373478467, 14.622598853895127 ], [ 104.178670501962401, 14.623405484607606 ], [ 104.178632996184973, 14.624441700385324 ], [ 104.178935384384431, 14.625744839927005 ], [ 104.179085849930502, 14.626403423957838 ], [ 104.179355963986168, 14.627237125807493 ], [ 104.180152794091583, 14.629625558095285 ], [ 104.180650827101616, 14.630527926378798 ], [ 104.184831119656849, 14.636113083671255 ], [ 104.185654600475942, 14.636076441667594 ], [ 104.185675814267498, 14.635912999045996 ], [ 104.186102178247296, 14.635894865149954 ], [ 104.187303490640602, 14.635843572091693 ], [ 104.189117951014026, 14.636283724821874 ], [ 104.189372799584135, 14.635373011623646 ], [ 104.189459583277028, 14.634892326391428 ], [ 104.189535519008246, 14.634455033005649 ], [ 104.191982819147412, 14.634800239250653 ], [ 104.192090816631875, 14.634237109510199 ], [ 104.192184168849124, 14.633060353163492 ], [ 104.192263931179113, 14.632036722040262 ], [ 104.191386305772554, 14.631931021893175 ], [ 104.191405225458041, 14.631005863345354 ], [ 104.19135122671581, 14.629765820800444 ], [ 104.191540222313634, 14.629765820800444 ], [ 104.193125471103542, 14.629337205783957 ], [ 104.192598961132148, 14.627805621619977 ], [ 104.192653464240834, 14.627639379259117 ], [ 104.192650930885634, 14.627564724146412 ], [ 104.192622607816688, 14.627335636334051 ], [ 104.19257825170699, 14.627144712209718 ], [ 104.192539681176825, 14.626930163635658 ], [ 104.192512681805695, 14.626559886546044 ], [ 104.190670456858356, 14.626800952359593 ], [ 104.190532759839598, 14.625038837837771 ], [ 104.190081701132598, 14.625026174145122 ], [ 104.190022604658438, 14.623833501780974 ], [ 104.189157527812512, 14.623850306801739 ], [ 104.189124742861864, 14.623645882991841 ], [ 104.189066887066616, 14.623553313719437 ], [ 104.190657620916042, 14.623119989348151 ], [ 104.192082620393705, 14.622792027880243 ], [ 104.191588917607547, 14.621936244242136 ], [ 104.191121249929267, 14.622016278092238 ], [ 104.191065322660521, 14.621726999115976 ], [ 104.190996859969488, 14.621328758391988 ], [ 104.190468443706123, 14.620039056289485 ], [ 104.190954432386249, 14.619861631850711 ], [ 104.191177762326021, 14.61900002220405 ], [ 104.19121374330409, 14.618801659073945 ] ] ] ] } },
{ "type": "Feature", "properties": { "ZONE_ID": "02", "BLOCK_ID": "02A" }, "geometry": { "type": "MultiPolygon", "coordinates": [ [ [ [ 104.153534327930373, 14.619621501085952 ], [ 104.153401625518612, 14.618561238339019 ], [ 104.153419278777477, 14.618355833737514 ], [ 104.153437100799295, 14.618148617153926 ], [ 104.153456380363494, 14.617924288716786 ], [ 104.153473423191713, 14.617726084947508 ], [ 104.153491228831925, 14.617518884045847 ], [ 104.153500359929652, 14.617412731035783 ], [ 104.153656632083496, 14.617305583273087 ], [ 104.153787016833078, 14.616248103651973 ], [ 104.153858203008028, 14.6156566384056 ], [ 104.153848904900443, 14.615328541838181 ], [ 104.153845976608878, 14.615048982712798 ], [ 104.154103441655835, 14.61501044960076 ], [ 104.154025490358222, 14.614489228732609 ], [ 104.153916520632023, 14.613965200064293 ], [ 104.153274047319798, 14.614020114664784 ], [ 104.153301293091431, 14.613431453169898 ], [ 104.153287269446679, 14.613378112142168 ], [ 104.155155804885396, 14.612897727137794 ], [ 104.155434040547021, 14.612721952137999 ], [ 104.155792600768095, 14.612620358160358 ], [ 104.155490783697431, 14.611697776261828 ], [ 104.155480043735921, 14.611585530165049 ], [ 104.155299036852327, 14.611164747871678 ], [ 104.155147180007333, 14.610926717076053 ], [ 104.155562891271828, 14.610719065206041 ], [ 104.155540829682124, 14.610651162939108 ], [ 104.155504508036515, 14.6106256551823 ], [ 104.155060455945517, 14.609998785687635 ], [ 104.154816109183258, 14.609659368394528 ], [ 104.155069170402953, 14.609674549401843 ], [ 104.155699428993145, 14.609750438248968 ], [ 104.155788745530018, 14.609504123077908 ], [ 104.155932632058921, 14.608779474802699 ], [ 104.156048343649431, 14.608420768872133 ], [ 104.156322952725091, 14.608460253758713 ], [ 104.156735381218041, 14.608672441581479 ], [ 104.156969697188813, 14.608689798320055 ], [ 104.157204013159586, 14.6085856578886 ], [ 104.157148074192548, 14.60791550259386 ], [ 104.156906700180585, 14.607335641509582 ], [ 104.156836571224503, 14.607075257578515 ], [ 104.157201951499573, 14.60655911989774 ], [ 104.157735169162194, 14.606114125510967 ], [ 104.157747673922799, 14.605956081063482 ], [ 104.157708566497234, 14.605853166785693 ], [ 104.157652992787234, 14.605717319939011 ], [ 104.15745333908832, 14.605739961080126 ], [ 104.15722212322288, 14.60572711575935 ], [ 104.157191336906067, 14.605604728997189 ], [ 104.157053501442022, 14.605438073293637 ], [ 104.15716599338127, 14.605276544265729 ], [ 104.157152698938575, 14.604976378323276 ], [ 104.156963143410067, 14.604654360457788 ], [ 104.156953571413496, 14.60441381858158 ], [ 104.156926326537345, 14.604249231381701 ], [ 104.156947820468119, 14.604122987282159 ], [ 104.156991212314551, 14.603978347794028 ], [ 104.156954677425816, 14.603792103551678 ], [ 104.156990756058974, 14.603766447793106 ], [ 104.156941623115358, 14.603700890897397 ], [ 104.154659439760721, 14.604568321532305 ], [ 104.154587170173684, 14.60423188966705 ], [ 104.15420917459079, 14.60424810729932 ], [ 104.154167435075308, 14.604000990557461 ], [ 104.153732492108233, 14.604123209092423 ], [ 104.153360786316355, 14.604209527894001 ], [ 104.152949529653952, 14.604317578977247 ], [ 104.152773614489959, 14.604362018700177 ], [ 104.152770709082901, 14.604406424491405 ], [ 104.152524645095752, 14.604471887557949 ], [ 104.152090050459009, 14.604545428875582 ], [ 104.151220064977295, 14.604777118087233 ], [ 104.15022281583208, 14.60491629982481 ], [ 104.149796227158546, 14.604989039634139 ], [ 104.149808350460106, 14.605110272649682 ], [ 104.149436731676488, 14.605227913754097 ], [ 104.149138687367881, 14.605299125807939 ], [ 104.148821178146733, 14.605399559190467 ], [ 104.148593408482682, 14.605440788441861 ], [ 104.148342783637787, 14.604840316946015 ], [ 104.147814345332819, 14.604862581826508 ], [ 104.147496874731829, 14.60488006823655 ], [ 104.147194456859566, 14.604842963643273 ], [ 104.146638163733613, 14.604776858919919 ], [ 104.146310527212833, 14.604635271694834 ], [ 104.146107625332817, 14.604483532912511 ], [ 104.145879528583066, 14.604292486818311 ], [ 104.145784594780849, 14.604239132973627 ], [ 104.145265296786306, 14.604032503729934 ], [ 104.144916143120838, 14.603947546156972 ], [ 104.143489976950519, 14.603711368016084 ], [ 104.143462679083612, 14.603894263724317 ], [ 104.142982380606327, 14.604643357659009 ], [ 104.143587549871583, 14.605199859612009 ], [ 104.143618502899002, 14.605445413595076 ], [ 104.143342380642821, 14.60560748535414 ], [ 104.143158990314546, 14.605677496879601 ], [ 104.142964213205005, 14.605751549139976 ], [ 104.142378954075042, 14.60579656907305 ], [ 104.141930255408681, 14.60555346143444 ], [ 104.141649271649385, 14.606034743323207 ], [ 104.140848276350553, 14.606794510922843 ], [ 104.140404079677552, 14.607609371711474 ], [ 104.141688648434581, 14.608242652103375 ], [ 104.141658635145873, 14.608542784990531 ], [ 104.140644185987284, 14.609351643121418 ], [ 104.141070374687047, 14.610077964708337 ], [ 104.141616616541668, 14.610366092280008 ], [ 104.141712659065561, 14.610640713871753 ], [ 104.141508568702292, 14.611413556056183 ], [ 104.14110250414636, 14.611734636693102 ], [ 104.141314232657805, 14.612402493919401 ], [ 104.141284219369084, 14.612786664014962 ], [ 104.141110142294522, 14.613071790257749 ], [ 104.141039611066049, 14.613100302882028 ], [ 104.140922559240053, 14.613061285606701 ], [ 104.140224750277412, 14.612497035778846 ], [ 104.140077128714879, 14.612571947865362 ], [ 104.140044670545123, 14.612863197901177 ], [ 104.14026977021048, 14.613172334774948 ], [ 104.14036581273443, 14.613419944406855 ], [ 104.14052488316463, 14.613615030783508 ], [ 104.140742633232037, 14.614113838578049 ], [ 104.140846025353852, 14.614453151870885 ], [ 104.141168668207541, 14.614973882430137 ], [ 104.141464157881998, 14.615109215051769 ], [ 104.141673364144125, 14.615370043638315 ], [ 104.141654345393022, 14.615530344540462 ], [ 104.141109257136293, 14.615804438642627 ], [ 104.140812125578037, 14.61616459810719 ], [ 104.140866149497711, 14.616641809397738 ], [ 104.141266826902054, 14.617116769691631 ], [ 104.141735034205979, 14.617278841450684 ], [ 104.141658500319764, 14.617823582640836 ], [ 104.141347862781572, 14.618012666359732 ], [ 104.140953786130254, 14.618096406060621 ], [ 104.139659859329939, 14.618368190233426 ], [ 104.139294255431878, 14.618770571005589 ], [ 104.138856894644178, 14.619146104727706 ], [ 104.138579837832523, 14.619513860756022 ], [ 104.138568598077313, 14.620802903705831 ], [ 104.139858327441246, 14.620939204412956 ], [ 104.140570601726679, 14.621080580691595 ], [ 104.140699414941864, 14.62085222881967 ], [ 104.142513037816997, 14.62098405405556 ], [ 104.144957588303029, 14.620884341176854 ], [ 104.148518892545866, 14.620612185640198 ], [ 104.148530103408532, 14.62032818648875 ], [ 104.148641232768369, 14.620313981332032 ], [ 104.148708744571337, 14.620285557487362 ], [ 104.148833107702075, 14.620340452211375 ], [ 104.1502376429804, 14.620257326758807 ], [ 104.150682789489451, 14.620188321078565 ], [ 104.151025873761213, 14.620124443688848 ], [ 104.151484049782269, 14.620042921882305 ], [ 104.151511866906716, 14.620078786260009 ], [ 104.151934002885625, 14.619982411020755 ], [ 104.151994854178952, 14.619968525713992 ], [ 104.152477319580754, 14.619842279949872 ], [ 104.152741133374946, 14.619779010204299 ], [ 104.153534327930373, 14.619621501085952 ] ] ] ] } },
{ "type": "Feature", "properties": { "ZONE_ID": "02", "BLOCK_ID": "02B" }, "geometry": { "type": "MultiPolygon", "coordinates": [ [ [ [ 104.166973242334265, 14.619747390025891 ], [ 104.167978714165088, 14.619761761476191 ], [ 104.168115894515651, 14.619682667492789 ], [ 104.168430636883684, 14.619627713994593 ], [ 104.168906082223117, 14.619561571531905 ], [ 104.168909561250757, 14.619561486514234 ], [ 104.169471792146282, 14.619570123015688 ], [ 104.169552119844084, 14.619904843897043 ], [ 104.170287705938136, 14.620108337703414 ], [ 104.169552119844084, 14.619904843897043 ], [ 104.169471792146282, 14.619570123015688 ], [ 104.17042062718842, 14.619182489187498 ], [ 104.170301856514385, 14.618782349720195 ], [ 104.170239071420511, 14.618394720010206 ], [ 104.170757730891623, 14.617626285056957 ], [ 104.170420602235424, 14.616939061257735 ], [ 104.170406886436922, 14.616544264923977 ], [ 104.170502281225936, 14.616394957930511 ], [ 104.170721477323582, 14.616248838769478 ], [ 104.171543909458336, 14.616254567245205 ], [ 104.171653100925937, 14.616090780043802 ], [ 104.171206019608931, 14.614679138724549 ], [ 104.171235790859654, 14.613890853805946 ], [ 104.17094856132006, 14.613568307455706 ], [ 104.170740280457153, 14.613469952603777 ], [ 104.170537785173764, 14.613252993371582 ], [ 104.170352389464711, 14.61316310454295 ], [ 104.170344395744493, 14.613396147105391 ], [ 104.170378681736821, 14.613559629086422 ], [ 104.169328599053003, 14.613536486768322 ], [ 104.169322813473471, 14.613611699302149 ], [ 104.168269837999887, 14.613582771404522 ], [ 104.168336372164418, 14.613339777064462 ], [ 104.168255382644176, 14.612668298573672 ], [ 104.168064000333288, 14.612656581289331 ], [ 104.167693929436226, 14.612858704444202 ], [ 104.167326787860233, 14.613069615562328 ], [ 104.166815133110703, 14.613229751781645 ], [ 104.166637420964847, 14.612647793326076 ], [ 104.166537451302176, 14.612123892297392 ], [ 104.16642925763945, 14.611777047912247 ], [ 104.166399015927453, 14.611460728765922 ], [ 104.166294690397933, 14.611079141885012 ], [ 104.166923517990867, 14.610958063280162 ], [ 104.167110994540309, 14.610840890436759 ], [ 104.167154666465294, 14.610663458961666 ], [ 104.167130227656841, 14.610628412263393 ], [ 104.16710862997445, 14.610556714002048 ], [ 104.167075930403826, 14.610437233920679 ], [ 104.166998657652314, 14.610333955311814 ], [ 104.166824906798638, 14.610172675829821 ], [ 104.166713941521152, 14.610063240065623 ], [ 104.166610608556496, 14.610114805711515 ], [ 104.166446874453499, 14.610212037779144 ], [ 104.166424389238159, 14.610182640680801 ], [ 104.166243927323777, 14.609934211469188 ], [ 104.166232686434938, 14.609436525086556 ], [ 104.165700912355874, 14.609432257724464 ], [ 104.165622874979064, 14.60884053572364 ], [ 104.165439532588636, 14.606768604205378 ], [ 104.165333732633457, 14.605402065005453 ], [ 104.16542014485421, 14.604938407133252 ], [ 104.165447442721103, 14.604833310345686 ], [ 104.165489754414807, 14.604728213558118 ], [ 104.164727074536557, 14.60465345260452 ], [ 104.164635951659037, 14.604798092092649 ], [ 104.164562252564934, 14.605438745818248 ], [ 104.163736055241259, 14.605433043808752 ], [ 104.163738512567747, 14.604817090119653 ], [ 104.163929930158261, 14.604463613276561 ], [ 104.162460392958863, 14.604686358088282 ], [ 104.161551333776004, 14.604809301653189 ], [ 104.161124438682933, 14.60483090001053 ], [ 104.160931103491322, 14.604858240340656 ], [ 104.160866658427452, 14.605447033878759 ], [ 104.160737768299711, 14.605703349473705 ], [ 104.160704569327407, 14.6058615328123 ], [ 104.160622548337031, 14.605847862647236 ], [ 104.160567867676775, 14.605949412444852 ], [ 104.160380391127319, 14.606027527673788 ], [ 104.160366720962259, 14.60618375813166 ], [ 104.159993720744097, 14.606166182205149 ], [ 104.159901935350092, 14.60620133405817 ], [ 104.159749610653677, 14.606140794755746 ], [ 104.159677354066901, 14.606123218829234 ], [ 104.159389363609051, 14.606055231112821 ], [ 104.159146412593643, 14.606111191739966 ], [ 104.158923404250118, 14.606119782937139 ], [ 104.158294719146355, 14.606005753729065 ], [ 104.157652992787234, 14.605717319939011 ], [ 104.157747673922799, 14.605956081063482 ], [ 104.157735169162194, 14.606114125510967 ], [ 104.157201951499573, 14.60655911989774 ], [ 104.156836571224503, 14.607075257578515 ], [ 104.156906700180585, 14.607335641509582 ], [ 104.157148074192548, 14.60791550259386 ], [ 104.157204013159586, 14.6085856578886 ], [ 104.156969697188813, 14.608689798320055 ], [ 104.156735381218041, 14.608672441581479 ], [ 104.156322952725091, 14.608460253758713 ], [ 104.156048343649431, 14.608420768872133 ], [ 104.155932632058921, 14.608779474802699 ], [ 104.155788745530018, 14.609504123077908 ], [ 104.155699428993145, 14.609750438248968 ], [ 104.155069170402953, 14.609674549401843 ], [ 104.154816109183258, 14.609659368394528 ], [ 104.155060455945517, 14.609998785687635 ], [ 104.155504508036515, 14.6106256551823 ], [ 104.155540829682124, 14.610651162939108 ], [ 104.155562891271828, 14.610719065206041 ], [ 104.155147180007333, 14.610926717076053 ], [ 104.155299036852327, 14.611164747871678 ], [ 104.155480043735921, 14.611585530165049 ], [ 104.155490783697431, 14.611697776261828 ], [ 104.155792600768095, 14.612620358160358 ], [ 104.155434040547021, 14.612721952137999 ], [ 104.155155804885396, 14.612897727137794 ], [ 104.153287269446679, 14.613378112142168 ], [ 104.153301293091431, 14.613431453169898 ], [ 104.153274047319798, 14.614020114664784 ], [ 104.153916520632023, 14.613965200064293 ], [ 104.154025490358222, 14.614489228732609 ], [ 104.154103441655835, 14.61501044960076 ], [ 104.153845976608878, 14.615048982712798 ], [ 104.153848904900443, 14.615328541838181 ], [ 104.153858203008028, 14.6156566384056 ], [ 104.153787016833078, 14.616248103651973 ], [ 104.153656632083496, 14.617305583273087 ], [ 104.153500359929652, 14.617412731035783 ], [ 104.153491228831925, 14.617518884045847 ], [ 104.153473423191713, 14.617726084947508 ], [ 104.153456380363494, 14.617924288716786 ], [ 104.153437100799295, 14.618148617153926 ], [ 104.153419278777477, 14.618355833737514 ], [ 104.153401625518612, 14.618561238339019 ], [ 104.153534327930373, 14.619621501085952 ], [ 104.153761768742996, 14.620382857236141 ], [ 104.156504197758537, 14.620063708641229 ], [ 104.157380189800421, 14.620066939498129 ], [ 104.158073337356456, 14.620050786497126 ], [ 104.158763761958113, 14.620098336913165 ], [ 104.159252651066879, 14.620154998377929 ], [ 104.159303658500306, 14.620179912361619 ], [ 104.161842941074525, 14.620315763588136 ], [ 104.163128712191622, 14.620164090045574 ], [ 104.163547690225144, 14.620062827595513 ], [ 104.163710741475285, 14.620362301126132 ], [ 104.166045986144837, 14.619815314821606 ], [ 104.166702320512925, 14.61974529707393 ], [ 104.166826846322508, 14.619747212855616 ], [ 104.166973242334265, 14.619747390025891 ] ] ] ] } },
{ "type": "Feature", "properties": { "ZONE_ID": "02", "BLOCK_ID": "02C" }, "geometry": { "type": "MultiPolygon", "coordinates": [ [ [ [ 104.17298933151082, 14.613809702040962 ], [ 104.173242854234871, 14.612891961610513 ], [ 104.173357578182603, 14.612326285080139 ], [ 104.1733128112336, 14.61223870980084 ], [ 104.173352634953247, 14.611996324522293 ], [ 104.173048935301253, 14.611920940274999 ], [ 104.173056203350654, 14.61145165640024 ], [ 104.17309744073907, 14.611159991909865 ], [ 104.173077667821815, 14.610681425520259 ], [ 104.173029603752923, 14.610370781204509 ], [ 104.172648224773795, 14.609018028850379 ], [ 104.173211752917524, 14.608963653327738 ], [ 104.173421840164082, 14.608911749419763 ], [ 104.173329189953634, 14.608573629946099 ], [ 104.173256099260982, 14.608265708012922 ], [ 104.173217615979212, 14.607925922316895 ], [ 104.173236742736819, 14.607346920211709 ], [ 104.173153965829357, 14.606251518171025 ], [ 104.17305535822625, 14.605998588039002 ], [ 104.173686166069672, 14.605738688598072 ], [ 104.173637452055004, 14.605524802847727 ], [ 104.173433433682845, 14.604933971229883 ], [ 104.17154851597337, 14.605084109497833 ], [ 104.171524679647689, 14.604910600643858 ], [ 104.171056419683765, 14.604898250930523 ], [ 104.170116812327549, 14.604705801231059 ], [ 104.170042377391212, 14.604729075719915 ], [ 104.168700060958358, 14.604850017745415 ], [ 104.168036426025012, 14.604821234410748 ], [ 104.167998819758097, 14.604365620023136 ], [ 104.167767789216654, 14.604397769809479 ], [ 104.167639470278374, 14.604513349827243 ], [ 104.167550079518577, 14.604654381937953 ], [ 104.166648423927484, 14.604845395161515 ], [ 104.165447442721103, 14.604833310345686 ], [ 104.16542014485421, 14.604938407133252 ], [ 104.165333732633457, 14.605402065005453 ], [ 104.165439532588636, 14.606768604205378 ], [ 104.165622874979064, 14.60884053572364 ], [ 104.165700912355874, 14.609432257724464 ], [ 104.166232686434938, 14.609436525086556 ], [ 104.166243927323777, 14.609934211469188 ], [ 104.166424389238159, 14.610182640680801 ], [ 104.166446874453499, 14.610212037779144 ], [ 104.166610608556496, 14.610114805711515 ], [ 104.166713941521152, 14.610063240065623 ], [ 104.166824906798638, 14.610172675829821 ], [ 104.166998657652314, 14.610333955311814 ], [ 104.167075930403826, 14.610437233920679 ], [ 104.16710862997445, 14.610556714002048 ], [ 104.167130227656841, 14.610628412263393 ], [ 104.167154666465294, 14.610663458961666 ], [ 104.167110994540309, 14.610840890436759 ], [ 104.166923517990867, 14.610958063280162 ], [ 104.166294690397933, 14.611079141885012 ], [ 104.166399015927453, 14.611460728765922 ], [ 104.16642925763945, 14.611777047912247 ], [ 104.166537451302176, 14.612123892297392 ], [ 104.166637420964847, 14.612647793326076 ], [ 104.166815133110703, 14.613229751781645 ], [ 104.167326787860233, 14.613069615562328 ], [ 104.167693929436226, 14.612858704444202 ], [ 104.168064000333288, 14.612656581289331 ], [ 104.168255382644176, 14.612668298573672 ], [ 104.168336372164418, 14.613339777064462 ], [ 104.168269837999887, 14.613582771404522 ], [ 104.169322813473471, 14.613611699302149 ], [ 104.169328599053003, 14.613536486768322 ], [ 104.170378681736821, 14.613559629086422 ], [ 104.170344395744493, 14.613396147105391 ], [ 104.170352389464711, 14.61316310454295 ], [ 104.170537785173764, 14.613252993371582 ], [ 104.170740280457153, 14.613469952603777 ], [ 104.17094856132006, 14.613568307455706 ], [ 104.171235790859654, 14.613890853805946 ], [ 104.171536914379985, 14.613830687276103 ], [ 104.171534411420922, 14.613547150310469 ], [ 104.171822347700839, 14.613446299187856 ], [ 104.172024351915908, 14.613472232161412 ], [ 104.172175855077199, 14.613502259815002 ], [ 104.172442009279479, 14.613473597054757 ], [ 104.172442620647615, 14.613663827485873 ], [ 104.172510432256004, 14.613716722805382 ], [ 104.17298933151082, 14.613809702040962 ] ] ] ] } },
{ "type": "Feature", "properties": { "ZONE_ID": "02", "BLOCK_ID": "02D" }, "geometry": { "type": "MultiPolygon", "coordinates": [ [ [ [ 104.178519157806662, 14.621153390342876 ], [ 104.178324133311492, 14.619891209340301 ], [ 104.1782548559448, 14.619440798000854 ], [ 104.178224538140029, 14.617050063066861 ], [ 104.17808418025075, 14.615947101777842 ], [ 104.177834702885605, 14.614812898649557 ], [ 104.177777134157935, 14.614826941218208 ], [ 104.177164173720897, 14.614794810227556 ], [ 104.176719283081113, 14.614678644338278 ], [ 104.176538855210524, 14.61468853079694 ], [ 104.17648726025277, 14.61373340620438 ], [ 104.175602422202516, 14.613933606992285 ], [ 104.174807798087542, 14.614044829652231 ], [ 104.174464243649041, 14.614062130954888 ], [ 104.173942115050991, 14.614012389709737 ], [ 104.17373882474476, 14.613992925744251 ], [ 104.17298933151082, 14.613809702040962 ], [ 104.172510432256004, 14.613716722805382 ], [ 104.172442620647615, 14.613663827485873 ], [ 104.172442009279479, 14.613473597054757 ], [ 104.172175855077199, 14.613502259815002 ], [ 104.172024351915908, 14.613472232161412 ], [ 104.171822347700839, 14.613446299187856 ], [ 104.171534411420922, 14.613547150310469 ], [ 104.171536914379985, 14.613830687276103 ], [ 104.171235790859654, 14.613890853805946 ], [ 104.171206019608931, 14.614679138724549 ], [ 104.171653100925937, 14.616090780043802 ], [ 104.171543909458336, 14.616254567245205 ], [ 104.170721477323582, 14.616248838769478 ], [ 104.170502281225936, 14.616394957930511 ], [ 104.170406886436922, 14.616544264923977 ], [ 104.170420602235424, 14.616939061257735 ], [ 104.170757730891623, 14.617626285056957 ], [ 104.170239071420511, 14.618394720010206 ], [ 104.170301856514385, 14.618782349720195 ], [ 104.17042062718842, 14.619182489187498 ], [ 104.169471792146282, 14.619570123015688 ], [ 104.169552119844084, 14.619904843897043 ], [ 104.170287705938136, 14.620108337703414 ], [ 104.171712728215624, 14.620266070395529 ], [ 104.17303355957813, 14.620401405905863 ], [ 104.174132047098951, 14.620872492744441 ], [ 104.174729544764048, 14.621258028054754 ], [ 104.175094957837231, 14.621369227809124 ], [ 104.175991653191303, 14.621440016937399 ], [ 104.176847981024778, 14.621455770822502 ], [ 104.177116749612793, 14.621433489980818 ], [ 104.177940247314297, 14.621301302179116 ], [ 104.178311638232941, 14.621236413819467 ], [ 104.178535784690197, 14.621270897889815 ], [ 104.178519157806662, 14.621153390342876 ] ] ] ] } },
{ "type": "Feature", "properties": { "ZONE_ID": "02", "BLOCK_ID": "02E" }, "geometry": { "type": "MultiPolygon", "coordinates": [ [ [ [ 104.19121374330409, 14.618801659073945 ], [ 104.191348497101146, 14.618058959053533 ], [ 104.191488949593364, 14.617284739320421 ], [ 104.19149763702508, 14.617215260030392 ], [ 104.191564667430583, 14.616679434565526 ], [ 104.191657325863517, 14.615938637204511 ], [ 104.191687715187584, 14.615454146791516 ], [ 104.191688574468202, 14.615440484311261 ], [ 104.191716815552127, 14.614990110665392 ], [ 104.191754869956995, 14.614383540277535 ], [ 104.191759644915223, 14.614334852936841 ], [ 104.191808788108645, 14.613834224305762 ], [ 104.191850734907945, 14.613407004820719 ], [ 104.191885486168175, 14.613052989597371 ], [ 104.191910637606412, 14.612796727170513 ], [ 104.191930347173127, 14.612638783620524 ], [ 104.191969199573762, 14.612327355125526 ], [ 104.192023242504931, 14.611894172191604 ], [ 104.192097044570048, 14.611302620229488 ], [ 104.192127592796879, 14.611057661847754 ], [ 104.19216233944735, 14.610766677826776 ], [ 104.192174411553594, 14.610665544750997 ], [ 104.192259266532673, 14.609954682685 ], [ 104.192317722399721, 14.609442942323538 ], [ 104.192439543793157, 14.608342371785694 ], [ 104.192457242398618, 14.608234007715795 ], [ 104.192501810865096, 14.60796134120223 ], [ 104.192720645587087, 14.606684416362341 ], [ 104.193001155855924, 14.605234617486767 ], [ 104.193152765058585, 14.604678142363914 ], [ 104.193406285388747, 14.603745589503296 ], [ 104.193331577095023, 14.603739593983098 ], [ 104.193331823452723, 14.603672008253664 ], [ 104.192119840886164, 14.603557167980163 ], [ 104.192109740997495, 14.603574880794136 ], [ 104.192097914265759, 14.603595645417089 ], [ 104.190220761718948, 14.604042070053252 ], [ 104.190228574224022, 14.60390638819382 ], [ 104.187237911745683, 14.603386523701889 ], [ 104.187391088946924, 14.603851952030649 ], [ 104.18588109275629, 14.603694025237534 ], [ 104.185780236764046, 14.603481507253903 ], [ 104.185400392003146, 14.603468417000695 ], [ 104.184969272255103, 14.60345320582751 ], [ 104.184936339686203, 14.603214959274432 ], [ 104.184314737448346, 14.603264358127772 ], [ 104.183492271106857, 14.603352401066372 ], [ 104.183454374086054, 14.60304309243053 ], [ 104.181829715828627, 14.603119173549892 ], [ 104.181856800396801, 14.602736699119502 ], [ 104.180159051735245, 14.602669270518104 ], [ 104.18015866994368, 14.602772335273533 ], [ 104.178018185617375, 14.602288706960151 ], [ 104.177925663523126, 14.602381454188512 ], [ 104.17734578620545, 14.60372908889304 ], [ 104.176707345086143, 14.605493208076004 ], [ 104.17624132157853, 14.607870718178487 ], [ 104.17623083023139, 14.609141300631823 ], [ 104.176640971965881, 14.610793297814368 ], [ 104.177391664582757, 14.6127421259947 ], [ 104.177867914872806, 14.61495504973184 ], [ 104.17808418025075, 14.615947101777842 ], [ 104.178224538140029, 14.617050063066861 ], [ 104.1782548559448, 14.619440798000854 ], [ 104.178307515562423, 14.619444230518493 ], [ 104.178665587385396, 14.619444231315326 ], [ 104.179090656884711, 14.619439928100086 ], [ 104.179354872940479, 14.619414788384818 ], [ 104.180472776254391, 14.61927970221255 ], [ 104.180692117476639, 14.619255727204351 ], [ 104.181022828219966, 14.61919154100447 ], [ 104.181215649421787, 14.619151616032287 ], [ 104.181246673790028, 14.619365182043522 ], [ 104.181482755370993, 14.619334321706139 ], [ 104.18165638424351, 14.61932846698882 ], [ 104.181686433597704, 14.619300375335021 ], [ 104.181908628026861, 14.619266428963902 ], [ 104.182464114099716, 14.619244826727735 ], [ 104.18289152977259, 14.619168061638504 ], [ 104.183408054669457, 14.61995345722486 ], [ 104.183952932501441, 14.62022271366852 ], [ 104.184139140240163, 14.620247397418956 ], [ 104.184501539634567, 14.620192388947475 ], [ 104.184799497707104, 14.620124039878283 ], [ 104.188081563449074, 14.619408772269983 ], [ 104.18843663369114, 14.619329216891749 ], [ 104.188847744491014, 14.619295672253626 ], [ 104.189346719322259, 14.619177949366929 ], [ 104.190072267688834, 14.618939599719246 ], [ 104.19121374330409, 14.618801659073945 ] ] ] ] } },
{ "type": "Feature", "properties": { "ZONE_ID": "02", "BLOCK_ID": "02F" }, "geometry": { "type": "MultiPolygon", "coordinates": [ [ [ [ 104.165489754414807, 14.604728213558118 ], [ 104.165669483134806, 14.60430134962394 ], [ 104.166211968133467, 14.603501324088814 ], [ 104.166199944785376, 14.603449686380081 ], [ 104.16606624051299, 14.602631917081688 ], [ 104.165818762140077, 14.60178571677816 ], [ 104.165680761440669, 14.600510604629509 ], [ 104.165065489022041, 14.600504601971766 ], [ 104.164943935202743, 14.600525611273866 ], [ 104.164727839524019, 14.600617151804441 ], [ 104.164849373244138, 14.600777520476822 ], [ 104.164350836554405, 14.600821886422935 ], [ 104.164193790567566, 14.600814489177706 ], [ 104.163904749802654, 14.600521100378348 ], [ 104.163543252534666, 14.600257367505964 ], [ 104.163297539734401, 14.600011906283727 ], [ 104.16304353127758, 14.599856690101632 ], [ 104.162771160682496, 14.599696869339233 ], [ 104.162588829953563, 14.599586570503215 ], [ 104.162243820338148, 14.599422990649414 ], [ 104.161798917410721, 14.599293595217846 ], [ 104.161413745462269, 14.599118641791923 ], [ 104.16131780126986, 14.598953571976327 ], [ 104.161275253152454, 14.598592696453229 ], [ 104.160880387349849, 14.59876987982619 ], [ 104.160674999276708, 14.598920304893845 ], [ 104.160556394896432, 14.598986839058384 ], [ 104.160400184249255, 14.599038909274112 ], [ 104.160284472658759, 14.599105443438651 ], [ 104.159960195417156, 14.599173784811192 ], [ 104.159918534753785, 14.59891271132072 ], [ 104.159944569861651, 14.598625963535499 ], [ 104.160020111270413, 14.598320359410899 ], [ 104.160161529093827, 14.598201446637834 ], [ 104.160210706519791, 14.598120448524481 ], [ 104.160165267939476, 14.598096704915703 ], [ 104.160093906360046, 14.597947500230157 ], [ 104.159954400637986, 14.597607412714781 ], [ 104.15969235697348, 14.596985774403214 ], [ 104.159551692852105, 14.596531402948044 ], [ 104.159586406329254, 14.59640628979081 ], [ 104.159634456990247, 14.59606405352392 ], [ 104.1596303391226, 14.596020815913567 ], [ 104.159594441655187, 14.595797580386161 ], [ 104.15952855053402, 14.595607879816331 ], [ 104.159826811926251, 14.595349007714436 ], [ 104.159686732517983, 14.595140852112495 ], [ 104.159259605902974, 14.594528018273582 ], [ 104.158818550258914, 14.594300981619558 ], [ 104.15772520507528, 14.594219193421173 ], [ 104.157702927786161, 14.593684776183602 ], [ 104.157784295384872, 14.592721463218506 ], [ 104.157871270990555, 14.592338957014752 ], [ 104.157942221221148, 14.591901636864439 ], [ 104.157969945967466, 14.591748359835114 ], [ 104.154201575218309, 14.591562420284754 ], [ 104.153479407039896, 14.591304322826815 ], [ 104.151212615276208, 14.589227733037555 ], [ 104.150742364506584, 14.59002933824857 ], [ 104.150210216254436, 14.592517998960387 ], [ 104.14978622995126, 14.593630265769718 ], [ 104.149245732186614, 14.59417758800107 ], [ 104.148623367490544, 14.594312153340763 ], [ 104.148097174436487, 14.594245662056613 ], [ 104.147760728227212, 14.594183047574454 ], [ 104.147318502783421, 14.594335915629097 ], [ 104.147192932595672, 14.594750843205986 ], [ 104.147313043210033, 14.595138472915973 ], [ 104.147757998440511, 14.595467412212125 ], [ 104.147776865061871, 14.595778225618297 ], [ 104.147822115151371, 14.596231080599027 ], [ 104.147612920672003, 14.596633251133422 ], [ 104.147225690035981, 14.596978349145068 ], [ 104.146873547552971, 14.597142136346472 ], [ 104.146657894404456, 14.597120298052952 ], [ 104.146469539122833, 14.596751776849793 ], [ 104.146289373201299, 14.596645315168882 ], [ 104.145981369088616, 14.596732937028518 ], [ 104.145690185022815, 14.596850731617309 ], [ 104.144885580395766, 14.597719145008059 ], [ 104.144166964049774, 14.59908506202312 ], [ 104.1442133704235, 14.599714277855176 ], [ 104.145010468137002, 14.600323020287059 ], [ 104.144430743910675, 14.601435809467596 ], [ 104.145158934942273, 14.6026916943554 ], [ 104.145110913680327, 14.603099875081933 ], [ 104.144992724523433, 14.603217276625184 ], [ 104.14468425862745, 14.603277331932366 ], [ 104.144052802299584, 14.603228231820644 ], [ 104.143786158806435, 14.603290980865816 ], [ 104.143453124830245, 14.60348479572081 ], [ 104.143398529096402, 14.603557135068096 ], [ 104.143489976950519, 14.603711368016084 ], [ 104.143860033389345, 14.603774063192635 ], [ 104.144916143120838, 14.603947546156972 ], [ 104.145265296786306, 14.604032503729934 ], [ 104.145784594780849, 14.604239132973627 ], [ 104.145879528583066, 14.604292486818311 ], [ 104.146107625332817, 14.604483532912511 ], [ 104.146310527212833, 14.604635271694834 ], [ 104.146638163733613, 14.604776858919919 ], [ 104.147194456859566, 14.604842963643273 ], [ 104.147496874731829, 14.60488006823655 ], [ 104.147814345332819, 14.604862581826508 ], [ 104.148342783637787, 14.604840316946015 ], [ 104.148593408482682, 14.605440788441861 ], [ 104.148821178146733, 14.605399559190467 ], [ 104.149138687367881, 14.605299125807939 ], [ 104.149436731676488, 14.605227913754097 ], [ 104.149808350460106, 14.605110272649682 ], [ 104.149796227158546, 14.604989039634139 ], [ 104.15022281583208, 14.60491629982481 ], [ 104.151220064977295, 14.604777118087233 ], [ 104.152090050459009, 14.604545428875582 ], [ 104.152524645095752, 14.604471887557949 ], [ 104.152770709082901, 14.604406424491405 ], [ 104.152773614489959, 14.604362018700177 ], [ 104.152949529653952, 14.604317578977247 ], [ 104.153360786316355, 14.604209527894001 ], [ 104.153732492108233, 14.604123209092423 ], [ 104.154167435075308, 14.604000990557461 ], [ 104.15420917459079, 14.60424810729932 ], [ 104.154587170173684, 14.60423188966705 ], [ 104.154659439760721, 14.604568321532305 ], [ 104.156941623115358, 14.603700890897397 ], [ 104.156990756058974, 14.603766447793106 ], [ 104.156954677425816, 14.603792103551678 ], [ 104.156991212314551, 14.603978347794028 ], [ 104.156947820468119, 14.604122987282159 ], [ 104.156926326537345, 14.604249231381701 ], [ 104.156953571413496, 14.60441381858158 ], [ 104.156963143410067, 14.604654360457788 ], [ 104.157152698938575, 14.604976378323276 ], [ 104.15716599338127, 14.605276544265729 ], [ 104.157053501442022, 14.605438073293637 ], [ 104.157191336906067, 14.605604728997189 ], [ 104.15722212322288, 14.60572711575935 ], [ 104.15745333908832, 14.605739961080126 ], [ 104.157652992787234, 14.605717319939011 ], [ 104.158294719146355, 14.606005753729065 ], [ 104.158923404250118, 14.606119782937139 ], [ 104.159146412593643, 14.606111191739966 ], [ 104.159389363609051, 14.606055231112821 ], [ 104.159677354066901, 14.606123218829234 ], [ 104.159749610653677, 14.606140794755746 ], [ 104.159901935350092, 14.60620133405817 ], [ 104.159993720744097, 14.606166182205149 ], [ 104.160366720962259, 14.60618375813166 ], [ 104.160380391127319, 14.606027527673788 ], [ 104.160567867676775, 14.605949412444852 ], [ 104.160622548337031, 14.605847862647236 ], [ 104.160704569327407, 14.6058615328123 ], [ 104.160737768299711, 14.605703349473705 ], [ 104.160866658427452, 14.605447033878759 ], [ 104.160931103491322, 14.604858240340656 ], [ 104.161124438682933, 14.60483090001053 ], [ 104.161551333776004, 14.604809301653189 ], [ 104.162460392958863, 14.604686358088282 ], [ 104.163929930158261, 14.604463613276561 ], [ 104.163738512567747, 14.604817090119653 ], [ 104.163736055241259, 14.605433043808752 ], [ 104.164562252564934, 14.605438745818248 ], [ 104.164635951659037, 14.604798092092649 ], [ 104.164727074536557, 14.60465345260452 ], [ 104.165489754414807, 14.604728213558118 ] ] ] ] } },
{ "type": "Feature", "properties": { "ZONE_ID": "02", "BLOCK_ID": "02G" }, "geometry": { "type": "MultiPolygon", "coordinates": [ [ [ [ 104.165680761440669, 14.600510604629509 ], [ 104.165912515676098, 14.600508928605347 ], [ 104.165951086206292, 14.600077661864912 ], [ 104.165798751181526, 14.600089668255267 ], [ 104.16570948640026, 14.599593109546491 ], [ 104.165572022365367, 14.599511760650691 ], [ 104.165538798512969, 14.599291482383492 ], [ 104.165530406385244, 14.598774074388206 ], [ 104.165414114865669, 14.597996811436669 ], [ 104.165316240312947, 14.597379075456374 ], [ 104.164993457128702, 14.59622864624531 ], [ 104.165085747991498, 14.596129602392555 ], [ 104.16529283968363, 14.59596077764354 ], [ 104.16548136946831, 14.595868170628728 ], [ 104.165627937482952, 14.595891312946829 ], [ 104.165668436539661, 14.595433287901086 ], [ 104.165700440670975, 14.595187159977909 ], [ 104.165676150645695, 14.595112670369064 ], [ 104.165863217717003, 14.595045171941271 ], [ 104.165811147501202, 14.594566174169746 ], [ 104.165613606706756, 14.59463578473836 ], [ 104.165398442828405, 14.594764812400111 ], [ 104.165149662908817, 14.59481495408933 ], [ 104.165070238726315, 14.594602275263693 ], [ 104.164978024049546, 14.59423109268891 ], [ 104.165055165109976, 14.593952179542631 ], [ 104.165402299881464, 14.594003044429293 ], [ 104.16541645721675, 14.59351062738854 ], [ 104.165411245660223, 14.593351714934835 ], [ 104.165416763830166, 14.593226330378034 ], [ 104.165483048900825, 14.592913209549252 ], [ 104.165524761314614, 14.592713342326794 ], [ 104.161923351960155, 14.59204977424795 ], [ 104.161080290034576, 14.591867820494302 ], [ 104.157969945967466, 14.591748359835114 ], [ 104.157942221221148, 14.591901636864439 ], [ 104.157871270990555, 14.592338957014752 ], [ 104.157784295384872, 14.592721463218506 ], [ 104.157702927786161, 14.593684776183602 ], [ 104.15772520507528, 14.594219193421173 ], [ 104.158818550258914, 14.594300981619558 ], [ 104.159259605902974, 14.594528018273582 ], [ 104.159686732517983, 14.595140852112495 ], [ 104.159826811926251, 14.595349007714436 ], [ 104.15952855053402, 14.595607879816331 ], [ 104.159594441655187, 14.595797580386161 ], [ 104.1596303391226, 14.596020815913567 ], [ 104.159634456990247, 14.59606405352392 ], [ 104.159586406329254, 14.59640628979081 ], [ 104.159551692852105, 14.596531402948044 ], [ 104.15969235697348, 14.596985774403214 ], [ 104.159954400637986, 14.597607412714781 ], [ 104.160093906360046, 14.597947500230157 ], [ 104.160165267939476, 14.598096704915703 ], [ 104.160210706519791, 14.598120448524481 ], [ 104.160161529093827, 14.598201446637834 ], [ 104.160020111270413, 14.598320359410899 ], [ 104.159944569861651, 14.598625963535499 ], [ 104.159918534753785, 14.59891271132072 ], [ 104.159960195417156, 14.599173784811192 ], [ 104.160284472658759, 14.599105443438651 ], [ 104.160400184249255, 14.599038909274112 ], [ 104.160556394896432, 14.598986839058384 ], [ 104.160674999276708, 14.598920304893845 ], [ 104.160880387349849, 14.59876987982619 ], [ 104.161275253152454, 14.598592696453229 ], [ 104.161317374863145, 14.59894995537103 ], [ 104.161413745462269, 14.599118641791923 ], [ 104.161798917410721, 14.599293595217846 ], [ 104.162243820338148, 14.599422990649414 ], [ 104.162588829953563, 14.599586570503215 ], [ 104.163297539734401, 14.600011906283727 ], [ 104.163543252534666, 14.600257367505964 ], [ 104.163904749802654, 14.600521100378348 ], [ 104.164193790567566, 14.600814489177706 ], [ 104.164350836554405, 14.600821886422935 ], [ 104.164849373244138, 14.600777520476822 ], [ 104.164727839524019, 14.600617151804441 ], [ 104.164943935202743, 14.600525611273866 ], [ 104.165065489022041, 14.600504601971766 ], [ 104.165680761440669, 14.600510604629509 ] ] ] ] } },
{ "type": "Feature", "properties": { "ZONE_ID": "02", "BLOCK_ID": "02I" }, "geometry": { "type": "MultiPolygon", "coordinates": [ [ [ [ 104.174373953995769, 14.598216716477307 ], [ 104.174588350364999, 14.59826620177928 ], [ 104.174691184427431, 14.597395634670237 ], [ 104.173815163443507, 14.597041553830696 ], [ 104.173792310305217, 14.597032740954711 ], [ 104.173971274637665, 14.596498215913197 ], [ 104.173938524840679, 14.596153028291793 ], [ 104.173916589484122, 14.596028385657533 ], [ 104.173990152000272, 14.595563974067751 ], [ 104.173919800465754, 14.594972455011128 ], [ 104.173869288212103, 14.594711718964565 ], [ 104.173662653247561, 14.594477319991501 ], [ 104.17365820011743, 14.594365143687112 ], [ 104.17328584971861, 14.594342326680339 ], [ 104.173404733528514, 14.593612726794078 ], [ 104.171506822521124, 14.59348813463953 ], [ 104.169554698927641, 14.593258802595344 ], [ 104.168329259874085, 14.593114114856174 ], [ 104.165524761314614, 14.592713342326794 ], [ 104.165483048900825, 14.592913209549252 ], [ 104.165416763830166, 14.593226330378034 ], [ 104.165411245660223, 14.593351714934835 ], [ 104.16541645721675, 14.59351062738854 ], [ 104.165402299881464, 14.594003044429293 ], [ 104.165055165109976, 14.593952179542631 ], [ 104.164978024049546, 14.59423109268891 ], [ 104.165070238726315, 14.594602275263693 ], [ 104.165149662908817, 14.59481495408933 ], [ 104.165398442828405, 14.594764812400111 ], [ 104.165589366952744, 14.594651029336115 ], [ 104.165811147501202, 14.594566174169746 ], [ 104.165863217717003, 14.595045171941271 ], [ 104.165676150645695, 14.595112670369064 ], [ 104.165700440670975, 14.595187159977909 ], [ 104.165668436539661, 14.595433287901086 ], [ 104.165627937482952, 14.595891312946829 ], [ 104.16548136946831, 14.595868170628728 ], [ 104.16529283968363, 14.59596077764354 ], [ 104.165085747991498, 14.596129602392555 ], [ 104.164993457128702, 14.59622864624531 ], [ 104.165316240312947, 14.597379075456374 ], [ 104.165414114865669, 14.597996811436669 ], [ 104.165530406385244, 14.598774074388206 ], [ 104.167103557119418, 14.598599315537522 ], [ 104.166973208685476, 14.597335573849683 ], [ 104.169251217298864, 14.597342326839644 ], [ 104.169388528094728, 14.597371589796138 ], [ 104.169995171692861, 14.597389597769368 ], [ 104.170344076174146, 14.597463880658934 ], [ 104.171355899169896, 14.597704737300859 ], [ 104.172115536244959, 14.597709302698533 ], [ 104.172806040837514, 14.597820321248392 ], [ 104.17325501921178, 14.597945301612777 ], [ 104.174373953995769, 14.598216716477307 ] ] ] ] } },
{ "type": "Feature", "properties": { "ZONE_ID": "02", "BLOCK_ID": "02H" }, "geometry": { "type": "MultiPolygon", "coordinates": [ [ [ [ 104.178018185617375, 14.602288706960151 ], [ 104.178264237644228, 14.601718446526796 ], [ 104.178699096681882, 14.600920541250748 ], [ 104.178664566900068, 14.600909039764838 ], [ 104.178488663892523, 14.600786345976724 ], [ 104.178434215615596, 14.600022558377471 ], [ 104.177250323018484, 14.600348800638713 ], [ 104.177233977850761, 14.599651809691776 ], [ 104.17636229391789, 14.599743403399005 ], [ 104.175735545966162, 14.59982779310679 ], [ 104.175667100689367, 14.598689638328876 ], [ 104.175148054251878, 14.598723253041515 ], [ 104.175118994695154, 14.598377542684368 ], [ 104.17474551061386, 14.598324215508317 ], [ 104.174588350364999, 14.59826620177928 ], [ 104.17325501921178, 14.597945301612777 ], [ 104.172790653907256, 14.597816333547433 ], [ 104.172115536244959, 14.597709302698533 ], [ 104.171385057703958, 14.597708437941696 ], [ 104.170344076174146, 14.597463880658934 ], [ 104.169995171692861, 14.597389597769368 ], [ 104.169388528094728, 14.597371589796138 ], [ 104.169251217298864, 14.597342326839644 ], [ 104.166973208685476, 14.597335573849683 ], [ 104.167103557119418, 14.598599315537522 ], [ 104.165530406385244, 14.598774074388206 ], [ 104.165538798512969, 14.599291482383492 ], [ 104.165572022365367, 14.599511760650691 ], [ 104.16570948640026, 14.599593109546491 ], [ 104.165798751181526, 14.600089668255267 ], [ 104.165951086206292, 14.600077661864912 ], [ 104.165912515676098, 14.600508928605347 ], [ 104.165680761440669, 14.600510604629509 ], [ 104.165818762140077, 14.60178571677816 ], [ 104.16606624051299, 14.602631917081688 ], [ 104.166199944785376, 14.603449686380081 ], [ 104.166211968133467, 14.603501324088814 ], [ 104.165669483134806, 14.60430134962394 ], [ 104.165447442721103, 14.604833310345686 ], [ 104.166648423927484, 14.604845395161515 ], [ 104.167550079518577, 14.604654381937953 ], [ 104.167639470278374, 14.604513349827243 ], [ 104.167767789216654, 14.604397769809479 ], [ 104.167998819758097, 14.604365620023136 ], [ 104.168036426025012, 14.604821234410748 ], [ 104.168700060958358, 14.604850017745415 ], [ 104.170042377391212, 14.604729075719915 ], [ 104.170116812327549, 14.604705801231059 ], [ 104.171056419683765, 14.604898250930523 ], [ 104.171524679647689, 14.604910600643858 ], [ 104.17154851597337, 14.605084109497833 ], [ 104.173433433682845, 14.604933971229883 ], [ 104.173637452055004, 14.605524802847727 ], [ 104.173686166069672, 14.605738688598072 ], [ 104.17305535822625, 14.605998588039002 ], [ 104.173153965829357, 14.606251518171025 ], [ 104.173236742736819, 14.607346920211709 ], [ 104.173217615979212, 14.607925922316895 ], [ 104.173256099260982, 14.608265708012922 ], [ 104.173329189953634, 14.608573629946099 ], [ 104.173421840164082, 14.608911749419763 ], [ 104.173211752917524, 14.608963653327738 ], [ 104.172648224773795, 14.609018028850379 ], [ 104.173029603752923, 14.610370781204509 ], [ 104.173077667821815, 14.610681425520259 ], [ 104.17309744073907, 14.611159991909865 ], [ 104.173056203350654, 14.61145165640024 ], [ 104.173048935301253, 14.611920940274999 ], [ 104.173352634953247, 14.611996324522293 ], [ 104.1733128112336, 14.61223870980084 ], [ 104.173357578182603, 14.612326285080139 ], [ 104.173242854234871, 14.612891961610513 ], [ 104.17298933151082, 14.613809702040962 ], [ 104.17373882474476, 14.613992925744251 ], [ 104.173942115050991, 14.614012389709737 ], [ 104.174464243649041, 14.614062130954888 ], [ 104.174807798087542, 14.614044829652231 ], [ 104.175602422202516, 14.613933606992285 ], [ 104.17648726025277, 14.61373340620438 ], [ 104.176538855210524, 14.61468853079694 ], [ 104.176719283081113, 14.614678644338278 ], [ 104.177164173720897, 14.614794810227556 ], [ 104.177777134157935, 14.614826941218208 ], [ 104.177834702885605, 14.614812898649557 ], [ 104.177391664582757, 14.6127421259947 ], [ 104.176640971965881, 14.610793297814368 ], [ 104.17623083023139, 14.609141300631823 ], [ 104.17624132157853, 14.607870718178487 ], [ 104.176707345086143, 14.605493208076004 ], [ 104.17734578620545, 14.60372908889304 ], [ 104.177925663523126, 14.602381454188512 ], [ 104.178018185617375, 14.602288706960151 ] ] ] ] } },
{ "type": "Feature", "properties": { "ZONE_ID": "03", "BLOCK_ID": "03A" }, "geometry": { "type": "MultiPolygon", "coordinates": [ [ [ [ 104.169893161365721, 14.586123329439395 ], [ 104.169942068303897, 14.585955530360025 ], [ 104.169938464519348, 14.585828808937835 ], [ 104.169932044016434, 14.585775700589714 ], [ 104.169926047147456, 14.585566300341688 ], [ 104.169886853498653, 14.585500135162345 ], [ 104.169327660515151, 14.585617794999125 ], [ 104.169208038616858, 14.585156591039601 ], [ 104.169089408640986, 14.584586350853094 ], [ 104.169176334800824, 14.584249674008687 ], [ 104.169202767416976, 14.583899037788532 ], [ 104.16884848584705, 14.583969840492735 ], [ 104.168851767966018, 14.583750637919959 ], [ 104.169238735402956, 14.583720317220637 ], [ 104.169263860717535, 14.583575902923592 ], [ 104.169257772293335, 14.583166564657571 ], [ 104.169337590571374, 14.582899529297096 ], [ 104.169401984058524, 14.582805502984778 ], [ 104.169504854491336, 14.582545468885678 ], [ 104.169516349674495, 14.58236721291545 ], [ 104.169467276642067, 14.581940289340057 ], [ 104.169467995193415, 14.581532567134534 ], [ 104.169413560385721, 14.581543201986266 ], [ 104.169501954424035, 14.580999972418129 ], [ 104.169617663002938, 14.580755824357757 ], [ 104.169900243067744, 14.580507981795533 ], [ 104.169696030111268, 14.579614148569686 ], [ 104.169347184003442, 14.579665868476162 ], [ 104.168714461863942, 14.579770405004627 ], [ 104.168605148919028, 14.580023433151776 ], [ 104.168054241141959, 14.580063020694633 ], [ 104.167430532051128, 14.58001784891928 ], [ 104.167333177098186, 14.579968262419301 ], [ 104.166997822764017, 14.579952345933533 ], [ 104.166919259795719, 14.57998399918495 ], [ 104.166024987931095, 14.580157892888273 ], [ 104.165833162569015, 14.579928852326647 ], [ 104.165077708391692, 14.580074945496015 ], [ 104.164873115201374, 14.57952792874454 ], [ 104.164576450418082, 14.578874080758956 ], [ 104.164306813262414, 14.578817320320514 ], [ 104.164291737874422, 14.578870998150604 ], [ 104.16332822285024, 14.579197948370062 ], [ 104.163064455290424, 14.57912970144891 ], [ 104.162789231512548, 14.57985804216395 ], [ 104.160865316111412, 14.579676581460893 ], [ 104.160690219305323, 14.5796600649262 ], [ 104.160423600874381, 14.579716511479209 ], [ 104.15935958051368, 14.580195515261373 ], [ 104.158468807389525, 14.58097257698517 ], [ 104.157744103864403, 14.580809874658879 ], [ 104.157410631589684, 14.581031180530957 ], [ 104.15798914651144, 14.581857996706754 ], [ 104.156690655972128, 14.583069319808821 ], [ 104.15601535697607, 14.583105335755278 ], [ 104.155898305150075, 14.583321431434015 ], [ 104.156132408802051, 14.58366358292535 ], [ 104.155853285217006, 14.584627009493058 ], [ 104.154871850676074, 14.584942149024553 ], [ 104.153921930088288, 14.584915137064709 ], [ 104.153318662985129, 14.585041192877306 ], [ 104.153521252683888, 14.58591683057552 ], [ 104.153512248697268, 14.586403045852682 ], [ 104.152963005513811, 14.586808225250316 ], [ 104.152285908230496, 14.587133648044615 ], [ 104.152251690571305, 14.587443006306605 ], [ 104.152674877942175, 14.58800125347668 ], [ 104.152722283698594, 14.58813674999274 ], [ 104.15243415612693, 14.588785037029 ], [ 104.151443717599321, 14.589023642674288 ], [ 104.151212615276208, 14.589227733037555 ], [ 104.153479407039896, 14.591304322826815 ], [ 104.154201575218309, 14.591562420284754 ], [ 104.157969945967466, 14.591748359835114 ], [ 104.161080290034576, 14.591867820494302 ], [ 104.161923351960155, 14.59204977424795 ], [ 104.165524761314614, 14.592713342326794 ], [ 104.168329259874085, 14.593114114856174 ], [ 104.168493628212588, 14.592128646677661 ], [ 104.168369436516173, 14.591849726300623 ], [ 104.167950867266811, 14.591848440320598 ], [ 104.167992040128425, 14.591245637997655 ], [ 104.167724520976236, 14.591198140452818 ], [ 104.167781128035799, 14.590842615810786 ], [ 104.167710876946501, 14.59052192961607 ], [ 104.166651008922273, 14.590441769089594 ], [ 104.166605430749414, 14.59027877212065 ], [ 104.166527417186686, 14.590296745815523 ], [ 104.16639866069572, 14.589971610626874 ], [ 104.166699908518339, 14.58957126603654 ], [ 104.16677472474629, 14.589590021439752 ], [ 104.166877319860717, 14.589258634649575 ], [ 104.166833271887583, 14.589093294673662 ], [ 104.166787054508291, 14.589057240370863 ], [ 104.166848275381795, 14.588847922387092 ], [ 104.166926965280624, 14.588662860927618 ], [ 104.166882265244169, 14.588498779569131 ], [ 104.166884084891265, 14.588337685470586 ], [ 104.166920783451118, 14.588137579398802 ], [ 104.166949241673834, 14.587912256690794 ], [ 104.166949569821369, 14.587824985185875 ], [ 104.167029262617376, 14.587295549267971 ], [ 104.166737180906665, 14.587097265377686 ], [ 104.16680332238397, 14.586582077068041 ], [ 104.166724166585595, 14.586000376161056 ], [ 104.168297607579987, 14.586116777844474 ], [ 104.168700997158908, 14.586015015715345 ], [ 104.168749535802149, 14.586070732774617 ], [ 104.169249041145051, 14.586082754631676 ], [ 104.169356100121064, 14.586083135299159 ], [ 104.169582705490399, 14.58609008795114 ], [ 104.169893161365721, 14.586123329439395 ] ] ] ] } },
{ "type": "Feature", "properties": { "ZONE_ID": "03", "BLOCK_ID": "03B" }, "geometry": { "type": "MultiPolygon", "coordinates": [ [ [ [ 104.174786304614912, 14.587244190411946 ], [ 104.174208562734421, 14.586879519857877 ], [ 104.174183686239431, 14.586823288559854 ], [ 104.172953766156354, 14.586859807831724 ], [ 104.172953793521359, 14.586574977375919 ], [ 104.172781272580679, 14.585996730011827 ], [ 104.172265081895148, 14.586084018645735 ], [ 104.171915422980177, 14.586155709139263 ], [ 104.17147648332373, 14.586099365078837 ], [ 104.171411608682106, 14.586114266273791 ], [ 104.171142286410458, 14.586191079362775 ], [ 104.170814899325805, 14.586223206418124 ], [ 104.170396188166137, 14.586236662067199 ], [ 104.170335021031974, 14.586190688522162 ], [ 104.169893161365721, 14.586123329439395 ], [ 104.169582705490399, 14.58609008795114 ], [ 104.169356100121064, 14.586083135299159 ], [ 104.169249041145051, 14.586082754631676 ], [ 104.168749535802149, 14.586070732774617 ], [ 104.168700997158908, 14.586015015715345 ], [ 104.168297607579987, 14.586116777844474 ], [ 104.166724166585595, 14.586000376161056 ], [ 104.16680332238397, 14.586582077068041 ], [ 104.166737180906665, 14.587097265377686 ], [ 104.167029262617376, 14.587295549267971 ], [ 104.166949569821369, 14.587824985185875 ], [ 104.166949241673834, 14.587912256690794 ], [ 104.166920783451118, 14.588137579398802 ], [ 104.166884084891265, 14.588337685470586 ], [ 104.166882265244169, 14.588498779569131 ], [ 104.166926965280624, 14.588662860927618 ], [ 104.166848275381795, 14.588847922387092 ], [ 104.166787054508291, 14.589057240370863 ], [ 104.166833271887583, 14.589093294673662 ], [ 104.166877319860717, 14.589258634649575 ], [ 104.16677472474629, 14.589590021439752 ], [ 104.166699908518339, 14.58957126603654 ], [ 104.16639866069572, 14.589971610626874 ], [ 104.166527417186686, 14.590296745815523 ], [ 104.166605430749414, 14.59027877212065 ], [ 104.166651008922273, 14.590441769089594 ], [ 104.167710876946501, 14.59052192961607 ], [ 104.167781128035799, 14.590842615810786 ], [ 104.167724520976236, 14.591198140452818 ], [ 104.167992040128425, 14.591245637997655 ], [ 104.167950867266811, 14.591848440320598 ], [ 104.168369436516173, 14.591849726300623 ], [ 104.168493628212588, 14.592128646677661 ], [ 104.168329259874085, 14.593114114856174 ], [ 104.169554698927641, 14.593258802595344 ], [ 104.171506822521124, 14.59348813463953 ], [ 104.173404733528514, 14.593612726794078 ], [ 104.173468827469407, 14.593595079849772 ], [ 104.173727215626968, 14.592546924214501 ], [ 104.173829831820612, 14.592519972163538 ], [ 104.174220606879686, 14.59256205111539 ], [ 104.174258069751289, 14.592164104943702 ], [ 104.174301514926341, 14.59171131325796 ], [ 104.174113070439191, 14.590761632187375 ], [ 104.174114820931166, 14.590604682900288 ], [ 104.174072471863994, 14.590325093131042 ], [ 104.173958932176788, 14.59005251775482 ], [ 104.173865153236846, 14.589528533542818 ], [ 104.173834358984024, 14.589396908601628 ], [ 104.173820468656075, 14.589384912066182 ], [ 104.173832411091084, 14.588552166572233 ], [ 104.174079907569038, 14.587806940743027 ], [ 104.174175786162479, 14.587748711888088 ], [ 104.174531100580595, 14.587680001301443 ], [ 104.174518625763724, 14.587519931879147 ], [ 104.174779854522114, 14.587498969077547 ], [ 104.174786304614912, 14.587244190411946 ] ] ] ] } },
{ "type": "Feature", "properties": { "ZONE_ID": "03", "BLOCK_ID": "03C" }, "geometry": { "type": "MultiPolygon", "coordinates": [ [ [ [ 104.192109740997495, 14.603574880794136 ], [ 104.191842670366825, 14.602206368449544 ], [ 104.191459303841256, 14.599456656750142 ], [ 104.190945986527822, 14.59794887026108 ], [ 104.190701838456675, 14.597893220255409 ], [ 104.190799462061975, 14.597137859372673 ], [ 104.190257518069231, 14.597127919408356 ], [ 104.188901989120268, 14.597155014924596 ], [ 104.188852002293871, 14.597558876066879 ], [ 104.18772739783067, 14.59747682388965 ], [ 104.186426252144784, 14.597389657510618 ], [ 104.186405596465676, 14.597518776809576 ], [ 104.186411816043773, 14.597922788673729 ], [ 104.186186001642227, 14.597961185381504 ], [ 104.186239694322353, 14.59815339830338 ], [ 104.185939020669579, 14.598275796266483 ], [ 104.185719068292187, 14.597820427979164 ], [ 104.185326085101607, 14.59786482913802 ], [ 104.185356425019066, 14.597983042936619 ], [ 104.185413775728534, 14.598185476027902 ], [ 104.184663578916755, 14.598083264122957 ], [ 104.184633454391985, 14.597893524812623 ], [ 104.183917890922203, 14.597776767439543 ], [ 104.183741792836074, 14.598444293246363 ], [ 104.183677378674389, 14.598486386429748 ], [ 104.182285946798558, 14.598032941634457 ], [ 104.180913318056213, 14.598294739107976 ], [ 104.181704025991934, 14.597403045609765 ], [ 104.18214805503284, 14.596807199070053 ], [ 104.182365423853867, 14.596215507087003 ], [ 104.182592265436753, 14.594758526780902 ], [ 104.18253879404422, 14.594757330834986 ], [ 104.182169607222988, 14.59467489646214 ], [ 104.18218984449949, 14.594546225205816 ], [ 104.182224727394924, 14.594317265807707 ], [ 104.182223784833397, 14.594261323983631 ], [ 104.18037453006113, 14.59394821092512 ], [ 104.184721637334263, 14.592014626505614 ], [ 104.187461655299074, 14.590930644666987 ], [ 104.187399064614183, 14.590828363672545 ], [ 104.187281851548263, 14.590411008451696 ], [ 104.186892708043615, 14.589479140877726 ], [ 104.186824177882286, 14.588981917213205 ], [ 104.186676725257954, 14.587304774540046 ], [ 104.186482689900998, 14.587317370342943 ], [ 104.186461222460068, 14.587204567230833 ], [ 104.186263784691278, 14.587240210510906 ], [ 104.185710693478498, 14.587155864851963 ], [ 104.185694096299954, 14.587105180123668 ], [ 104.185384652279296, 14.587143174759261 ], [ 104.185390954315125, 14.587229524062581 ], [ 104.185244245051948, 14.587223921374791 ], [ 104.185237850342659, 14.58735643996461 ], [ 104.184998898048519, 14.587475853127815 ], [ 104.184923819232154, 14.58750616905173 ], [ 104.18487342546517, 14.587421163270443 ], [ 104.184678564044745, 14.587407511304978 ], [ 104.18453369037627, 14.58748360791682 ], [ 104.184072344911243, 14.5877302924138 ], [ 104.183841803301007, 14.587125952549542 ], [ 104.182773942311144, 14.587332182052542 ], [ 104.182736217472879, 14.587331766365265 ], [ 104.182297585513922, 14.587326338264301 ], [ 104.18216661734121, 14.587318156524987 ], [ 104.181982673237471, 14.587319734897129 ], [ 104.181674827887349, 14.587314700515885 ], [ 104.181656348254009, 14.587309450156415 ], [ 104.1815404022812, 14.587694534389215 ], [ 104.181321686643528, 14.587819514753601 ], [ 104.180248299598688, 14.588093185231086 ], [ 104.17944957143277, 14.588175746659221 ], [ 104.178962902299304, 14.587580669125575 ], [ 104.178776390151327, 14.587182026968405 ], [ 104.17876867604528, 14.586861891568009 ], [ 104.177769699313927, 14.586871534200554 ], [ 104.177879612517827, 14.586351649941122 ], [ 104.176953313731431, 14.586166734123365 ], [ 104.17696629813625, 14.58610018641766 ], [ 104.176063422989316, 14.586370202837545 ], [ 104.175705435671631, 14.586576459021224 ], [ 104.17551571827272, 14.586942376496665 ], [ 104.175508456454523, 14.587180227299777 ], [ 104.175028995839696, 14.587321541022147 ], [ 104.174786304614912, 14.587244190411946 ], [ 104.174779854522114, 14.587498969077547 ], [ 104.174518625763724, 14.587519931879147 ], [ 104.174531100580595, 14.587680001301443 ], [ 104.174175786162479, 14.587748711888088 ], [ 104.174079907569038, 14.587806940743027 ], [ 104.173832411091084, 14.588552166572233 ], [ 104.173820468656075, 14.589384912066182 ], [ 104.173834358984024, 14.589396908601628 ], [ 104.173865153236846, 14.589528533542818 ], [ 104.173958932176788, 14.59005251775482 ], [ 104.174072471863994, 14.590325093131042 ], [ 104.174114820931166, 14.590604682900288 ], [ 104.174113070439191, 14.590761632187375 ], [ 104.174301514926341, 14.59171131325796 ], [ 104.174258069751289, 14.592164104943702 ], [ 104.174220606879686, 14.59256205111539 ], [ 104.173829831820612, 14.592519972163538 ], [ 104.173727215626968, 14.592546924214501 ], [ 104.173468827469407, 14.593595079849772 ], [ 104.173404733528514, 14.593612726794078 ], [ 104.17328584971861, 14.594342326680339 ], [ 104.17365820011743, 14.594365143687112 ], [ 104.173662653247561, 14.594477319991501 ], [ 104.173869288212103, 14.594711718964565 ], [ 104.173919800465754, 14.594972455011128 ], [ 104.173990152000272, 14.595563974067751 ], [ 104.173916589484122, 14.596028385657533 ], [ 104.173938524840679, 14.596153028291793 ], [ 104.173971274637665, 14.596498215913197 ], [ 104.173792310305217, 14.597032740954711 ], [ 104.173815163443507, 14.597041553830696 ], [ 104.174691184427431, 14.597395634670237 ], [ 104.174588350364999, 14.59826620177928 ], [ 104.174632735577305, 14.598280771324221 ], [ 104.17474551061386, 14.598324215508317 ], [ 104.175118994695154, 14.598377542684368 ], [ 104.175148054251878, 14.598723253041515 ], [ 104.175667100689367, 14.598689638328876 ], [ 104.175735545966162, 14.59982779310679 ], [ 104.17636229391789, 14.599743403399005 ], [ 104.177233977850761, 14.599651809691776 ], [ 104.177250323018484, 14.600348800638713 ], [ 104.178434215615596, 14.600022558377471 ], [ 104.178488663892523, 14.600786345976724 ], [ 104.178664566900068, 14.600909039764838 ], [ 104.178699096681882, 14.600920541250748 ], [ 104.178264237644228, 14.601718446526796 ], [ 104.178018185617375, 14.602288706960151 ], [ 104.18015866994368, 14.602772335273533 ], [ 104.180159051735245, 14.602669270518104 ], [ 104.181856800396801, 14.602736699119502 ], [ 104.181829715828627, 14.603119173549892 ], [ 104.183454374086054, 14.60304309243053 ], [ 104.183492271106857, 14.603352401066372 ], [ 104.184314737448346, 14.603264358127772 ], [ 104.184936339686203, 14.603214959274432 ], [ 104.184969272255103, 14.60345320582751 ], [ 104.185380929366247, 14.603465555540845 ], [ 104.185780236764046, 14.603481507253903 ], [ 104.18588109275629, 14.603694025237534 ], [ 104.187391088946924, 14.603851952030649 ], [ 104.187237911745683, 14.603386523701889 ], [ 104.190228574224022, 14.60390638819382 ], [ 104.190220761718948, 14.604042070053252 ], [ 104.192097914265759, 14.603595645417089 ], [ 104.192109740997495, 14.603574880794136 ] ] ] ] } },
{ "type": "Feature", "properties": { "ZONE_ID": "03", "BLOCK_ID": "03D" }, "geometry": { "type": "MultiPolygon", "coordinates": [ [ [ [ 104.187204088483071, 14.594806574917333 ], [ 104.18708792708442, 14.594295204933882 ], [ 104.187102447846996, 14.594184245217459 ], [ 104.188504685864018, 14.594059119274082 ], [ 104.188375597999979, 14.593196626680582 ], [ 104.188362595948533, 14.593153945840639 ], [ 104.188310315981255, 14.592708509235781 ], [ 104.188194079592748, 14.592080234157272 ], [ 104.18786030278649, 14.591279556712379 ], [ 104.187676451818518, 14.59084566875476 ], [ 104.184721637334263, 14.592014626505614 ], [ 104.18037453006113, 14.59394821092512 ], [ 104.182223784833397, 14.594261323983631 ], [ 104.182224727394924, 14.594317265807707 ], [ 104.18218984449949, 14.594546225205816 ], [ 104.182169607222988, 14.59467489646214 ], [ 104.18253879404422, 14.594757330834986 ], [ 104.182592265436753, 14.594758526780902 ], [ 104.182365423853867, 14.596215507087003 ], [ 104.18214805503284, 14.596807199070053 ], [ 104.181704025991934, 14.597403045609765 ], [ 104.180913318056213, 14.598294739107976 ], [ 104.182285946798558, 14.598032941634457 ], [ 104.183677378674389, 14.598486386429748 ], [ 104.183741792836074, 14.598444293246363 ], [ 104.183917890922203, 14.597776767439543 ], [ 104.184633454391985, 14.597893524812623 ], [ 104.184663578916755, 14.598083264122957 ], [ 104.185413775728534, 14.598185476027902 ], [ 104.185351647164552, 14.597966320445821 ], [ 104.185326085101607, 14.59786482913802 ], [ 104.185719068292187, 14.597820427979164 ], [ 104.185939020669579, 14.598275796266483 ], [ 104.186239694322353, 14.59815339830338 ], [ 104.186186001642227, 14.597961185381504 ], [ 104.186411816043773, 14.597922788673729 ], [ 104.186405596465676, 14.597518776809576 ], [ 104.186465778341798, 14.596764901100849 ], [ 104.187204088483071, 14.594806574917333 ] ] ] ] } },
{ "type": "Feature", "properties": { "ZONE_ID": "03", "BLOCK_ID": "03E" }, "geometry": { "type": "MultiPolygon", "coordinates": [ [ [ [ 104.196404110221835, 14.585104530229806 ], [ 104.196327644117233, 14.585013699735553 ], [ 104.195398676078199, 14.585974700717555 ], [ 104.193268521393023, 14.588212247542719 ], [ 104.192027827643528, 14.588914734854006 ], [ 104.189215768079535, 14.590127428975734 ], [ 104.187676451818518, 14.59084566875476 ], [ 104.18786030278649, 14.591279556712379 ], [ 104.188194079592748, 14.592080234157272 ], [ 104.188310315981255, 14.592708509235781 ], [ 104.188362595948533, 14.593153945840639 ], [ 104.188375597999979, 14.593196626680582 ], [ 104.188504685864018, 14.594059119274082 ], [ 104.187102447846996, 14.594184245217459 ], [ 104.18708792708442, 14.594295204933882 ], [ 104.187204088483071, 14.594806574917333 ], [ 104.186465778341798, 14.596764901100849 ], [ 104.186426252144784, 14.597389657510618 ], [ 104.188852002293871, 14.597558876066879 ], [ 104.188901989120268, 14.597155014924596 ], [ 104.190257518069231, 14.597127919408356 ], [ 104.190799462061975, 14.597137859372673 ], [ 104.190701838456675, 14.597893220255409 ], [ 104.190945986527822, 14.59794887026108 ], [ 104.191459303841256, 14.599456656750142 ], [ 104.191842670366825, 14.602206368449544 ], [ 104.192109740997495, 14.603574880794136 ], [ 104.192119840886164, 14.603557167980163 ], [ 104.193331823452723, 14.603672008253664 ], [ 104.193362131435322, 14.603270139921992 ], [ 104.19357880225563, 14.603268146167565 ], [ 104.193966516978534, 14.602219513313054 ], [ 104.193933698331492, 14.601644535586841 ], [ 104.194189179191952, 14.601585223452796 ], [ 104.194136374830322, 14.601022439384625 ], [ 104.194493928653316, 14.600983465236052 ], [ 104.195034693111637, 14.600932002303125 ], [ 104.194930777218502, 14.599920593434938 ], [ 104.19488509373366, 14.599421687452635 ], [ 104.194910541575283, 14.598866846841519 ], [ 104.194895483736218, 14.598356490612604 ], [ 104.19537470026232, 14.598366260156279 ], [ 104.195515958348381, 14.598364225099564 ], [ 104.195797272009585, 14.597546068760273 ], [ 104.195695389540191, 14.597250703939126 ], [ 104.195881944075154, 14.597201239758725 ], [ 104.19560049326509, 14.595197211629692 ], [ 104.196353651161999, 14.595145505628674 ], [ 104.196417966690035, 14.594749837398046 ], [ 104.196482894292529, 14.594350451442466 ], [ 104.196495806759287, 14.594271072068336 ], [ 104.196592729083122, 14.592935591277367 ], [ 104.196690913384032, 14.592269172443592 ], [ 104.19677094350574, 14.591726043098145 ], [ 104.196155441971584, 14.590250447181877 ], [ 104.195927027654037, 14.58954510746134 ], [ 104.196672400477254, 14.589198011823109 ], [ 104.196225591088563, 14.588259907055184 ], [ 104.196510739011941, 14.588160327586102 ], [ 104.196717106163845, 14.588076743068779 ], [ 104.196843283471381, 14.588027322262661 ], [ 104.196848826007965, 14.588025292281195 ], [ 104.196900724611908, 14.586513233464538 ], [ 104.196911952569877, 14.586331301722018 ], [ 104.19688774854518, 14.586288866478185 ], [ 104.196404110221835, 14.585104530229806 ] ] ] ] } },
{ "type": "Feature", "properties": { "ZONE_ID": "03", "BLOCK_ID": "03F" }, "geometry": { "type": "MultiPolygon", "coordinates": [ [ [ [ 104.169696030111268, 14.579614148569686 ], [ 104.169546079502084, 14.579049707821888 ], [ 104.170226756901869, 14.578869320564012 ], [ 104.170508770589493, 14.578828237704236 ], [ 104.170486881862985, 14.578566530729466 ], [ 104.1704103313416, 14.578307151629614 ], [ 104.170536220016317, 14.577789683015403 ], [ 104.170601905640225, 14.577661174105485 ], [ 104.17074057601944, 14.577365092962179 ], [ 104.170790398634892, 14.576912718243577 ], [ 104.170826426148707, 14.576535588456645 ], [ 104.170713821093216, 14.576193253520319 ], [ 104.170631254595278, 14.575777039431317 ], [ 104.170608658698754, 14.575306313265967 ], [ 104.170573465460905, 14.574988762418794 ], [ 104.169753954764246, 14.57487673492639 ], [ 104.168533571070185, 14.575037880438707 ], [ 104.168361592417966, 14.574682597879345 ], [ 104.167818203071832, 14.574606836298665 ], [ 104.167595082664917, 14.574575716401055 ], [ 104.166676134388382, 14.574474672657882 ], [ 104.165437401671412, 14.57433845446125 ], [ 104.164620354216638, 14.574248594763901 ], [ 104.164537777966686, 14.574237692049923 ], [ 104.164488701373401, 14.574231196217177 ], [ 104.163093108229575, 14.574046788929165 ], [ 104.16307888718319, 14.57407566079873 ], [ 104.16276241847244, 14.574285340868286 ], [ 104.162430425181341, 14.574097548656061 ], [ 104.161935897090629, 14.574124872675119 ], [ 104.161073397829, 14.574247589498279 ], [ 104.160960075567559, 14.573679918431596 ], [ 104.160461213236417, 14.573578450548977 ], [ 104.15812754742484, 14.573416240795968 ], [ 104.158152325775049, 14.57317285881852 ], [ 104.156723847182619, 14.57295820657011 ], [ 104.155570680895721, 14.573016650245613 ], [ 104.155326459798985, 14.573049624250579 ], [ 104.154849471646727, 14.573031603012087 ], [ 104.154187884446998, 14.572867779367092 ], [ 104.153789888660924, 14.572739549454051 ], [ 104.153333045084395, 14.573184726771338 ], [ 104.152905862963067, 14.573715073660882 ], [ 104.152517092089553, 14.573953260367849 ], [ 104.152016295064342, 14.574445324911906 ], [ 104.151273793084641, 14.574931226942734 ], [ 104.151322929245069, 14.575449886413844 ], [ 104.151677801514793, 14.576106400112796 ], [ 104.152169163118998, 14.57640121707532 ], [ 104.152925023791653, 14.578269337128535 ], [ 104.153492483718594, 14.579017120440465 ], [ 104.153688612451845, 14.57974699277282 ], [ 104.152717822381021, 14.581250518167016 ], [ 104.15307562534997, 14.581866831680825 ], [ 104.15315805891359, 14.582542356145689 ], [ 104.153211802505695, 14.583021970609654 ], [ 104.152454139023789, 14.583518487121776 ], [ 104.152220243551398, 14.583902865004136 ], [ 104.152130136752064, 14.584158802189124 ], [ 104.152535316149709, 14.584374897867862 ], [ 104.153030535413478, 14.584464937734003 ], [ 104.153318662985129, 14.585041192877306 ], [ 104.153921930088288, 14.584915137064709 ], [ 104.154871850676074, 14.584942149024553 ], [ 104.155853285217006, 14.584627009493058 ], [ 104.156132408802051, 14.58366358292535 ], [ 104.155898305150075, 14.583321431434015 ], [ 104.15601535697607, 14.583105335755278 ], [ 104.156690655972128, 14.583069319808821 ], [ 104.15798914651144, 14.581857996706754 ], [ 104.157410631589684, 14.581031180530957 ], [ 104.157744103864403, 14.580809874658879 ], [ 104.158468807389525, 14.58097257698517 ], [ 104.15935958051368, 14.580195515261373 ], [ 104.160423600874381, 14.579716511479209 ], [ 104.160690219305323, 14.5796600649262 ], [ 104.160865316111412, 14.579676581460893 ], [ 104.162789231512548, 14.57985804216395 ], [ 104.163064455290424, 14.57912970144891 ], [ 104.16332822285024, 14.579197948370062 ], [ 104.164291737874422, 14.578870998150604 ], [ 104.164306813262414, 14.578817320320514 ], [ 104.164576450418082, 14.578874080758956 ], [ 104.164873115201374, 14.57952792874454 ], [ 104.165077708391692, 14.580074945496015 ], [ 104.165833162569015, 14.579928852326647 ], [ 104.166024987931095, 14.580157892888273 ], [ 104.166919259795719, 14.57998399918495 ], [ 104.166997822764017, 14.579952345933533 ], [ 104.167333177098186, 14.579968262419301 ], [ 104.167430532051128, 14.58001784891928 ], [ 104.168054241141959, 14.580063020694633 ], [ 104.168605148919028, 14.580023433151776 ], [ 104.168714461863942, 14.579770405004627 ], [ 104.169347184003442, 14.579665868476162 ], [ 104.169696030111268, 14.579614148569686 ] ] ] ] } },
{ "type": "Feature", "properties": { "ZONE_ID": "03", "BLOCK_ID": "03G" }, "geometry": { "type": "MultiPolygon", "coordinates": [ [ [ [ 104.186461222460068, 14.587204567230833 ], [ 104.18642448014306, 14.587094981373184 ], [ 104.18672079551672, 14.586242267693835 ], [ 104.186982427173533, 14.585507811643444 ], [ 104.187234811752319, 14.584717053376806 ], [ 104.187405649272847, 14.584534025500679 ], [ 104.187555082317218, 14.584161801371962 ], [ 104.187734401970474, 14.583667313843304 ], [ 104.187819147041367, 14.583340447679296 ], [ 104.187849532278562, 14.583281068241337 ], [ 104.18793827383837, 14.583024128244578 ], [ 104.185509913314505, 14.582834510405142 ], [ 104.185513716090398, 14.582711345216426 ], [ 104.185535644366439, 14.582394641043798 ], [ 104.185552002122634, 14.582202088887554 ], [ 104.185588484569351, 14.58205148596052 ], [ 104.185692008058467, 14.581590892917218 ], [ 104.185822855231095, 14.581476949680422 ], [ 104.186401273313479, 14.581377095621775 ], [ 104.186866887199969, 14.580531598013279 ], [ 104.187299529802786, 14.579911409963225 ], [ 104.185779243663106, 14.579942323394308 ], [ 104.185714178214326, 14.579432691037667 ], [ 104.183641933046658, 14.579258481744459 ], [ 104.183878684981281, 14.578714549345348 ], [ 104.183918119076893, 14.578360141168165 ], [ 104.183995041005076, 14.578012909365167 ], [ 104.184530789298506, 14.576381840711989 ], [ 104.184418926723978, 14.576496212144624 ], [ 104.183621224337699, 14.576430490835602 ], [ 104.183676714344102, 14.575486521288148 ], [ 104.183047612734896, 14.575308106819866 ], [ 104.183081994169839, 14.574695518552288 ], [ 104.18318587888777, 14.574207391816847 ], [ 104.182317849322601, 14.573650535325452 ], [ 104.182305462685903, 14.573445903865489 ], [ 104.182293425225879, 14.572944652332799 ], [ 104.181975487297478, 14.572166735755271 ], [ 104.181539408030417, 14.572120753460668 ], [ 104.179739633022805, 14.572474948566519 ], [ 104.17919378700897, 14.571711086729895 ], [ 104.177960415059829, 14.571921294497386 ], [ 104.177828399709227, 14.571202502167159 ], [ 104.17588688252718, 14.571315672097494 ], [ 104.176155000119138, 14.570340209099673 ], [ 104.175362773264553, 14.570262064273878 ], [ 104.175343910720386, 14.569108754431145 ], [ 104.173942294324789, 14.569445443937951 ], [ 104.173015733841581, 14.567487249295942 ], [ 104.172572381895009, 14.567699544000428 ], [ 104.172768003334909, 14.568088069915802 ], [ 104.172451531476071, 14.568047591804262 ], [ 104.172121110318713, 14.568042347023987 ], [ 104.171873202595506, 14.568117797200614 ], [ 104.171619905573976, 14.568408819310463 ], [ 104.170821966184832, 14.568971420151813 ], [ 104.170854041178458, 14.569587328273755 ], [ 104.170729153437378, 14.570277623083005 ], [ 104.1704541274284, 14.570443116401087 ], [ 104.170424099774806, 14.570746122723682 ], [ 104.169981191884304, 14.571500567520149 ], [ 104.169950845395419, 14.571858490460185 ], [ 104.170035899555785, 14.572301256420895 ], [ 104.170079985624611, 14.572452032251423 ], [ 104.169874802454785, 14.572990545097298 ], [ 104.169907573484181, 14.573038277706942 ], [ 104.169960652539515, 14.573173118821982 ], [ 104.170146335127896, 14.573603301536677 ], [ 104.170447823208704, 14.574290118150282 ], [ 104.170559927994347, 14.574804821988325 ], [ 104.170608658698754, 14.575306313265967 ], [ 104.170631254595278, 14.575777039431317 ], [ 104.170713821093216, 14.576193253520319 ], [ 104.170826426148707, 14.576535588456645 ], [ 104.170790398634892, 14.576912718243577 ], [ 104.17074057601944, 14.577365092962179 ], [ 104.170601905640225, 14.577661174105485 ], [ 104.170536220016317, 14.577789683015403 ], [ 104.1704103313416, 14.578307151629614 ], [ 104.170486881862985, 14.578566530729466 ], [ 104.170508770589493, 14.578828237704236 ], [ 104.170226756901869, 14.578869320564012 ], [ 104.169546079502084, 14.579049707821888 ], [ 104.169696030111268, 14.579614148569686 ], [ 104.169900243067744, 14.580507981795533 ], [ 104.169617663002938, 14.580755824357757 ], [ 104.169501954424035, 14.580999972418129 ], [ 104.169413560385721, 14.581543201986266 ], [ 104.169467995193415, 14.581532567134534 ], [ 104.169467276642067, 14.581940289340057 ], [ 104.169516349674495, 14.58236721291545 ], [ 104.169504854491336, 14.582545468885678 ], [ 104.169401984058524, 14.582805502984778 ], [ 104.169337590571374, 14.582899529297096 ], [ 104.169257772293335, 14.583166564657571 ], [ 104.169263860717535, 14.583575902923592 ], [ 104.169238735402956, 14.583720317220637 ], [ 104.168851767966018, 14.583750637919959 ], [ 104.16884848584705, 14.583969840492735 ], [ 104.169202767416976, 14.583899037788532 ], [ 104.169176334800824, 14.584249674008687 ], [ 104.169089408640986, 14.584586350853094 ], [ 104.169208038616858, 14.585156591039601 ], [ 104.169327660515151, 14.585617794999125 ], [ 104.169886853498653, 14.585500135162345 ], [ 104.169926047147456, 14.585566300341688 ], [ 104.169932044016434, 14.585775700589714 ], [ 104.169938464519348, 14.585828808937835 ], [ 104.169942068303897, 14.585955530360025 ], [ 104.169893161365721, 14.586123329439395 ], [ 104.170335021031974, 14.586190688522162 ], [ 104.170396188166137, 14.586236662067199 ], [ 104.170814899325805, 14.586223206418124 ], [ 104.171142286410458, 14.586191079362775 ], [ 104.171411608682106, 14.586114266273791 ], [ 104.17147648332373, 14.586099365078837 ], [ 104.171915422980177, 14.586155709139263 ], [ 104.172265081895148, 14.586084018645735 ], [ 104.172781272580679, 14.585996730011827 ], [ 104.172953793521359, 14.586574977375919 ], [ 104.172953766156354, 14.586859807831724 ], [ 104.174183686239431, 14.586823288559854 ], [ 104.174208562734421, 14.586879519857877 ], [ 104.174786304614912, 14.587244190411946 ], [ 104.175028995839696, 14.587321541022147 ], [ 104.175508456454523, 14.587180227299777 ], [ 104.17551571827272, 14.586942376496665 ], [ 104.175705435671631, 14.586576459021224 ], [ 104.176063422989316, 14.586370202837545 ], [ 104.17696629813625, 14.58610018641766 ], [ 104.176953313731431, 14.586166734123365 ], [ 104.177879612517827, 14.586351649941122 ], [ 104.177769699313927, 14.586871534200554 ], [ 104.17876867604528, 14.586861891568009 ], [ 104.178776390151327, 14.587182026968405 ], [ 104.178962902299304, 14.587580669125575 ], [ 104.17944957143277, 14.588175746659221 ], [ 104.180248299598688, 14.588093185231086 ], [ 104.181321686643528, 14.587819514753601 ], [ 104.1815404022812, 14.587694534389215 ], [ 104.181656348254009, 14.587309450156415 ], [ 104.181674827887349, 14.587314700515885 ], [ 104.181982673237471, 14.587319734897129 ], [ 104.18216661734121, 14.587318156524987 ], [ 104.182297585513922, 14.587326338264301 ], [ 104.182736217472879, 14.587331766365265 ], [ 104.182773942311144, 14.587332182052542 ], [ 104.183841803301007, 14.587125952549542 ], [ 104.184072344911243, 14.5877302924138 ], [ 104.18453369037627, 14.58748360791682 ], [ 104.184678564044745, 14.587407511304978 ], [ 104.18487342546517, 14.587421163270443 ], [ 104.184923819232154, 14.58750616905173 ], [ 104.184998898048519, 14.587475853127815 ], [ 104.185237850342659, 14.58735643996461 ], [ 104.185244245051948, 14.587223921374791 ], [ 104.185390954315125, 14.587229524062581 ], [ 104.185384652279296, 14.587143174759261 ], [ 104.185694096299954, 14.587105180123668 ], [ 104.185710693478498, 14.587155864851963 ], [ 104.186263784691278, 14.587240210510906 ], [ 104.186461222460068, 14.587204567230833 ] ] ] ] } },
{ "type": "Feature", "properties": { "ZONE_ID": "03", "BLOCK_ID": "03H" }, "geometry": { "type": "MultiPolygon", "coordinates": [ [ [ [ 104.196327644117233, 14.585013699735553 ], [ 104.199458634898136, 14.582119430520862 ], [ 104.20164384941009, 14.579393863732209 ], [ 104.201785269926503, 14.579235514520919 ], [ 104.201910348394748, 14.579107498273103 ], [ 104.202079075395659, 14.578929965347763 ], [ 104.202710959130414, 14.578257056895954 ], [ 104.203340627160131, 14.577618688971191 ], [ 104.203174881038251, 14.57733661712977 ], [ 104.202810518041744, 14.576664433364918 ], [ 104.202196066556724, 14.576198441847229 ], [ 104.200978447931362, 14.576561304980826 ], [ 104.200243915210734, 14.576695652373274 ], [ 104.199593064838652, 14.576867328152646 ], [ 104.198813961847989, 14.577148492437773 ], [ 104.198477863791965, 14.57590622956835 ], [ 104.196760782231124, 14.576387297792786 ], [ 104.196323242716744, 14.575031038687506 ], [ 104.195284571985894, 14.575304005326986 ], [ 104.19544612297382, 14.574004407852646 ], [ 104.19505441972467, 14.573989867043446 ], [ 104.194294458941513, 14.574117945619934 ], [ 104.194232099822813, 14.573865086013589 ], [ 104.192142167920238, 14.574221118653558 ], [ 104.192175334182011, 14.574588197574151 ], [ 104.18899662624743, 14.574372463826517 ], [ 104.189010200405875, 14.573700841495109 ], [ 104.188343484704504, 14.573781103533914 ], [ 104.187074095351534, 14.574209604294166 ], [ 104.187197536879083, 14.573535842435961 ], [ 104.185663782432115, 14.573463628665376 ], [ 104.186083026267553, 14.572270225566138 ], [ 104.184915124479645, 14.572241805553556 ], [ 104.185028587672178, 14.571262528744597 ], [ 104.184610080212821, 14.571187818999476 ], [ 104.183753760809964, 14.571034948045028 ], [ 104.183705006377622, 14.571490684839389 ], [ 104.183110368891761, 14.571442775890878 ], [ 104.182420432882765, 14.571472621765595 ], [ 104.181975487297478, 14.572166735755271 ], [ 104.182293425225879, 14.572944652332799 ], [ 104.182305462685903, 14.573445903865489 ], [ 104.182317849322601, 14.573650535325452 ], [ 104.18318587888777, 14.574207391816847 ], [ 104.183081994169839, 14.574695518552288 ], [ 104.183047612734896, 14.575308106819866 ], [ 104.183676714344102, 14.575486521288148 ], [ 104.183621224337699, 14.576430490835602 ], [ 104.184418926723978, 14.576496212144624 ], [ 104.184530789298506, 14.576381840711989 ], [ 104.183995041005076, 14.578012909365167 ], [ 104.183918119076893, 14.578360141168165 ], [ 104.183878684981281, 14.578714549345348 ], [ 104.183641933046658, 14.579258481744459 ], [ 104.185714178214326, 14.579432691037667 ], [ 104.185779243663106, 14.579942323394308 ], [ 104.187299529802786, 14.579911409963225 ], [ 104.186866887199969, 14.580531598013279 ], [ 104.186401273313479, 14.581377095621775 ], [ 104.185822855231095, 14.581476949680422 ], [ 104.185692008058467, 14.581590892917218 ], [ 104.185588484569351, 14.58205148596052 ], [ 104.185552002122634, 14.582202088887554 ], [ 104.185535644366439, 14.582394641043798 ], [ 104.185513716090398, 14.582711345216426 ], [ 104.185509913314505, 14.582834510405142 ], [ 104.18793827383837, 14.583024128244578 ], [ 104.187849532278562, 14.583281068241337 ], [ 104.187819147041367, 14.583340447679296 ], [ 104.187734401970474, 14.583667313843304 ], [ 104.187555082317218, 14.584161801371962 ], [ 104.187405649272847, 14.584534025500679 ], [ 104.187234811752319, 14.584717053376806 ], [ 104.186982427173533, 14.585507811643444 ], [ 104.18672079551672, 14.586242267693835 ], [ 104.18642448014306, 14.587094981373184 ], [ 104.186461222460068, 14.587204567230833 ], [ 104.186482689900998, 14.587317370342943 ], [ 104.186676725257954, 14.587304774540046 ], [ 104.186824177882286, 14.588981917213205 ], [ 104.186892708043615, 14.589479140877726 ], [ 104.187281851548263, 14.590411008451696 ], [ 104.187399064614183, 14.590828363672545 ], [ 104.187461655299074, 14.590930644666987 ], [ 104.187676451818518, 14.59084566875476 ], [ 104.189215768079535, 14.590127428975734 ], [ 104.192027827643528, 14.588914734854006 ], [ 104.193268521393023, 14.588212247542719 ], [ 104.195398676078199, 14.585974700717555 ], [ 104.196327644117233, 14.585013699735553 ] ] ] ] } },
{ "type": "Feature", "properties": { "ZONE_ID": "01", "BLOCK_ID": "01B" }, "geometry": { "type": "MultiPolygon", "coordinates": [ [ [ [ 104.170082397813545, 14.621563332206177 ], [ 104.170134443403256, 14.62109688105336 ], [ 104.170287705938136, 14.620108337703414 ], [ 104.169552119844084, 14.619904843897043 ], [ 104.169471792146282, 14.619570123015688 ], [ 104.168906082223117, 14.619561571531905 ], [ 104.168430636883684, 14.619627713994593 ], [ 104.168115894515651, 14.619682667492789 ], [ 104.167978714165088, 14.619761761476191 ], [ 104.167481560333584, 14.619755348063416 ], [ 104.166973242334265, 14.619747390025891 ], [ 104.166826846322508, 14.619747212855616 ], [ 104.166702320512925, 14.61974529707393 ], [ 104.166045986144837, 14.619815314821606 ], [ 104.163710741475285, 14.620362301126132 ], [ 104.163547690225144, 14.620062827595513 ], [ 104.163128712191622, 14.620164090045574 ], [ 104.161842941074525, 14.620315763588136 ], [ 104.159303658500306, 14.620179912361619 ], [ 104.159252651066879, 14.620154998377929 ], [ 104.158763761958113, 14.620098336913165 ], [ 104.158073337356456, 14.620050786497126 ], [ 104.157380189800421, 14.620066939498129 ], [ 104.156504197758537, 14.620063708641229 ], [ 104.153761768742996, 14.620382857236141 ], [ 104.153776989448005, 14.62043229369138 ], [ 104.152782514473614, 14.620617490300141 ], [ 104.152788051743059, 14.62166020538179 ], [ 104.152820014568164, 14.62272605992251 ], [ 104.152761363910471, 14.62512539692014 ], [ 104.153584513102516, 14.625169431172376 ], [ 104.15356714863394, 14.625637299332105 ], [ 104.152846356786569, 14.625667527533146 ], [ 104.152883342560614, 14.62651674071976 ], [ 104.152984724717072, 14.626807942733409 ], [ 104.152925942769116, 14.626868474367582 ], [ 104.152651310498285, 14.62948414150001 ], [ 104.152529315974078, 14.629489592644521 ], [ 104.152527895590865, 14.630188898982119 ], [ 104.15256357241492, 14.630467568071943 ], [ 104.152527929930244, 14.630854985080214 ], [ 104.152539909844563, 14.631217545855824 ], [ 104.152548985965893, 14.631594376083186 ], [ 104.152558271705843, 14.631865950989537 ], [ 104.152576091560235, 14.631938424677827 ], [ 104.154394381070745, 14.631817920483631 ], [ 104.154441008525964, 14.632137433684193 ], [ 104.156151868357753, 14.632031888183743 ], [ 104.15674608685103, 14.634049622662854 ], [ 104.157043090181517, 14.634934556229783 ], [ 104.157277434433951, 14.635348088015631 ], [ 104.157923240699446, 14.636072679590765 ], [ 104.157942225558315, 14.636253258960526 ], [ 104.158223457248937, 14.637005155786055 ], [ 104.16018304927033, 14.636504725561711 ], [ 104.161306845384757, 14.636334656453638 ], [ 104.161352196779362, 14.636519956007936 ], [ 104.161409574568836, 14.636705645615564 ], [ 104.161434079646611, 14.636970891942203 ], [ 104.161401072248026, 14.637209467374946 ], [ 104.161387802757346, 14.637817598237227 ], [ 104.161390443876115, 14.637923494443507 ], [ 104.161437464918734, 14.638261703652587 ], [ 104.161461058126534, 14.638340864756168 ], [ 104.161505251546345, 14.6386095234156 ], [ 104.161578278383018, 14.638873415538249 ], [ 104.16251283233909, 14.638719351314627 ], [ 104.164043731622982, 14.638582020155315 ], [ 104.164775548549045, 14.638468687708951 ], [ 104.165552746836653, 14.63825093697479 ], [ 104.167069931498503, 14.63791169269915 ], [ 104.168855309318218, 14.637566428985286 ], [ 104.168973345826728, 14.637908358260285 ], [ 104.169076990344337, 14.638184975222611 ], [ 104.169215068344315, 14.638304349973543 ], [ 104.169378248245479, 14.63843134705332 ], [ 104.170190743514709, 14.638423487933773 ], [ 104.170647822462612, 14.638418764327168 ], [ 104.170656761632188, 14.638297257914399 ], [ 104.171551017709177, 14.638198809774229 ], [ 104.171520224461815, 14.637436118846336 ], [ 104.171483113744344, 14.637006686050684 ], [ 104.171791173715164, 14.637007214388159 ], [ 104.171804167520037, 14.636331116141188 ], [ 104.171810256722623, 14.635916164320733 ], [ 104.172346682770794, 14.635811148739455 ], [ 104.172369825088936, 14.635059023401176 ], [ 104.17183465898286, 14.634804457902066 ], [ 104.17128598784511, 14.634658859256582 ], [ 104.170604456512564, 14.634558972929897 ], [ 104.170302926803529, 14.634552785192719 ], [ 104.170262053242936, 14.634134192612459 ], [ 104.170980822744326, 14.633998756906124 ], [ 104.170801933037581, 14.633016713828773 ], [ 104.170359336203902, 14.633032624172468 ], [ 104.170358613006471, 14.633105667113973 ], [ 104.169475765862302, 14.633133715060932 ], [ 104.169376433718313, 14.632275048330138 ], [ 104.169413147425999, 14.632205292285528 ], [ 104.170591657442813, 14.632175921319378 ], [ 104.170639385262803, 14.631789509545953 ], [ 104.171072607013528, 14.631701396647502 ], [ 104.171084774556221, 14.631549829028474 ], [ 104.171001950858809, 14.630590032997608 ], [ 104.171033680468511, 14.629511219064701 ], [ 104.171593136811723, 14.629513201665748 ], [ 104.171478883113551, 14.628836439503944 ], [ 104.171329092932993, 14.627956018082902 ], [ 104.171319642519691, 14.627813938867494 ], [ 104.171316298771657, 14.627730059034361 ], [ 104.171317239033854, 14.627439834654895 ], [ 104.171316161406651, 14.627339615325448 ], [ 104.171707496768093, 14.627239993472621 ], [ 104.171657958944721, 14.626873664521336 ], [ 104.171620777530364, 14.626545216339812 ], [ 104.17159998141527, 14.626215945896659 ], [ 104.169644590832746, 14.626473560272357 ], [ 104.169609030273236, 14.626007533942039 ], [ 104.169571734834378, 14.625529364916119 ], [ 104.169877930219656, 14.625539329605841 ], [ 104.169893018790376, 14.625142409520768 ], [ 104.169907703231885, 14.624732390017428 ], [ 104.169888204424396, 14.624519411697985 ], [ 104.169631013893195, 14.624547024172015 ], [ 104.169457429024504, 14.623666351899097 ], [ 104.169737067518398, 14.623003913651511 ], [ 104.169824230611184, 14.622294054745167 ], [ 104.169867224898042, 14.622302262030754 ], [ 104.17007451932524, 14.621698954754548 ], [ 104.170082397813545, 14.621563332206177 ] ] ] ] } },
{ "type": "Feature", "properties": { "ZONE_ID": "01", "BLOCK_ID": "01C" }, "geometry": { "type": "MultiPolygon", "coordinates": [ [ [ [ 104.17180416028927, 14.636331121839616 ], [ 104.177781924596758, 14.636719282459817 ], [ 104.184831119656849, 14.636113083671255 ], [ 104.180650827101616, 14.630527926378798 ], [ 104.180133470148263, 14.629625761562769 ], [ 104.179085849930502, 14.626403423957838 ], [ 104.178632996184973, 14.624441700385324 ], [ 104.178704373478467, 14.622598853895127 ], [ 104.178535784690197, 14.621270897889815 ], [ 104.178311638232941, 14.621236413819467 ], [ 104.177116749612793, 14.621433489980818 ], [ 104.176847981024778, 14.621455770822502 ], [ 104.175991653191303, 14.621440016937399 ], [ 104.175094957837231, 14.621369227809124 ], [ 104.174729544764048, 14.621258028054754 ], [ 104.174132047098951, 14.620872492744441 ], [ 104.17303355957813, 14.620401405905863 ], [ 104.170287705938136, 14.620108337703414 ], [ 104.170139392505973, 14.621048966555144 ], [ 104.17007451932524, 14.621698954754548 ], [ 104.169867224898042, 14.622302262030754 ], [ 104.169824230611184, 14.622294054745167 ], [ 104.169737067518398, 14.623003913651511 ], [ 104.169472399280323, 14.623630876250328 ], [ 104.169631013893195, 14.624547024172015 ], [ 104.169888204424396, 14.624519411697985 ], [ 104.169907703231885, 14.624732390017428 ], [ 104.169877930219656, 14.625539329605841 ], [ 104.169571734834378, 14.625529364916119 ], [ 104.169644590832746, 14.626473560272357 ], [ 104.17159998141527, 14.626215945896659 ], [ 104.171707496768093, 14.627239993472621 ], [ 104.171316161406651, 14.627339615325448 ], [ 104.171328015305789, 14.627932310284537 ], [ 104.171593136811723, 14.629513201665748 ], [ 104.171033680468511, 14.629511219064701 ], [ 104.171001950858809, 14.630590032997608 ], [ 104.171084774556221, 14.631549829028474 ], [ 104.171072607013528, 14.631701396647502 ], [ 104.170639385262803, 14.631789509545953 ], [ 104.170591657442813, 14.632175921319378 ], [ 104.169413147425999, 14.632205292285528 ], [ 104.169376433718313, 14.632275048330138 ], [ 104.169475765862302, 14.633133715060932 ], [ 104.170358613006471, 14.633105667113973 ], [ 104.170359336203902, 14.633032624172468 ], [ 104.170801933037581, 14.633016713828773 ], [ 104.170980822744326, 14.633998756906124 ], [ 104.170262053242936, 14.634134192612459 ], [ 104.170302926803529, 14.634552785192719 ], [ 104.170604456512564, 14.634558972929897 ], [ 104.17128598784511, 14.634658859256582 ], [ 104.17183465898286, 14.634804457902066 ], [ 104.172369825088936, 14.635059023401176 ], [ 104.172346682770794, 14.635811148739455 ], [ 104.171810256722623, 14.635916164320733 ], [ 104.17180416028927, 14.636331121839616 ] ] ] ] } }
]
}
